{"type":"FeatureCollection","features":[{"type":"Feature","id":122426,"geometry":{"type":"Point","coordinates":[-56.66481399999998,-20.517315999999994]},"properties":{"OBJECTID":122426,"ID_AFLORAMENTO":459640,"ORIGEM":"Oracle","METODO_GEOPOSICIONAMENTO":"GPS Manual pós 24/05/2000","TOPONIMIA":"fazenda próxima a Rodovia MS 339, sentido Bodoquena Miranda","MUNICIPIO":"Bodoquena","UF":"MS","GEOLOGO":"Alexandre Alves de Oliveira","DATA_CADASTRO":1516233600000,"TIPO_AFLORAMENTO":"Lajedo ou Lajeiro","DESCRICAO":"Metacalcário calcítico cinza escuro lâminado a acamadado, com textura milonítica. Ocorre intercalações de lâminas de cor cinza escura e lâminas de cor branca, rica em fosfato. Observa-se veios milimétricos d calcita branca.","NUMERO_CAMPO":"AA-0121","ROCHAS":"Metacalcário calcítico","SUREG":"OUTROS","PROJETO":"Geologia das folhas Rio Perdido e Vila Campão","CODIGO_FOLHA":"SF.21-X-A-IV","FOLHA":"Vila Campão","ID_OCORRENCIA":70395,"PROVINCIA":"Indeterminada","STATUS_ECONOMICO":"Não explotado","IMPORTANCIA":"Ocorrência","LOCALIZACAO_MINA":null,"SITUACAO_MINA":null,"MOTIVO_INATIVIDADE_MINA":null,"SITUACAO_GARIMPO":null,"MOTIVO_INATIVIDADE_GARIMPO":null,"SUBSTANCIAS":"Fósforo","ROCHAS_HOSPEDEIRAS":null,"ROCHAS_ENCAIXANTES":null,"CLASSES_UTILITARIAS":"Não definida","MORFOLOGIA":null,"TEXTURAS":null,"TIPOS_ALTERACAO":null,"X":-56.664814,"Y":-20.517315999999997,"DATUM":"WGS84","__atlas_sublayer":0}},{"type":"Feature","id":122432,"geometry":{"type":"Point","coordinates":[-56.63498800000002,-20.598797999999988]},"properties":{"OBJECTID":122432,"ID_AFLORAMENTO":459670,"ORIGEM":"Oracle","METODO_GEOPOSICIONAMENTO":"GPS Manual pós 24/05/2000","TOPONIMIA":"Estrada velha Bonito Bodoquena","MUNICIPIO":"Bodoquena","UF":"MS","GEOLOGO":"Alexandre Alves de Oliveira","DATA_CADASTRO":1520208000000,"TIPO_AFLORAMENTO":"Lajedo ou Lajeiro","DESCRICAO":"Metacalcário calcítico cinza escuro lâminado intercalado com metacalciolutito bege. Estão muito intemperizados, com textura filítica e com lineação de estiramento. Ocorrem nódulos de calcário maciço rico em fosfato.","NUMERO_CAMPO":"AA-0262","ROCHAS":"Metacalcário calcítico, Metacalcilutito","SUREG":"OUTROS","PROJETO":"Geologia das folhas Rio Perdido e Vila Campão","CODIGO_FOLHA":"SF.21-X-A-IV","FOLHA":"Vila Campão","ID_OCORRENCIA":70401,"PROVINCIA":"Indeterminada","STATUS_ECONOMICO":"Não explotado","IMPORTANCIA":"Ocorrência","LOCALIZACAO_MINA":null,"SITUACAO_MINA":null,"MOTIVO_INATIVIDADE_MINA":null,"SITUACAO_GARIMPO":null,"MOTIVO_INATIVIDADE_GARIMPO":null,"SUBSTANCIAS":"Fósforo","ROCHAS_HOSPEDEIRAS":null,"ROCHAS_ENCAIXANTES":null,"CLASSES_UTILITARIAS":"Não definida","MORFOLOGIA":null,"TEXTURAS":null,"TIPOS_ALTERACAO":null,"X":-56.634988,"Y":-20.598798,"DATUM":"WGS84","__atlas_sublayer":0}},{"type":"Feature","id":122417,"geometry":{"type":"Point","coordinates":[-56.565409999999986,-20.987542899999994]},"properties":{"OBJECTID":122417,"ID_AFLORAMENTO":459508,"ORIGEM":"Oracle","METODO_GEOPOSICIONAMENTO":"GPS Manual pós 24/05/2000","TOPONIMIA":"estrada de terra para fazenda União 4 km a oeste da rodovia MS 178","MUNICIPIO":"Bonito","UF":"MS","GEOLOGO":"Alexandre Alves de Oliveira","DATA_CADASTRO":1516233600000,"TIPO_AFLORAMENTO":"Material disperso na superfície","DESCRICAO":"Calcário dolomítico cinza claro à roseo brechado. As fraturas estão preenchidas por mineral róseo e branco rico em fosfato. Ocorrem cavidades preenchidas por calcita nas bordas e quartzo no núcleo.","NUMERO_CAMPO":"AA-0124","ROCHAS":"Calcário dolomítico","SUREG":"OUTROS","PROJETO":"Geologia das folhas Rio Perdido e Vila Campão","CODIGO_FOLHA":"SF.21-X-A-IV","FOLHA":"Vila Campão","ID_OCORRENCIA":70386,"PROVINCIA":"Indeterminada","STATUS_ECONOMICO":"Não explotado","IMPORTANCIA":"Ocorrência","LOCALIZACAO_MINA":null,"SITUACAO_MINA":null,"MOTIVO_INATIVIDADE_MINA":null,"SITUACAO_GARIMPO":null,"MOTIVO_INATIVIDADE_GARIMPO":null,"SUBSTANCIAS":"Fósforo","ROCHAS_HOSPEDEIRAS":null,"ROCHAS_ENCAIXANTES":null,"CLASSES_UTILITARIAS":"Não definida","MORFOLOGIA":null,"TEXTURAS":null,"TIPOS_ALTERACAO":null,"X":-56.56541,"Y":-20.9875429,"DATUM":"WGS84","__atlas_sublayer":0}},{"type":"Feature","id":128992,"geometry":{"type":"Point","coordinates":[-56.60442599999999,-21.73556100000002]},"properties":{"OBJECTID":128992,"ID_AFLORAMENTO":413044,"ORIGEM":"Oracle","METODO_GEOPOSICIONAMENTO":"GPS Manual pós 24/05/2000","TOPONIMIA":"Rodovia Apa-Apore (Iagro para BR-267) Faz, Estero Grande","MUNICIPIO":"Bela Vista","UF":"MS","GEOLOGO":"Vicente Sérgio Costa","DATA_CADASTRO":1242172800000,"TIPO_AFLORAMENTO":"Corte de estrada","DESCRICAO":"Calciossilicática/Fosfato. Ocorrem também lentes de carbonato cinza escuro.","NUMERO_CAMPO":"VC-0035","ROCHAS":"Metamarga","SUREG":"OUTROS","PROJETO":"Bonito - Porto Murtinho","CODIGO_FOLHA":"SF.21-X-C-IV","FOLHA":"Fazenda Margarida","ID_OCORRENCIA":66193,"PROVINCIA":"Indeterminada","STATUS_ECONOMICO":"Não explotado","IMPORTANCIA":"Indício","LOCALIZACAO_MINA":null,"SITUACAO_MINA":null,"MOTIVO_INATIVIDADE_MINA":null,"SITUACAO_GARIMPO":null,"MOTIVO_INATIVIDADE_GARIMPO":null,"SUBSTANCIAS":"Fósforo","ROCHAS_HOSPEDEIRAS":null,"ROCHAS_ENCAIXANTES":null,"CLASSES_UTILITARIAS":"Não definida","MORFOLOGIA":null,"TEXTURAS":null,"TIPOS_ALTERACAO":null,"X":-56.604426,"Y":-21.735561,"DATUM":"WGS84","__atlas_sublayer":0}},{"type":"Feature","id":109072,"geometry":{"type":"Point","coordinates":[-56.604340707000006,-20.79961260099998]},"properties":{"OBJECTID":109072,"ID_AFLORAMENTO":202106,"ORIGEM":"Oracle","METODO_GEOPOSICIONAMENTO":"Levantamento em carta 1:10.000","TOPONIMIA":"Fazenda Ressaca","MUNICIPIO":"Bonito","UF":"MS","GEOLOGO":"A Definir","DATA_CADASTRO":1103673600000,"TIPO_AFLORAMENTO":null,"DESCRICAO":null,"NUMERO_CAMPO":null,"ROCHAS":null,"SUREG":"OUTROS","PROJETO":null,"CODIGO_FOLHA":null,"FOLHA":null,"ID_OCORRENCIA":49709,"PROVINCIA":"Tocantins","STATUS_ECONOMICO":"Não explotado","IMPORTANCIA":"Depósito","LOCALIZACAO_MINA":"Mina subterrânea (GPS sem sinal)","SITUACAO_MINA":null,"MOTIVO_INATIVIDADE_MINA":null,"SITUACAO_GARIMPO":null,"MOTIVO_INATIVIDADE_GARIMPO":null,"SUBSTANCIAS":"Fósforo","ROCHAS_HOSPEDEIRAS":"Fosforito","ROCHAS_ENCAIXANTES":"Calcário estromatolítico","CLASSES_UTILITARIAS":"Insumos para agricultura","MORFOLOGIA":"Estratificada","TEXTURAS":"Maciça","TIPOS_ALTERACAO":null,"X":-56.60434071,"Y":-20.7996126,"DATUM":"WGS84","__atlas_sublayer":0}},{"type":"Feature","id":122415,"geometry":{"type":"Point","coordinates":[-56.59514999999999,-20.79233290000002]},"properties":{"OBJECTID":122415,"ID_AFLORAMENTO":459479,"ORIGEM":"Oracle","METODO_GEOPOSICIONAMENTO":"GPS Manual pós 24/05/2000","TOPONIMIA":"Estrada de terra para a Fazenda Veneza, próximo a sede","MUNICIPIO":"Bonito","UF":"MS","GEOLOGO":"Alexandre Alves de Oliveira","DATA_CADASTRO":1517270400000,"TIPO_AFLORAMENTO":"Lajedo ou Lajeiro","DESCRICAO":"Metacalcário calcítico cinza escuro, lâminado. Ocorrem veios budinados e nódulos de metacalcário cinza claro, rico em fosfato.","NUMERO_CAMPO":"AA-0227","ROCHAS":"Metacalcário calcítico","SUREG":"OUTROS","PROJETO":"Geologia das folhas Rio Perdido e Vila Campão","CODIGO_FOLHA":"SF.21-X-A-IV","FOLHA":"Vila Campão","ID_OCORRENCIA":70381,"PROVINCIA":"Indeterminada","STATUS_ECONOMICO":"Não explotado","IMPORTANCIA":"Ocorrência","LOCALIZACAO_MINA":null,"SITUACAO_MINA":null,"MOTIVO_INATIVIDADE_MINA":null,"SITUACAO_GARIMPO":null,"MOTIVO_INATIVIDADE_GARIMPO":null,"SUBSTANCIAS":"Fósforo","ROCHAS_HOSPEDEIRAS":null,"ROCHAS_ENCAIXANTES":null,"CLASSES_UTILITARIAS":"Não definida","MORFOLOGIA":null,"TEXTURAS":null,"TIPOS_ALTERACAO":null,"X":-56.59515,"Y":-20.7923329,"DATUM":"WGS84","__atlas_sublayer":0}},{"type":"Feature","id":109721,"geometry":{"type":"Point","coordinates":[-56.573214565,-20.915714444999992]},"properties":{"OBJECTID":109721,"ID_AFLORAMENTO":202802,"ORIGEM":"Oracle","METODO_GEOPOSICIONAMENTO":"Levantamento em carta 1:250.000","TOPONIMIA":"Aquidauana","MUNICIPIO":"Bonito","UF":"MS","GEOLOGO":"A Definir","DATA_CADASTRO":1076025600000,"TIPO_AFLORAMENTO":null,"DESCRICAO":null,"NUMERO_CAMPO":null,"ROCHAS":null,"SUREG":"OUTROS","PROJETO":null,"CODIGO_FOLHA":null,"FOLHA":null,"ID_OCORRENCIA":11906,"PROVINCIA":"Tocantins","STATUS_ECONOMICO":"Não explotado","IMPORTANCIA":"Depósito","LOCALIZACAO_MINA":"Mina subterrânea (GPS sem sinal)","SITUACAO_MINA":null,"MOTIVO_INATIVIDADE_MINA":null,"SITUACAO_GARIMPO":null,"MOTIVO_INATIVIDADE_GARIMPO":null,"SUBSTANCIAS":"Fósforo","ROCHAS_HOSPEDEIRAS":"Siltito","ROCHAS_ENCAIXANTES":"Siltito","CLASSES_UTILITARIAS":"Insumos para agricultura","MORFOLOGIA":"Estratificada","TEXTURAS":"Disseminada","TIPOS_ALTERACAO":null,"X":-56.57321457,"Y":-20.91571445,"DATUM":"WGS84","__atlas_sublayer":0}},{"type":"Feature","id":122416,"geometry":{"type":"Point","coordinates":[-56.54649089999998,-20.987794000000008]},"properties":{"OBJECTID":122416,"ID_AFLORAMENTO":459507,"ORIGEM":"Oracle","METODO_GEOPOSICIONAMENTO":"GPS Manual pós 24/05/2000","TOPONIMIA":"Estrada de terra para fazenda Bocaiuva, na margem oeste da rodovia MS 178","MUNICIPIO":"Bonito","UF":"MS","GEOLOGO":"Alexandre Alves de Oliveira","DATA_CADASTRO":1516233600000,"TIPO_AFLORAMENTO":"Lajedo ou Lajeiro","DESCRICAO":"Calcário calcítico cinza escuro, maciço, bastante alterado. Apresenta níveis silicificados e níveis ricos em fosfato, principalmente em regiões mais alteradas da rocha.","NUMERO_CAMPO":"AA-0123","ROCHAS":"Calcário","SUREG":"OUTROS","PROJETO":"Geologia das folhas Rio Perdido e Vila Campão","CODIGO_FOLHA":"SF.21-X-A-IV","FOLHA":"Vila Campão","ID_OCORRENCIA":70385,"PROVINCIA":"Indeterminada","STATUS_ECONOMICO":"Não explotado","IMPORTANCIA":"Ocorrência","LOCALIZACAO_MINA":null,"SITUACAO_MINA":null,"MOTIVO_INATIVIDADE_MINA":null,"SITUACAO_GARIMPO":null,"MOTIVO_INATIVIDADE_GARIMPO":null,"SUBSTANCIAS":"Fósforo","ROCHAS_HOSPEDEIRAS":null,"ROCHAS_ENCAIXANTES":null,"CLASSES_UTILITARIAS":"Não definida","MORFOLOGIA":null,"TEXTURAS":null,"TIPOS_ALTERACAO":null,"X":-56.5464909,"Y":-20.987793999999997,"DATUM":"WGS84","__atlas_sublayer":0}},{"type":"Feature","id":109074,"geometry":{"type":"Point","coordinates":[-56.532396436,-20.989335439]},"properties":{"OBJECTID":109074,"ID_AFLORAMENTO":202108,"ORIGEM":"Oracle","METODO_GEOPOSICIONAMENTO":"Levantamento em carta 1:100.000","TOPONIMIA":"Fazenda Bocaiúva","MUNICIPIO":"Bonito","UF":"MS","GEOLOGO":"A Definir","DATA_CADASTRO":1103673600000,"TIPO_AFLORAMENTO":null,"DESCRICAO":null,"NUMERO_CAMPO":null,"ROCHAS":null,"SUREG":"OUTROS","PROJETO":null,"CODIGO_FOLHA":null,"FOLHA":null,"ID_OCORRENCIA":49711,"PROVINCIA":"Tocantins","STATUS_ECONOMICO":"Não explotado","IMPORTANCIA":"Depósito","LOCALIZACAO_MINA":"Mina subterrânea (GPS sem sinal)","SITUACAO_MINA":null,"MOTIVO_INATIVIDADE_MINA":null,"SITUACAO_GARIMPO":null,"MOTIVO_INATIVIDADE_GARIMPO":null,"SUBSTANCIAS":"Fósforo","ROCHAS_HOSPEDEIRAS":"Fosforito","ROCHAS_ENCAIXANTES":"Calcário estromatolítico","CLASSES_UTILITARIAS":"Insumos para agricultura","MORFOLOGIA":"Estratificada","TEXTURAS":"Maciça","TIPOS_ALTERACAO":null,"X":-56.53239644,"Y":-20.98933544,"DATUM":"WGS84","__atlas_sublayer":0}},{"type":"Feature","id":96669,"geometry":{"type":"Point","coordinates":[-52.733476601999996,-17.32766784400002]},"properties":{"OBJECTID":96669,"ID_AFLORAMENTO":185879,"ORIGEM":"Oracle","METODO_GEOPOSICIONAMENTO":"Levantamento em carta 1:500.000","TOPONIMIA":"Fazenda Palmital","MUNICIPIO":"Portelândia","UF":"GO","GEOLOGO":"A Definir","DATA_CADASTRO":1064534400000,"TIPO_AFLORAMENTO":null,"DESCRICAO":null,"NUMERO_CAMPO":null,"ROCHAS":null,"SUREG":"OUTROS","PROJETO":null,"CODIGO_FOLHA":null,"FOLHA":null,"ID_OCORRENCIA":39379,"PROVINCIA":"Paraná","STATUS_ECONOMICO":"Indeterminado","IMPORTANCIA":"Indeterminado","LOCALIZACAO_MINA":"Mina subterrânea (GPS sem sinal)","SITUACAO_MINA":null,"MOTIVO_INATIVIDADE_MINA":null,"SITUACAO_GARIMPO":null,"MOTIVO_INATIVIDADE_GARIMPO":null,"SUBSTANCIAS":"Fósforo","ROCHAS_HOSPEDEIRAS":"Folhelho","ROCHAS_ENCAIXANTES":null,"CLASSES_UTILITARIAS":"Insumos para agricultura","MORFOLOGIA":"Maciça","TEXTURAS":"Granular","TIPOS_ALTERACAO":null,"X":-52.7334766,"Y":-17.32766784,"DATUM":"WGS84","__atlas_sublayer":0}},{"type":"Feature","id":119487,"geometry":{"type":"Point","coordinates":[-56.5534533,-21.290561799999978]},"properties":{"OBJECTID":119487,"ID_AFLORAMENTO":459496,"ORIGEM":"Oracle","METODO_GEOPOSICIONAMENTO":"GPS Manual pós 24/05/2000","TOPONIMIA":"Estrada de terra para Pedreira Xaraés","MUNICIPIO":"Bonito","UF":"MS","GEOLOGO":"Lígia Maria de A Leite Ribeiro","DATA_CADASTRO":1538438400000,"TIPO_AFLORAMENTO":"Matacão","DESCRICAO":"Metacalcário calcítico branco maciço rico em fosfato.","NUMERO_CAMPO":"LR-0099","ROCHAS":"Metacalcário calcítico","SUREG":"OUTROS","PROJETO":"Geologia das folhas Rio Perdido e Vila Campão","CODIGO_FOLHA":"SF.21-X-C-I","FOLHA":"Rio Perdido","ID_OCORRENCIA":70384,"PROVINCIA":"Indeterminada","STATUS_ECONOMICO":"Não explotado","IMPORTANCIA":"Ocorrência","LOCALIZACAO_MINA":null,"SITUACAO_MINA":null,"MOTIVO_INATIVIDADE_MINA":null,"SITUACAO_GARIMPO":null,"MOTIVO_INATIVIDADE_GARIMPO":null,"SUBSTANCIAS":"Fósforo","ROCHAS_HOSPEDEIRAS":null,"ROCHAS_ENCAIXANTES":null,"CLASSES_UTILITARIAS":"Não definida","MORFOLOGIA":null,"TEXTURAS":null,"TIPOS_ALTERACAO":null,"X":-56.5534533,"Y":-21.2905618,"DATUM":"WGS84","__atlas_sublayer":0}},{"type":"Feature","id":122411,"geometry":{"type":"Point","coordinates":[-56.611519999999985,-20.79557890000001]},"properties":{"OBJECTID":122411,"ID_AFLORAMENTO":459477,"ORIGEM":"Oracle","METODO_GEOPOSICIONAMENTO":"GPS Manual pós 24/05/2000","TOPONIMIA":"Estrada de terra para a Fazenda Vale Verde","MUNICIPIO":"Bodoquena","UF":"MS","GEOLOGO":"Alexandre Alves de Oliveira","DATA_CADASTRO":1517270400000,"TIPO_AFLORAMENTO":"Lajedo ou Lajeiro","DESCRICAO":"Netacalcário calcítico cinza claro, maciço, intensamente fraturado e silicificado. As fraturas apresentam um padrão radial preenchidas por veios de calcita e mineral anédrico de cor amarela rica em fosfato.","NUMERO_CAMPO":"AA-0225","ROCHAS":"Metacalcário calcítico","SUREG":"OUTROS","PROJETO":"Geologia das folhas Rio Perdido e Vila Campão","CODIGO_FOLHA":"SF.21-X-A-IV","FOLHA":"Vila Campão","ID_OCORRENCIA":70379,"PROVINCIA":"Indeterminada","STATUS_ECONOMICO":"Não explotado","IMPORTANCIA":"Ocorrência","LOCALIZACAO_MINA":null,"SITUACAO_MINA":null,"MOTIVO_INATIVIDADE_MINA":null,"SITUACAO_GARIMPO":null,"MOTIVO_INATIVIDADE_GARIMPO":null,"SUBSTANCIAS":"Fósforo","ROCHAS_HOSPEDEIRAS":null,"ROCHAS_ENCAIXANTES":null,"CLASSES_UTILITARIAS":"Não definida","MORFOLOGIA":null,"TEXTURAS":null,"TIPOS_ALTERACAO":null,"X":-56.61152,"Y":-20.7955789,"DATUM":"WGS84","__atlas_sublayer":0}},{"type":"Feature","id":122422,"geometry":{"type":"Point","coordinates":[-56.60106300000001,-20.858089000000007]},"properties":{"OBJECTID":122422,"ID_AFLORAMENTO":459572,"ORIGEM":"Oracle","METODO_GEOPOSICIONAMENTO":"GPS Manual pós 24/05/2000","TOPONIMIA":"Estrada para a Ceita Corê","MUNICIPIO":"Bonito","UF":"MS","GEOLOGO":"Alexandre Alves de Oliveira","DATA_CADASTRO":1516665600000,"TIPO_AFLORAMENTO":"Lajedo ou Lajeiro","DESCRICAO":"Metacalcário calcítico cinza escuro maciço, parcialmente alterado alterado e silicificado. Nos níveis com silificação, ocorre associado, mineral branco rico em fosfato. Veios de calcita branca submilimétricos pervadem a rocha.","NUMERO_CAMPO":"AA-0188","ROCHAS":"Metacalcário calcítico","SUREG":"OUTROS","PROJETO":"Geologia das folhas Rio Perdido e Vila Campão","CODIGO_FOLHA":"SF.21-X-A-IV","FOLHA":"Vila Campão","ID_OCORRENCIA":70391,"PROVINCIA":"Indeterminada","STATUS_ECONOMICO":"Não explotado","IMPORTANCIA":"Ocorrência","LOCALIZACAO_MINA":null,"SITUACAO_MINA":null,"MOTIVO_INATIVIDADE_MINA":null,"SITUACAO_GARIMPO":null,"MOTIVO_INATIVIDADE_GARIMPO":null,"SUBSTANCIAS":"Fósforo","ROCHAS_HOSPEDEIRAS":null,"ROCHAS_ENCAIXANTES":null,"CLASSES_UTILITARIAS":"Não definida","MORFOLOGIA":null,"TEXTURAS":null,"TIPOS_ALTERACAO":null,"X":-56.601062999999996,"Y":-20.858089,"DATUM":"WGS84","__atlas_sublayer":0}},{"type":"Feature","id":109073,"geometry":{"type":"Point","coordinates":[-56.581007602,-20.917112927999995]},"properties":{"OBJECTID":109073,"ID_AFLORAMENTO":202107,"ORIGEM":"Oracle","METODO_GEOPOSICIONAMENTO":"Levantamento em carta 1:100.000","TOPONIMIA":"Chácara Nova Alegria","MUNICIPIO":"Bonito","UF":"MS","GEOLOGO":"A Definir","DATA_CADASTRO":1103673600000,"TIPO_AFLORAMENTO":null,"DESCRICAO":null,"NUMERO_CAMPO":null,"ROCHAS":null,"SUREG":"OUTROS","PROJETO":null,"CODIGO_FOLHA":null,"FOLHA":null,"ID_OCORRENCIA":49710,"PROVINCIA":"Tocantins","STATUS_ECONOMICO":"Não explotado","IMPORTANCIA":"Depósito","LOCALIZACAO_MINA":"Mina subterrânea (GPS sem sinal)","SITUACAO_MINA":null,"MOTIVO_INATIVIDADE_MINA":null,"SITUACAO_GARIMPO":null,"MOTIVO_INATIVIDADE_GARIMPO":null,"SUBSTANCIAS":"Fósforo","ROCHAS_HOSPEDEIRAS":"Fosforito","ROCHAS_ENCAIXANTES":"Calcário estromatolítico","CLASSES_UTILITARIAS":"Insumos para agricultura","MORFOLOGIA":"Estratificada","TEXTURAS":"Maciça","TIPOS_ALTERACAO":null,"X":-56.5810076,"Y":-20.917112930000002,"DATUM":"WGS84","__atlas_sublayer":0}},{"type":"Feature","id":122423,"geometry":{"type":"Point","coordinates":[-56.86230690000002,-20.93534699999998]},"properties":{"OBJECTID":122423,"ID_AFLORAMENTO":459602,"ORIGEM":"Oracle","METODO_GEOPOSICIONAMENTO":"GPS Manual pós 24/05/2000","TOPONIMIA":"Rodovia MS 339","MUNICIPIO":"Bonito","UF":"MS","GEOLOGO":"Alexandre Alves de Oliveira","DATA_CADASTRO":1516147200000,"TIPO_AFLORAMENTO":"Encosta de morro","DESCRICAO":"Calcário calcítico cinza maciço, bastante alterado. A capa de alteração possui cor branca rica em fosfato.","NUMERO_CAMPO":"AA-0083","ROCHAS":"Calcário calcítico","SUREG":"OUTROS","PROJETO":"Geologia das folhas Rio Perdido e Vila Campão","CODIGO_FOLHA":"SF.21-X-A-IV","FOLHA":"Vila Campão","ID_OCORRENCIA":70392,"PROVINCIA":"Indeterminada","STATUS_ECONOMICO":"Não explotado","IMPORTANCIA":"Ocorrência","LOCALIZACAO_MINA":null,"SITUACAO_MINA":null,"MOTIVO_INATIVIDADE_MINA":null,"SITUACAO_GARIMPO":null,"MOTIVO_INATIVIDADE_GARIMPO":null,"SUBSTANCIAS":"Fósforo","ROCHAS_HOSPEDEIRAS":null,"ROCHAS_ENCAIXANTES":null,"CLASSES_UTILITARIAS":"Não definida","MORFOLOGIA":null,"TEXTURAS":null,"TIPOS_ALTERACAO":null,"X":-56.8623069,"Y":-20.935347,"DATUM":"WGS84","__atlas_sublayer":0}},{"type":"Feature","id":122421,"geometry":{"type":"Point","coordinates":[-56.67749600000002,-20.916495899999973]},"properties":{"OBJECTID":122421,"ID_AFLORAMENTO":459551,"ORIGEM":"Oracle","METODO_GEOPOSICIONAMENTO":"GPS Manual pós 24/05/2000","TOPONIMIA":"Estrada de terra para a Fazenda Santa Feliciana","MUNICIPIO":"Bonito","UF":"MS","GEOLOGO":"Alexandre Alves de Oliveira","DATA_CADASTRO":1516320000000,"TIPO_AFLORAMENTO":"Rasteiro (Leito de estrada, terraplenagem, etc.)","DESCRICAO":"Calcário dolomítico cinza claro bastante alterado e fraturado. Percolando as fraturas, ocorre mineral amorfo branco rico em fosfato.","NUMERO_CAMPO":"AA-0167","ROCHAS":"Calcário dolomítico","SUREG":"OUTROS","PROJETO":"Geologia das folhas Rio Perdido e Vila Campão","CODIGO_FOLHA":"SF.21-X-A-IV","FOLHA":"Vila Campão","ID_OCORRENCIA":70390,"PROVINCIA":"Indeterminada","STATUS_ECONOMICO":"Não explotado","IMPORTANCIA":"Ocorrência","LOCALIZACAO_MINA":null,"SITUACAO_MINA":null,"MOTIVO_INATIVIDADE_MINA":null,"SITUACAO_GARIMPO":null,"MOTIVO_INATIVIDADE_GARIMPO":null,"SUBSTANCIAS":"Fósforo","ROCHAS_HOSPEDEIRAS":null,"ROCHAS_ENCAIXANTES":null,"CLASSES_UTILITARIAS":"Não definida","MORFOLOGIA":null,"TEXTURAS":null,"TIPOS_ALTERACAO":null,"X":-56.677496,"Y":-20.9164959,"DATUM":"WGS84","__atlas_sublayer":0}},{"type":"Feature","id":122425,"geometry":{"type":"Point","coordinates":[-56.5867179,-20.909178899999972]},"properties":{"OBJECTID":122425,"ID_AFLORAMENTO":459612,"ORIGEM":"Oracle","METODO_GEOPOSICIONAMENTO":"GPS Manual pós 24/05/2000","TOPONIMIA":"Rodovia MS 178","MUNICIPIO":"Bonito","UF":"MS","GEOLOGO":"Alexandre Alves de Oliveira","DATA_CADASTRO":1516147200000,"TIPO_AFLORAMENTO":"Corte de estrada","DESCRICAO":"Metarritimito ocre lâminado, com alternância de lâminas e camadas centimétricas de metasiltito e metargilito. Apresenta textura filítica, com acamamento sedimentar paralelo a clivagem. A 20 metros para NW, contato com metacalciolutito cinza escuro, bastante deformado e com textura ardosiana. Apresenta fosfato na capa de alteração.","NUMERO_CAMPO":"AA-0093","ROCHAS":"Metacalcilutito, Metarritmito","SUREG":"OUTROS","PROJETO":"Geologia das folhas Rio Perdido e Vila Campão","CODIGO_FOLHA":"SF.21-X-A-IV","FOLHA":"Vila Campão","ID_OCORRENCIA":70394,"PROVINCIA":"Indeterminada","STATUS_ECONOMICO":"Não explotado","IMPORTANCIA":"Ocorrência","LOCALIZACAO_MINA":null,"SITUACAO_MINA":null,"MOTIVO_INATIVIDADE_MINA":null,"SITUACAO_GARIMPO":null,"MOTIVO_INATIVIDADE_GARIMPO":null,"SUBSTANCIAS":"Fósforo","ROCHAS_HOSPEDEIRAS":null,"ROCHAS_ENCAIXANTES":null,"CLASSES_UTILITARIAS":"Não definida","MORFOLOGIA":null,"TEXTURAS":null,"TIPOS_ALTERACAO":null,"X":-56.5867179,"Y":-20.9091789,"DATUM":"WGS84","__atlas_sublayer":0}},{"type":"Feature","id":122418,"geometry":{"type":"Point","coordinates":[-56.53668290000002,-20.945321999999976]},"properties":{"OBJECTID":122418,"ID_AFLORAMENTO":459519,"ORIGEM":"Oracle","METODO_GEOPOSICIONAMENTO":"GPS Manual pós 24/05/2000","TOPONIMIA":"Estrada de terra a leste da rodovia MS 178","MUNICIPIO":"Bonito","UF":"MS","GEOLOGO":"Alexandre Alves de Oliveira","DATA_CADASTRO":1516233600000,"TIPO_AFLORAMENTO":"Lajedo ou Lajeiro","DESCRICAO":"Metacalcário calcítico cinza escuro, maciço, bastante deformado. Veios de calcita de espessura milimétrica concordantes e discordantes pervadem a rocha. Está parcialmente alterado, com mineral branco rico em fosfato na capa de alteração.","NUMERO_CAMPO":"AA-0135","ROCHAS":"Metacalcário calcítico","SUREG":"OUTROS","PROJETO":"Geologia das folhas Rio Perdido e Vila Campão","CODIGO_FOLHA":"SF.21-X-A-IV","FOLHA":"Vila Campão","ID_OCORRENCIA":70387,"PROVINCIA":"Indeterminada","STATUS_ECONOMICO":"Não explotado","IMPORTANCIA":"Ocorrência","LOCALIZACAO_MINA":null,"SITUACAO_MINA":null,"MOTIVO_INATIVIDADE_MINA":null,"SITUACAO_GARIMPO":null,"MOTIVO_INATIVIDADE_GARIMPO":null,"SUBSTANCIAS":"Fósforo","ROCHAS_HOSPEDEIRAS":null,"ROCHAS_ENCAIXANTES":null,"CLASSES_UTILITARIAS":"Não definida","MORFOLOGIA":null,"TEXTURAS":null,"TIPOS_ALTERACAO":null,"X":-56.5366829,"Y":-20.945321999999997,"DATUM":"WGS84","__atlas_sublayer":0}},{"type":"Feature","id":122419,"geometry":{"type":"Point","coordinates":[-56.535336900000004,-20.900418899999977]},"properties":{"OBJECTID":122419,"ID_AFLORAMENTO":459524,"ORIGEM":"Oracle","METODO_GEOPOSICIONAMENTO":"GPS Manual pós 24/05/2000","TOPONIMIA":"Estrada para Nascente Azul","MUNICIPIO":"Bonito","UF":"MS","GEOLOGO":"Alexandre Alves de Oliveira","DATA_CADASTRO":1516233600000,"TIPO_AFLORAMENTO":"Matacão","DESCRICAO":"Metacalcário dolomítico cinza claro, maciço. Ocorre parcialmente alterado, bastante fraturado. As fraturas são irregulares, preenchidas por calcita e mineral branco rico em fosfato.","NUMERO_CAMPO":"AA-0140","ROCHAS":"Metacalcário dolomítico","SUREG":"OUTROS","PROJETO":"Geologia das folhas Rio Perdido e Vila Campão","CODIGO_FOLHA":"SF.21-X-A-IV","FOLHA":"Vila Campão","ID_OCORRENCIA":70388,"PROVINCIA":"Indeterminada","STATUS_ECONOMICO":"Não explotado","IMPORTANCIA":"Ocorrência","LOCALIZACAO_MINA":null,"SITUACAO_MINA":null,"MOTIVO_INATIVIDADE_MINA":null,"SITUACAO_GARIMPO":null,"MOTIVO_INATIVIDADE_GARIMPO":null,"SUBSTANCIAS":"Fósforo","ROCHAS_HOSPEDEIRAS":null,"ROCHAS_ENCAIXANTES":null,"CLASSES_UTILITARIAS":"Não definida","MORFOLOGIA":null,"TEXTURAS":null,"TIPOS_ALTERACAO":null,"X":-56.5353369,"Y":-20.9004189,"DATUM":"WGS84","__atlas_sublayer":0}},{"type":"Feature","id":107185,"geometry":{"type":"Point","coordinates":[-57.431660496999996,-19.506900839000025]},"properties":{"OBJECTID":107185,"ID_AFLORAMENTO":199978,"ORIGEM":"Oracle","METODO_GEOPOSICIONAMENTO":"GPS Manual pós 24/05/2000","TOPONIMIA":"Rio Paraguai","MUNICIPIO":"Corumbá","UF":"MS","GEOLOGO":"A Definir","DATA_CADASTRO":1144195200000,"TIPO_AFLORAMENTO":null,"DESCRICAO":null,"NUMERO_CAMPO":null,"ROCHAS":null,"SUREG":"OUTROS","PROJETO":null,"CODIGO_FOLHA":null,"FOLHA":null,"ID_OCORRENCIA":50889,"PROVINCIA":"Tocantins","STATUS_ECONOMICO":"Indeterminado","IMPORTANCIA":"Indeterminado","LOCALIZACAO_MINA":"Mina subterrânea (GPS sem sinal)","SITUACAO_MINA":null,"MOTIVO_INATIVIDADE_MINA":null,"SITUACAO_GARIMPO":null,"MOTIVO_INATIVIDADE_GARIMPO":null,"SUBSTANCIAS":"Fósforo","ROCHAS_HOSPEDEIRAS":"Calcário, Dolomito","ROCHAS_ENCAIXANTES":"Calcário, Dolomito","CLASSES_UTILITARIAS":"Insumos para agricultura","MORFOLOGIA":"Estratificada","TEXTURAS":"Disseminada","TIPOS_ALTERACAO":null,"X":-57.4316605,"Y":-19.50690084,"DATUM":"WGS84","__atlas_sublayer":0}},{"type":"Feature","id":122413,"geometry":{"type":"Point","coordinates":[-56.803803000000016,-20.84380299999998]},"properties":{"OBJECTID":122413,"ID_AFLORAMENTO":459453,"ORIGEM":"Oracle","METODO_GEOPOSICIONAMENTO":"GPS Manual pós 24/05/2000","TOPONIMIA":"MS-339 saída para fazenda baia das garças","MUNICIPIO":"Bodoquena","UF":"MS","GEOLOGO":"Alexandre Alves de Oliveira","DATA_CADASTRO":1515628800000,"TIPO_AFLORAMENTO":"Rasteiro (Leito de estrada, terraplenagem, etc.)","DESCRICAO":"Calcário cinza escuro calcítico, laminado a bandado. Ocorrem juntas de cisalhamento preenchidas por calcita branca e tension gashes de calcita. A rocha está pouco alterda. reage com solução de molibidato, indicado a presença de fosfato. Foi observado possíveis estromatólitos.","NUMERO_CAMPO":"AA-0006","ROCHAS":"Calcário calcítico","SUREG":"OUTROS","PROJETO":"Geologia das folhas Rio Perdido e Vila Campão","CODIGO_FOLHA":"SF.21-X-A-IV","FOLHA":"Vila Campão","ID_OCORRENCIA":70378,"PROVINCIA":"Indeterminada","STATUS_ECONOMICO":"Não explotado","IMPORTANCIA":"Ocorrência","LOCALIZACAO_MINA":null,"SITUACAO_MINA":null,"MOTIVO_INATIVIDADE_MINA":null,"SITUACAO_GARIMPO":null,"MOTIVO_INATIVIDADE_GARIMPO":null,"SUBSTANCIAS":"Fósforo","ROCHAS_HOSPEDEIRAS":null,"ROCHAS_ENCAIXANTES":null,"CLASSES_UTILITARIAS":"Não definida","MORFOLOGIA":null,"TEXTURAS":null,"TIPOS_ALTERACAO":null,"X":-56.803802999999995,"Y":-20.843802999999998,"DATUM":"WGS84","__atlas_sublayer":0}},{"type":"Feature","id":122420,"geometry":{"type":"Point","coordinates":[-56.705418899999984,-20.989568899999995]},"properties":{"OBJECTID":122420,"ID_AFLORAMENTO":459544,"ORIGEM":"Oracle","METODO_GEOPOSICIONAMENTO":"GPS Manual pós 24/05/2000","TOPONIMIA":"Estrada da Fazenda Santa Feliciana","MUNICIPIO":"Bonito","UF":"MS","GEOLOGO":"Alexandre Alves de Oliveira","DATA_CADASTRO":1516320000000,"TIPO_AFLORAMENTO":"Lajedo ou Lajeiro","DESCRICAO":"Calcário calcítico cinza escuro em camadas tabulares delgadas. Apresenta-se fraturado com veios de calcita branca e de mineral anédrico de cor vinho rico em fosfato.","NUMERO_CAMPO":"AA-0160","ROCHAS":"Calcário calcítico","SUREG":"OUTROS","PROJETO":"Geologia das folhas Rio Perdido e Vila Campão","CODIGO_FOLHA":"SF.21-X-A-IV","FOLHA":"Vila Campão","ID_OCORRENCIA":70389,"PROVINCIA":"Indeterminada","STATUS_ECONOMICO":"Não explotado","IMPORTANCIA":"Ocorrência","LOCALIZACAO_MINA":null,"SITUACAO_MINA":null,"MOTIVO_INATIVIDADE_MINA":null,"SITUACAO_GARIMPO":null,"MOTIVO_INATIVIDADE_GARIMPO":null,"SUBSTANCIAS":"Fósforo","ROCHAS_HOSPEDEIRAS":null,"ROCHAS_ENCAIXANTES":null,"CLASSES_UTILITARIAS":"Não definida","MORFOLOGIA":null,"TEXTURAS":null,"TIPOS_ALTERACAO":null,"X":-56.7054189,"Y":-20.9895689,"DATUM":"WGS84","__atlas_sublayer":0}},{"type":"Feature","id":122409,"geometry":{"type":"Point","coordinates":[-56.66039089999998,-20.805305900000008]},"properties":{"OBJECTID":122409,"ID_AFLORAMENTO":459332,"ORIGEM":"Oracle","METODO_GEOPOSICIONAMENTO":"GPS Manual pós 24/05/2000","TOPONIMIA":"Estrada para o Assentamento Serro Alegre na Fazenda Água Boa","MUNICIPIO":"Bodoquena","UF":"MS","GEOLOGO":"Alexandre Alves de Oliveira","DATA_CADASTRO":1516665600000,"TIPO_AFLORAMENTO":"Matacão","DESCRICAO":"Metacalcário dolomítico cinza claro, parcialmente silicificado e com fraturas preenchidas por mineral amarelo rico em fosfato.","NUMERO_CAMPO":"AA-0199","ROCHAS":"Metacalcário dolomítico","SUREG":"OUTROS","PROJETO":"Geologia das folhas Rio Perdido e Vila Campão","CODIGO_FOLHA":"SF.21-X-A-IV","FOLHA":"Vila Campão","ID_OCORRENCIA":70374,"PROVINCIA":"Indeterminada","STATUS_ECONOMICO":"Não explotado","IMPORTANCIA":"Ocorrência","LOCALIZACAO_MINA":null,"SITUACAO_MINA":null,"MOTIVO_INATIVIDADE_MINA":null,"SITUACAO_GARIMPO":null,"MOTIVO_INATIVIDADE_GARIMPO":null,"SUBSTANCIAS":"Fósforo","ROCHAS_HOSPEDEIRAS":null,"ROCHAS_ENCAIXANTES":null,"CLASSES_UTILITARIAS":"Não definida","MORFOLOGIA":null,"TEXTURAS":null,"TIPOS_ALTERACAO":null,"X":-56.6603909,"Y":-20.8053059,"DATUM":"WGS84","__atlas_sublayer":0}},{"type":"Feature","id":122408,"geometry":{"type":"Point","coordinates":[-56.64199500000001,-20.804986900000017]},"properties":{"OBJECTID":122408,"ID_AFLORAMENTO":459330,"ORIGEM":"Oracle","METODO_GEOPOSICIONAMENTO":"GPS Manual pós 24/05/2000","TOPONIMIA":"Estrada de terra para o Assentamento Serro Alegre","MUNICIPIO":"Bodoquena","UF":"MS","GEOLOGO":"Alexandre Alves de Oliveira","DATA_CADASTRO":1516665600000,"TIPO_AFLORAMENTO":"Matacão","DESCRICAO":"Metacalcário dolomítico cinza claro, maciço. Ocorre bastante fraturado estas quais preenchidas por mineral amarelo esbranquiçado rico em fosfato. è entrecortada por inúmeros vênulos de calcita branca.","NUMERO_CAMPO":"AA-0197","ROCHAS":"Metacalcário dolomítico","SUREG":"OUTROS","PROJETO":"Geologia das folhas Rio Perdido e Vila Campão","CODIGO_FOLHA":"SF.21-X-A-IV","FOLHA":"Vila Campão","ID_OCORRENCIA":70373,"PROVINCIA":"Indeterminada","STATUS_ECONOMICO":"Não explotado","IMPORTANCIA":"Ocorrência","LOCALIZACAO_MINA":null,"SITUACAO_MINA":null,"MOTIVO_INATIVIDADE_MINA":null,"SITUACAO_GARIMPO":null,"MOTIVO_INATIVIDADE_GARIMPO":null,"SUBSTANCIAS":"Fósforo","ROCHAS_HOSPEDEIRAS":null,"ROCHAS_ENCAIXANTES":null,"CLASSES_UTILITARIAS":"Não definida","MORFOLOGIA":null,"TEXTURAS":null,"TIPOS_ALTERACAO":null,"X":-56.641994999999994,"Y":-20.8049869,"DATUM":"WGS84","__atlas_sublayer":0}},{"type":"Feature","id":122414,"geometry":{"type":"Point","coordinates":[-56.60389190000001,-20.79671689999998]},"properties":{"OBJECTID":122414,"ID_AFLORAMENTO":459478,"ORIGEM":"Oracle","METODO_GEOPOSICIONAMENTO":"GPS Manual pós 24/05/2000","TOPONIMIA":"Estrada de terra para a Fazenda Veneza","MUNICIPIO":"Bonito","UF":"MS","GEOLOGO":"Alexandre Alves de Oliveira","DATA_CADASTRO":1517270400000,"TIPO_AFLORAMENTO":"Lajedo ou Lajeiro","DESCRICAO":"Metacalcário calcítico cinza, maciço, bastante fraturado. Preenchendo as fraturas ocorre calcita, sílica e mineral anédrico amarelo rico em fosfato.","NUMERO_CAMPO":"AA-0226","ROCHAS":"Metacalcário calcítico","SUREG":"OUTROS","PROJETO":"Geologia das folhas Rio Perdido e Vila Campão","CODIGO_FOLHA":"SF.21-X-A-IV","FOLHA":"Vila Campão","ID_OCORRENCIA":70380,"PROVINCIA":"Indeterminada","STATUS_ECONOMICO":"Não explotado","IMPORTANCIA":"Ocorrência","LOCALIZACAO_MINA":null,"SITUACAO_MINA":null,"MOTIVO_INATIVIDADE_MINA":null,"SITUACAO_GARIMPO":null,"MOTIVO_INATIVIDADE_GARIMPO":null,"SUBSTANCIAS":"Fósforo","ROCHAS_HOSPEDEIRAS":null,"ROCHAS_ENCAIXANTES":null,"CLASSES_UTILITARIAS":"Não definida","MORFOLOGIA":null,"TEXTURAS":null,"TIPOS_ALTERACAO":null,"X":-56.6038919,"Y":-20.7967169,"DATUM":"WGS84","__atlas_sublayer":0}},{"type":"Feature","id":129005,"geometry":{"type":"Point","coordinates":[-56.76145100000002,-21.926050999999973]},"properties":{"OBJECTID":129005,"ID_AFLORAMENTO":413350,"ORIGEM":"Oracle","METODO_GEOPOSICIONAMENTO":"GPS Manual pós 24/05/2000","TOPONIMIA":"Fazenda Margarida para MS-384","MUNICIPIO":"Bela Vista","UF":"MS","GEOLOGO":"Vicente Sérgio Costa","DATA_CADASTRO":1242259200000,"TIPO_AFLORAMENTO":"Corte de estrada","DESCRICAO":"Metaritmito carbonoso (marga/folhelho). Mais fosfato no folhelho.","NUMERO_CAMPO":"VC-0058","ROCHAS":"Metarritmito","SUREG":"OUTROS","PROJETO":"Bonito - Porto Murtinho","CODIGO_FOLHA":"SF.21-X-C-IV","FOLHA":"Fazenda Margarida","ID_OCORRENCIA":66207,"PROVINCIA":"Indeterminada","STATUS_ECONOMICO":"Não explotado","IMPORTANCIA":"Indício","LOCALIZACAO_MINA":null,"SITUACAO_MINA":null,"MOTIVO_INATIVIDADE_MINA":null,"SITUACAO_GARIMPO":null,"MOTIVO_INATIVIDADE_GARIMPO":null,"SUBSTANCIAS":"Fósforo","ROCHAS_HOSPEDEIRAS":null,"ROCHAS_ENCAIXANTES":null,"CLASSES_UTILITARIAS":"Não definida","MORFOLOGIA":null,"TEXTURAS":null,"TIPOS_ALTERACAO":null,"X":-56.761450999999994,"Y":-21.926050999999998,"DATUM":"WGS84","__atlas_sublayer":0}},{"type":"Feature","id":122410,"geometry":{"type":"Point","coordinates":[-56.89417700000001,-20.543450000000007]},"properties":{"OBJECTID":122410,"ID_AFLORAMENTO":459384,"ORIGEM":"Oracle","METODO_GEOPOSICIONAMENTO":"GPS Manual pós 24/05/2000","TOPONIMIA":"Estrada de terra próximo a morraria do sul","MUNICIPIO":"Bodoquena","UF":"MS","GEOLOGO":"Alexandre Alves de Oliveira","DATA_CADASTRO":1515715200000,"TIPO_AFLORAMENTO":"Lajedo ou Lajeiro","DESCRICAO":"Calcário dolomítico róseo à cinza claro, parcialmente alterado, estromatolítico. O calcário apresenta minerais de forma botoedral, de cor branca e amarela rico em fosfato. Além disso observa-se pequenas druzas preenchidas com cristais idiomórficos de quartzo. Os estromatólitos constituem colônias de 3 a 6 cm de altura e 1-2 cm de raio.","NUMERO_CAMPO":"AA-0035","ROCHAS":"Calcário dolomítico","SUREG":"OUTROS","PROJETO":"Geologia das folhas Rio Perdido e Vila Campão","CODIGO_FOLHA":"SF.21-X-A-IV","FOLHA":"Vila Campão","ID_OCORRENCIA":70375,"PROVINCIA":"Indeterminada","STATUS_ECONOMICO":"Não explotado","IMPORTANCIA":"Ocorrência","LOCALIZACAO_MINA":null,"SITUACAO_MINA":null,"MOTIVO_INATIVIDADE_MINA":null,"SITUACAO_GARIMPO":null,"MOTIVO_INATIVIDADE_GARIMPO":null,"SUBSTANCIAS":"Fósforo","ROCHAS_HOSPEDEIRAS":null,"ROCHAS_ENCAIXANTES":null,"CLASSES_UTILITARIAS":"Não definida","MORFOLOGIA":null,"TEXTURAS":null,"TIPOS_ALTERACAO":null,"X":-56.894177,"Y":-20.54345,"DATUM":"WGS84","__atlas_sublayer":0}},{"type":"Feature","id":109071,"geometry":{"type":"Point","coordinates":[-56.59572966500002,-20.838223820999985]},"properties":{"OBJECTID":109071,"ID_AFLORAMENTO":202105,"ORIGEM":"Oracle","METODO_GEOPOSICIONAMENTO":"Levantamento em carta 1:10.000","TOPONIMIA":"Fazenda Ressaca","MUNICIPIO":"Bonito","UF":"MS","GEOLOGO":"A Definir","DATA_CADASTRO":1103673600000,"TIPO_AFLORAMENTO":null,"DESCRICAO":null,"NUMERO_CAMPO":null,"ROCHAS":null,"SUREG":"OUTROS","PROJETO":null,"CODIGO_FOLHA":null,"FOLHA":null,"ID_OCORRENCIA":49708,"PROVINCIA":"Tocantins","STATUS_ECONOMICO":"Não explotado","IMPORTANCIA":"Depósito","LOCALIZACAO_MINA":"Mina subterrânea (GPS sem sinal)","SITUACAO_MINA":null,"MOTIVO_INATIVIDADE_MINA":null,"SITUACAO_GARIMPO":null,"MOTIVO_INATIVIDADE_GARIMPO":null,"SUBSTANCIAS":"Fósforo","ROCHAS_HOSPEDEIRAS":"Brecha carbonática","ROCHAS_ENCAIXANTES":"Calcário estromatolítico","CLASSES_UTILITARIAS":"Insumos para agricultura","MORFOLOGIA":"Estratificada","TEXTURAS":"Maciça","TIPOS_ALTERACAO":null,"X":-56.59572967,"Y":-20.83822382,"DATUM":"WGS84","__atlas_sublayer":0}},{"type":"Feature","id":96660,"geometry":{"type":"Point","coordinates":[-52.822366097999975,-17.371834466999985]},"properties":{"OBJECTID":96660,"ID_AFLORAMENTO":185854,"ORIGEM":"Oracle","METODO_GEOPOSICIONAMENTO":"Levantamento em carta 1:500.000","TOPONIMIA":"Fazenda Cachoeira do Salto","MUNICIPIO":"Portelândia","UF":"GO","GEOLOGO":"A Definir","DATA_CADASTRO":1064534400000,"TIPO_AFLORAMENTO":null,"DESCRICAO":null,"NUMERO_CAMPO":null,"ROCHAS":null,"SUREG":"OUTROS","PROJETO":null,"CODIGO_FOLHA":null,"FOLHA":null,"ID_OCORRENCIA":39347,"PROVINCIA":"Paraná","STATUS_ECONOMICO":"Indeterminado","IMPORTANCIA":"Indeterminado","LOCALIZACAO_MINA":"Mina subterrânea (GPS sem sinal)","SITUACAO_MINA":null,"MOTIVO_INATIVIDADE_MINA":null,"SITUACAO_GARIMPO":null,"MOTIVO_INATIVIDADE_GARIMPO":null,"SUBSTANCIAS":"Fósforo","ROCHAS_HOSPEDEIRAS":"Folhelho","ROCHAS_ENCAIXANTES":null,"CLASSES_UTILITARIAS":"Insumos para agricultura","MORFOLOGIA":"Estratiforme","TEXTURAS":"Granular","TIPOS_ALTERACAO":null,"X":-52.822366099999996,"Y":-17.37183447,"DATUM":"WGS84","__atlas_sublayer":0}}]}