{"type":"FeatureCollection","features":[{"type":"Feature","properties":{"ID_UNIDADE_ESTRATIGRAFICA":877,"SIGLA":"NP3bo","HIERARQUIA":"Formação","NOME":"Formação Bocaina","AMBIENTE_TECTONICO":null,"SUB_AMBIENTE_TECTONICO":null,"NOME_PAI":"NP3co - Grupo Corumbá","LEGENDA":"Calcário dolomítico e calcítico brancos a cinza claros, estromatolíticos e as vezes com níveis fosforíticos no topo das camadas. Apresenta-se com estrutura maciça e comumente silicificado.","ESCALA":"1:1.000.000","MAPA":"Mapa geológico do estado do Mato Grosso do Sul","LITOTIPOS":"Calcário calcítico, Calcário dolomítico, Dolomito","RANGE":"NP3","IDADE_MIN":541.1,"IDADE_MAX":635,"EON_MIN":"Proterozóico","EON_MAX":"Proterozóico","ERA_MIN":"Neoproterozóico","ERA_MAX":"Neoproterozóico"},"geometry":{"type":"Polygon","coordinates":[[[-57.73136645300002,-17.689323457],[-57.748902305,-17.658240089000003],[-57.75620697300002,-17.622869877000028],[-57.771893775000024,-17.59935783399999],[-57.77996857300002,-17.60089608200002],[-57.78275103300001,-17.644239503999984],[-57.76010668499998,-17.665406623000024],[-57.75508390900001,-17.686550049999994],[-57.73136645300002,-17.689323457]]]}},{"type":"Feature","properties":{"ID_UNIDADE_ESTRATIGRAFICA":877,"SIGLA":"NP3bo","HIERARQUIA":"Formação","NOME":"Formação Bocaina","AMBIENTE_TECTONICO":null,"SUB_AMBIENTE_TECTONICO":null,"NOME_PAI":"NP3co - Grupo Corumbá","LEGENDA":"Calcário dolomítico e calcítico brancos a cinza claros, estromatolíticos e as vezes com níveis fosforíticos no topo das camadas. Apresenta-se com estrutura maciça e comumente silicificado.","ESCALA":"1:1.000.000","MAPA":"Mapa geológico do estado do Mato Grosso do Sul","LITOTIPOS":"Calcário calcítico, Calcário dolomítico, Dolomito","RANGE":"NP3","IDADE_MIN":541.1,"IDADE_MAX":635,"EON_MIN":"Proterozóico","EON_MAX":"Proterozóico","ERA_MIN":"Neoproterozóico","ERA_MAX":"Neoproterozóico"},"geometry":{"type":"Polygon","coordinates":[[[-57.660895478999976,-17.93804169499998],[-57.65832994300001,-17.91402304899998],[-57.68361906299998,-17.89581876699998],[-57.674510161,-17.912105380000014],[-57.660895478999976,-17.93804169499998]]]}},{"type":"Feature","properties":{"ID_UNIDADE_ESTRATIGRAFICA":877,"SIGLA":"NP3bo","HIERARQUIA":"Formação","NOME":"Formação Bocaina","AMBIENTE_TECTONICO":null,"SUB_AMBIENTE_TECTONICO":null,"NOME_PAI":"NP3co - Grupo Corumbá","LEGENDA":"Calcário dolomítico e calcítico brancos a cinza claros, estromatolíticos e as vezes com níveis fosforíticos no topo das camadas. Apresenta-se com estrutura maciça e comumente silicificado.","ESCALA":"1:1.000.000","MAPA":"Mapa geológico do estado do Mato Grosso do Sul","LITOTIPOS":"Calcário calcítico, Calcário dolomítico, Dolomito","RANGE":"NP3","IDADE_MIN":541.1,"IDADE_MAX":635,"EON_MIN":"Proterozóico","EON_MAX":"Proterozóico","ERA_MIN":"Neoproterozóico","ERA_MAX":"Neoproterozóico"},"geometry":{"type":"Polygon","coordinates":[[[-57.70434808800002,-18.702178178999986],[-57.671122862999994,-18.705249311999978],[-57.66320531000002,-18.689414651999982],[-57.64913006900002,-18.686775579000027],[-57.61746030299997,-18.601444259000004],[-57.58667063799999,-18.596166114000027],[-57.636520657000005,-18.486841740999978],[-57.70434808800002,-18.702178178999986]]]}},{"type":"Feature","properties":{"ID_UNIDADE_ESTRATIGRAFICA":877,"SIGLA":"NP3bo","HIERARQUIA":"Formação","NOME":"Formação Bocaina","AMBIENTE_TECTONICO":null,"SUB_AMBIENTE_TECTONICO":null,"NOME_PAI":"NP3co - Grupo Corumbá","LEGENDA":"Calcário dolomítico e calcítico brancos a cinza claros, estromatolíticos e as vezes com níveis fosforíticos no topo das camadas. Apresenta-se com estrutura maciça e comumente silicificado.","ESCALA":"1:1.000.000","MAPA":"Mapa geológico do estado do Mato Grosso do Sul","LITOTIPOS":"Calcário calcítico, Calcário dolomítico, Dolomito","RANGE":"NP3","IDADE_MIN":541.1,"IDADE_MAX":635,"EON_MIN":"Proterozóico","EON_MAX":"Proterozóico","ERA_MIN":"Neoproterozóico","ERA_MAX":"Neoproterozóico"},"geometry":{"type":"Polygon","coordinates":[[[-57.611367100999985,-18.486046465000015],[-57.632593676,-18.474656900000014],[-57.635184804000005,-18.482593452999993],[-57.62655568299999,-18.490290171000026],[-57.611367100999985,-18.486046465000015]]]}},{"type":"Feature","properties":{"ID_UNIDADE_ESTRATIGRAFICA":877,"SIGLA":"NP3bo","HIERARQUIA":"Formação","NOME":"Formação Bocaina","AMBIENTE_TECTONICO":null,"SUB_AMBIENTE_TECTONICO":null,"NOME_PAI":"NP3co - Grupo Corumbá","LEGENDA":"Calcário dolomítico e calcítico brancos a cinza claros, estromatolíticos e as vezes com níveis fosforíticos no topo das camadas. Apresenta-se com estrutura maciça e comumente silicificado.","ESCALA":"1:1.000.000","MAPA":"Mapa geológico do estado do Mato Grosso do Sul","LITOTIPOS":"Calcário calcítico, Calcário dolomítico, Dolomito","RANGE":"NP3","IDADE_MIN":541.1,"IDADE_MAX":635,"EON_MIN":"Proterozóico","EON_MAX":"Proterozóico","ERA_MIN":"Neoproterozóico","ERA_MAX":"Neoproterozóico"},"geometry":{"type":"Polygon","coordinates":[[[-57.41550217700001,-18.91550195399998],[-57.417696003,-18.876866818999986],[-57.437836059000006,-18.866883293],[-57.434190150999996,-18.886733445999994],[-57.41550217700001,-18.91550195399998]]]}},{"type":"Feature","properties":{"ID_UNIDADE_ESTRATIGRAFICA":999,"SIGLA":"NP3t","HIERARQUIA":"Formação","NOME":"Formação Tamengo","AMBIENTE_TECTONICO":null,"SUB_AMBIENTE_TECTONICO":null,"NOME_PAI":"NP3co - Grupo Corumbá","LEGENDA":"Arenito, brecha intraformacional, calcário calcítico e dolomítico, folhelho carbonoso, siltito, folhelho calcítico, microfosforito. Macrofóssil: Corumbella werneri; Calcário dolomítico e calcítico brancos a cinza claros, estromatolíticos e as vezes com níveis fosforíticos no topo das camadas. Apresenta-se com estrutura maciça e comumente silicificado.","ESCALA":"1:1.000.000","MAPA":"Mapa geológico do estado do Mato Grosso do Sul","LITOTIPOS":"Ardósia, Arenito, Brecha cataclástica, Calcário calcítico, Calcário dolomítico, Dolomito, Folhelho, Pelito","RANGE":"NP3","IDADE_MIN":541.1,"IDADE_MAX":635,"EON_MIN":"Proterozóico","EON_MAX":"Proterozóico","ERA_MIN":"Neoproterozóico","ERA_MAX":"Neoproterozóico"},"geometry":{"type":"Polygon","coordinates":[[[-57.597049567,-18.99920718300001],[-57.66759664900002,-18.993470937999973],[-57.712974304,-19.032753937999985],[-57.71764626999999,-19.041994493000004],[-57.710039741,-19.051428278000003],[-57.73368734799999,-19.07902577599998],[-57.72209438300001,-19.09189089199998],[-57.69360594300002,-19.064671138999984],[-57.67136616200003,-19.064043613000024],[-57.66605225400002,-19.050009276000026],[-57.685564449000026,-19.02854208399998],[-57.680996084000014,-19.02002706799999],[-57.65974693300001,-19.02002718],[-57.63645807299997,-19.046206012000027],[-57.627448636,-19.070684991999997],[-57.68814820099999,-19.139193593000016],[-57.665007308999975,-19.15254933],[-57.67056384599999,-19.15862755699999],[-57.663171894000016,-19.165185228999974],[-57.601431072000025,-19.08454777899999],[-57.590225127,-19.036387776000026],[-57.571426624000026,-19.02542200099998],[-57.569725430999995,-19.036905219999994],[-57.565225462,-19.032311149999998],[-57.56633746199998,-19.01023118400002],[-57.58769021400002,-19.01634852699999],[-57.597049567,-18.99920718300001]],[[-57.626258404,-19.04178628599999],[-57.640707813000006,-19.028696758000024],[-57.623947008000016,-19.017565467999987],[-57.61857967999998,-19.025694468999973],[-57.626258404,-19.04178628599999]],[[-57.700680498999986,-19.061811342],[-57.70054717099998,-19.04526645499999],[-57.687471277999975,-19.034859251],[-57.683468412000025,-19.041397029999985],[-57.700680498999986,-19.061811342]],[[-57.720469408999975,-19.083908518999976],[-57.72249883799998,-19.074520554999992],[-57.71158480700001,-19.072199211999987],[-57.711703048000004,-19.07797859599998],[-57.720469408999975,-19.083908518999976]],[[-57.59403442600001,-19.04483886600002],[-57.60156082399999,-19.047177308000016],[-57.59638426700002,-19.041192063999972],[-57.59403442600001,-19.04483886600002]]]}},{"type":"Feature","properties":{"ID_UNIDADE_ESTRATIGRAFICA":877,"SIGLA":"NP3bo","HIERARQUIA":"Formação","NOME":"Formação Bocaina","AMBIENTE_TECTONICO":null,"SUB_AMBIENTE_TECTONICO":null,"NOME_PAI":"NP3co - Grupo Corumbá","LEGENDA":"Calcário dolomítico e calcítico brancos a cinza claros, estromatolíticos e as vezes com níveis fosforíticos no topo das camadas. Apresenta-se com estrutura maciça e comumente silicificado.","ESCALA":"1:1.000.000","MAPA":"Mapa geológico do estado do Mato Grosso do Sul","LITOTIPOS":"Calcário calcítico, Calcário dolomítico, Dolomito","RANGE":"NP3","IDADE_MIN":541.1,"IDADE_MAX":635,"EON_MIN":"Proterozóico","EON_MAX":"Proterozóico","ERA_MIN":"Neoproterozóico","ERA_MAX":"Neoproterozóico"},"geometry":{"type":"Polygon","coordinates":[[[-57.40690401299997,-18.96138811200001],[-57.40920277999999,-18.93291733000001],[-57.421552464,-18.929840274000014],[-57.419265655000004,-18.955787095000005],[-57.40690401299997,-18.96138811200001]]]}},{"type":"Feature","properties":{"ID_UNIDADE_ESTRATIGRAFICA":877,"SIGLA":"NP3bo","HIERARQUIA":"Formação","NOME":"Formação Bocaina","AMBIENTE_TECTONICO":null,"SUB_AMBIENTE_TECTONICO":null,"NOME_PAI":"NP3co - Grupo Corumbá","LEGENDA":"Calcário dolomítico e calcítico brancos a cinza claros, estromatolíticos e as vezes com níveis fosforíticos no topo das camadas. Apresenta-se com estrutura maciça e comumente silicificado.","ESCALA":"1:1.000.000","MAPA":"Mapa geológico do estado do Mato Grosso do Sul","LITOTIPOS":"Calcário calcítico, Calcário dolomítico, Dolomito","RANGE":"NP3","IDADE_MIN":541.1,"IDADE_MAX":635,"EON_MIN":"Proterozóico","EON_MAX":"Proterozóico","ERA_MIN":"Neoproterozóico","ERA_MAX":"Neoproterozóico"},"geometry":{"type":"Polygon","coordinates":[[[-57.50265717799999,-18.935894026000028],[-57.511198345000025,-18.94166491599998],[-57.510505776,-18.964056130000017],[-57.48742210400002,-18.98552410399998],[-57.43456029599997,-18.98321583799998],[-57.450949725999976,-18.958977920999985],[-57.494578020999995,-18.95066753499998],[-57.50265717799999,-18.935894026000028]]]}},{"type":"Feature","properties":{"ID_UNIDADE_ESTRATIGRAFICA":877,"SIGLA":"NP3bo","HIERARQUIA":"Formação","NOME":"Formação Bocaina","AMBIENTE_TECTONICO":null,"SUB_AMBIENTE_TECTONICO":null,"NOME_PAI":"NP3co - Grupo Corumbá","LEGENDA":"Calcário dolomítico e calcítico brancos a cinza claros, estromatolíticos e as vezes com níveis fosforíticos no topo das camadas. Apresenta-se com estrutura maciça e comumente silicificado.","ESCALA":"1:1.000.000","MAPA":"Mapa geológico do estado do Mato Grosso do Sul","LITOTIPOS":"Calcário calcítico, Calcário dolomítico, Dolomito","RANGE":"NP3","IDADE_MIN":541.1,"IDADE_MAX":635,"EON_MIN":"Proterozóico","EON_MAX":"Proterozóico","ERA_MIN":"Neoproterozóico","ERA_MAX":"Neoproterozóico"},"geometry":{"type":"Polygon","coordinates":[[[-57.700680498999986,-19.061811342],[-57.683468412000025,-19.041397029999985],[-57.687471277999975,-19.034859251],[-57.70054717099998,-19.04526645499999],[-57.700680498999986,-19.061811342]]]}},{"type":"Feature","properties":{"ID_UNIDADE_ESTRATIGRAFICA":877,"SIGLA":"NP3bo","HIERARQUIA":"Formação","NOME":"Formação Bocaina","AMBIENTE_TECTONICO":null,"SUB_AMBIENTE_TECTONICO":null,"NOME_PAI":"NP3co - Grupo Corumbá","LEGENDA":"Calcário dolomítico e calcítico brancos a cinza claros, estromatolíticos e as vezes com níveis fosforíticos no topo das camadas. Apresenta-se com estrutura maciça e comumente silicificado.","ESCALA":"1:1.000.000","MAPA":"Mapa geológico do estado do Mato Grosso do Sul","LITOTIPOS":"Calcário calcítico, Calcário dolomítico, Dolomito","RANGE":"NP3","IDADE_MIN":541.1,"IDADE_MAX":635,"EON_MIN":"Proterozóico","EON_MAX":"Proterozóico","ERA_MIN":"Neoproterozóico","ERA_MAX":"Neoproterozóico"},"geometry":{"type":"Polygon","coordinates":[[[-57.779883525,-19.08809891499999],[-57.712974304,-19.032753937999985],[-57.78558311299997,-19.034838017000027],[-57.83565106200001,-19.13752112200001],[-57.81482268299999,-19.136963333999972],[-57.78747105399998,-19.109508999000013],[-57.779883525,-19.08809891499999]]]}},{"type":"Feature","properties":{"ID_UNIDADE_ESTRATIGRAFICA":877,"SIGLA":"NP3bo","HIERARQUIA":"Formação","NOME":"Formação Bocaina","AMBIENTE_TECTONICO":null,"SUB_AMBIENTE_TECTONICO":null,"NOME_PAI":"NP3co - Grupo Corumbá","LEGENDA":"Calcário dolomítico e calcítico brancos a cinza claros, estromatolíticos e as vezes com níveis fosforíticos no topo das camadas. Apresenta-se com estrutura maciça e comumente silicificado.","ESCALA":"1:1.000.000","MAPA":"Mapa geológico do estado do Mato Grosso do Sul","LITOTIPOS":"Calcário calcítico, Calcário dolomítico, Dolomito","RANGE":"NP3","IDADE_MIN":541.1,"IDADE_MAX":635,"EON_MIN":"Proterozóico","EON_MAX":"Proterozóico","ERA_MIN":"Neoproterozóico","ERA_MAX":"Neoproterozóico"},"geometry":{"type":"Polygon","coordinates":[[[-57.569725430999995,-19.036905219999994],[-57.571426624000026,-19.02542200099998],[-57.590225127,-19.036387776000026],[-57.590330180000024,-19.048167044000024],[-57.569725430999995,-19.036905219999994]]]}},{"type":"Feature","properties":{"ID_UNIDADE_ESTRATIGRAFICA":877,"SIGLA":"NP3bo","HIERARQUIA":"Formação","NOME":"Formação Bocaina","AMBIENTE_TECTONICO":null,"SUB_AMBIENTE_TECTONICO":null,"NOME_PAI":"NP3co - Grupo Corumbá","LEGENDA":"Calcário dolomítico e calcítico brancos a cinza claros, estromatolíticos e as vezes com níveis fosforíticos no topo das camadas. Apresenta-se com estrutura maciça e comumente silicificado.","ESCALA":"1:1.000.000","MAPA":"Mapa geológico do estado do Mato Grosso do Sul","LITOTIPOS":"Calcário calcítico, Calcário dolomítico, Dolomito","RANGE":"NP3","IDADE_MIN":541.1,"IDADE_MAX":635,"EON_MIN":"Proterozóico","EON_MAX":"Proterozóico","ERA_MIN":"Neoproterozóico","ERA_MAX":"Neoproterozóico"},"geometry":{"type":"Polygon","coordinates":[[[-57.720469408999975,-19.083908518999976],[-57.711703048000004,-19.07797859599998],[-57.71158480700001,-19.072199211999987],[-57.72249883799998,-19.074520554999992],[-57.720469408999975,-19.083908518999976]]]}},{"type":"Feature","properties":{"ID_UNIDADE_ESTRATIGRAFICA":877,"SIGLA":"NP3bo","HIERARQUIA":"Formação","NOME":"Formação Bocaina","AMBIENTE_TECTONICO":null,"SUB_AMBIENTE_TECTONICO":null,"NOME_PAI":"NP3co - Grupo Corumbá","LEGENDA":"Calcário dolomítico e calcítico brancos a cinza claros, estromatolíticos e as vezes com níveis fosforíticos no topo das camadas. Apresenta-se com estrutura maciça e comumente silicificado.","ESCALA":"1:1.000.000","MAPA":"Mapa geológico do estado do Mato Grosso do Sul","LITOTIPOS":"Calcário calcítico, Calcário dolomítico, Dolomito","RANGE":"NP3","IDADE_MIN":541.1,"IDADE_MAX":635,"EON_MIN":"Proterozóico","EON_MAX":"Proterozóico","ERA_MIN":"Neoproterozóico","ERA_MAX":"Neoproterozóico"},"geometry":{"type":"Polygon","coordinates":[[[-57.60156082399999,-19.047177308000016],[-57.59403442600001,-19.04483886600002],[-57.59638426700002,-19.041192063999972],[-57.60156082399999,-19.047177308000016]]]}},{"type":"Feature","properties":{"ID_UNIDADE_ESTRATIGRAFICA":877,"SIGLA":"NP3bo","HIERARQUIA":"Formação","NOME":"Formação Bocaina","AMBIENTE_TECTONICO":null,"SUB_AMBIENTE_TECTONICO":null,"NOME_PAI":"NP3co - Grupo Corumbá","LEGENDA":"Calcário dolomítico e calcítico brancos a cinza claros, estromatolíticos e as vezes com níveis fosforíticos no topo das camadas. Apresenta-se com estrutura maciça e comumente silicificado.","ESCALA":"1:1.000.000","MAPA":"Mapa geológico do estado do Mato Grosso do Sul","LITOTIPOS":"Calcário calcítico, Calcário dolomítico, Dolomito","RANGE":"NP3","IDADE_MIN":541.1,"IDADE_MAX":635,"EON_MIN":"Proterozóico","EON_MAX":"Proterozóico","ERA_MIN":"Neoproterozóico","ERA_MAX":"Neoproterozóico"},"geometry":{"type":"Polygon","coordinates":[[[-57.45958510700001,-19.256917423999994],[-57.456998672,-19.239354748999972],[-57.46245373199997,-19.234664454999972],[-57.465886963,-19.244018109000024],[-57.45958510700001,-19.256917423999994]]]}},{"type":"Feature","properties":{"ID_UNIDADE_ESTRATIGRAFICA":877,"SIGLA":"NP3bo","HIERARQUIA":"Formação","NOME":"Formação Bocaina","AMBIENTE_TECTONICO":null,"SUB_AMBIENTE_TECTONICO":null,"NOME_PAI":"NP3co - Grupo Corumbá","LEGENDA":"Calcário dolomítico e calcítico brancos a cinza claros, estromatolíticos e as vezes com níveis fosforíticos no topo das camadas. Apresenta-se com estrutura maciça e comumente silicificado.","ESCALA":"1:1.000.000","MAPA":"Mapa geológico do estado do Mato Grosso do Sul","LITOTIPOS":"Calcário calcítico, Calcário dolomítico, Dolomito","RANGE":"NP3","IDADE_MIN":541.1,"IDADE_MAX":635,"EON_MIN":"Proterozóico","EON_MAX":"Proterozóico","ERA_MIN":"Neoproterozóico","ERA_MAX":"Neoproterozóico"},"geometry":{"type":"Polygon","coordinates":[[[-57.42630925499998,-19.235362613000007],[-57.45292461600002,-19.232402345000025],[-57.44895729000001,-19.25515901],[-57.42630925499998,-19.235362613000007]]]}},{"type":"Feature","properties":{"ID_UNIDADE_ESTRATIGRAFICA":877,"SIGLA":"NP3bo","HIERARQUIA":"Formação","NOME":"Formação Bocaina","AMBIENTE_TECTONICO":null,"SUB_AMBIENTE_TECTONICO":null,"NOME_PAI":"NP3co - Grupo Corumbá","LEGENDA":"Calcário dolomítico e calcítico brancos a cinza claros, estromatolíticos e as vezes com níveis fosforíticos no topo das camadas. Apresenta-se com estrutura maciça e comumente silicificado.","ESCALA":"1:1.000.000","MAPA":"Mapa geológico do estado do Mato Grosso do Sul","LITOTIPOS":"Calcário calcítico, Calcário dolomítico, Dolomito","RANGE":"NP3","IDADE_MIN":541.1,"IDADE_MAX":635,"EON_MIN":"Proterozóico","EON_MAX":"Proterozóico","ERA_MIN":"Neoproterozóico","ERA_MAX":"Neoproterozóico"},"geometry":{"type":"Polygon","coordinates":[[[-57.42318973099998,-19.206327113999976],[-57.44493743700002,-19.203096277999975],[-57.437901325999974,-19.218676351],[-57.422171273000004,-19.221828060999997],[-57.42318973099998,-19.206327113999976]]]}},{"type":"Feature","properties":{"ID_UNIDADE_ESTRATIGRAFICA":877,"SIGLA":"NP3bo","HIERARQUIA":"Formação","NOME":"Formação Bocaina","AMBIENTE_TECTONICO":null,"SUB_AMBIENTE_TECTONICO":null,"NOME_PAI":"NP3co - Grupo Corumbá","LEGENDA":"Calcário dolomítico e calcítico brancos a cinza claros, estromatolíticos e as vezes com níveis fosforíticos no topo das camadas. Apresenta-se com estrutura maciça e comumente silicificado.","ESCALA":"1:1.000.000","MAPA":"Mapa geológico do estado do Mato Grosso do Sul","LITOTIPOS":"Calcário calcítico, Calcário dolomítico, Dolomito","RANGE":"NP3","IDADE_MIN":541.1,"IDADE_MAX":635,"EON_MIN":"Proterozóico","EON_MAX":"Proterozóico","ERA_MIN":"Neoproterozóico","ERA_MAX":"Neoproterozóico"},"geometry":{"type":"Polygon","coordinates":[[[-57.435324390999995,-19.200008046999983],[-57.431259388,-19.203207030999977],[-57.43191027099999,-19.197774434999985],[-57.435324390999995,-19.200008046999983]]]}},{"type":"Feature","properties":{"ID_UNIDADE_ESTRATIGRAFICA":877,"SIGLA":"NP3bo","HIERARQUIA":"Formação","NOME":"Formação Bocaina","AMBIENTE_TECTONICO":null,"SUB_AMBIENTE_TECTONICO":null,"NOME_PAI":"NP3co - Grupo Corumbá","LEGENDA":"Calcário dolomítico e calcítico brancos a cinza claros, estromatolíticos e as vezes com níveis fosforíticos no topo das camadas. Apresenta-se com estrutura maciça e comumente silicificado.","ESCALA":"1:1.000.000","MAPA":"Mapa geológico do estado do Mato Grosso do Sul","LITOTIPOS":"Calcário calcítico, Calcário dolomítico, Dolomito","RANGE":"NP3","IDADE_MIN":541.1,"IDADE_MAX":635,"EON_MIN":"Proterozóico","EON_MAX":"Proterozóico","ERA_MIN":"Neoproterozóico","ERA_MAX":"Neoproterozóico"},"geometry":{"type":"Polygon","coordinates":[[[-57.443440986999974,-19.181935752000015],[-57.45614014099999,-19.182341995],[-57.455983790999994,-19.189004384999976],[-57.448369662000005,-19.18814987799999],[-57.443440986999974,-19.181935752000015]]]}},{"type":"Feature","properties":{"ID_UNIDADE_ESTRATIGRAFICA":877,"SIGLA":"NP3bo","HIERARQUIA":"Formação","NOME":"Formação Bocaina","AMBIENTE_TECTONICO":null,"SUB_AMBIENTE_TECTONICO":null,"NOME_PAI":"NP3co - Grupo Corumbá","LEGENDA":"Calcário dolomítico e calcítico brancos a cinza claros, estromatolíticos e as vezes com níveis fosforíticos no topo das camadas. Apresenta-se com estrutura maciça e comumente silicificado.","ESCALA":"1:1.000.000","MAPA":"Mapa geológico do estado do Mato Grosso do Sul","LITOTIPOS":"Calcário calcítico, Calcário dolomítico, Dolomito","RANGE":"NP3","IDADE_MIN":541.1,"IDADE_MAX":635,"EON_MIN":"Proterozóico","EON_MAX":"Proterozóico","ERA_MIN":"Neoproterozóico","ERA_MAX":"Neoproterozóico"},"geometry":{"type":"Polygon","coordinates":[[[-57.401807811000026,-19.399957867000012],[-57.376866930999995,-19.322629930999994],[-57.42135800400001,-19.319989964],[-57.43625053599999,-19.291471237999986],[-57.46232420299998,-19.30125974499998],[-57.498491479999984,-19.289342567999995],[-57.51991877400002,-19.31291160799998],[-57.528318678000005,-19.310275664000017],[-57.55071883300002,-19.328202671999975],[-57.55524327699999,-19.345853412999986],[-57.536299375,-19.357722980999995],[-57.532915764999984,-19.37830515500002],[-57.494360314999994,-19.38455940199998],[-57.49103023700002,-19.401351835000014],[-57.504210065999985,-19.40325531100001],[-57.52719371400002,-19.383365371000025],[-57.542437393,-19.407680288999984],[-57.586741604999986,-19.423900292999974],[-57.60726097000003,-19.42543384800001],[-57.613986168999986,-19.412192887000003],[-57.63236926500002,-19.41490516099998],[-57.676902358999996,-19.446443164000016],[-57.69242074099998,-19.446179859999972],[-57.692611512999974,-19.46388010999999],[-57.63896504600001,-19.46911399800001],[-57.57280651000002,-19.445377097000005],[-57.540766710000014,-19.46121019200001],[-57.524779276000004,-19.448769534999997],[-57.48949847099999,-19.458692265000025],[-57.46463638199998,-19.453622886000005],[-57.44693982000001,-19.424873376999983],[-57.41259588899999,-19.41186342200001],[-57.43454945600001,-19.40211492399999],[-57.437158689,-19.38968656100002],[-57.41338926499998,-19.386995409000008],[-57.401807811000026,-19.399957867000012]]]}},{"type":"Feature","properties":{"ID_UNIDADE_ESTRATIGRAFICA":877,"SIGLA":"NP3bo","HIERARQUIA":"Formação","NOME":"Formação Bocaina","AMBIENTE_TECTONICO":null,"SUB_AMBIENTE_TECTONICO":null,"NOME_PAI":"NP3co - Grupo Corumbá","LEGENDA":"Calcário dolomítico e calcítico brancos a cinza claros, estromatolíticos e as vezes com níveis fosforíticos no topo das camadas. Apresenta-se com estrutura maciça e comumente silicificado.","ESCALA":"1:1.000.000","MAPA":"Mapa geológico do estado do Mato Grosso do Sul","LITOTIPOS":"Calcário calcítico, Calcário dolomítico, Dolomito","RANGE":"NP3","IDADE_MIN":541.1,"IDADE_MAX":635,"EON_MIN":"Proterozóico","EON_MAX":"Proterozóico","ERA_MIN":"Neoproterozóico","ERA_MAX":"Neoproterozóico"},"geometry":{"type":"Polygon","coordinates":[[[-57.466558297999995,-19.25609554900001],[-57.46993833099998,-19.241961971000023],[-57.477655389000006,-19.235719346999986],[-57.481168750999984,-19.254575294000006],[-57.466558297999995,-19.25609554900001]]]}},{"type":"Feature","properties":{"ID_UNIDADE_ESTRATIGRAFICA":877,"SIGLA":"NP3bo","HIERARQUIA":"Formação","NOME":"Formação Bocaina","AMBIENTE_TECTONICO":null,"SUB_AMBIENTE_TECTONICO":null,"NOME_PAI":"NP3co - Grupo Corumbá","LEGENDA":"Calcário dolomítico e calcítico brancos a cinza claros, estromatolíticos e as vezes com níveis fosforíticos no topo das camadas. Apresenta-se com estrutura maciça e comumente silicificado.","ESCALA":"1:1.000.000","MAPA":"Mapa geológico do estado do Mato Grosso do Sul","LITOTIPOS":"Calcário calcítico, Calcário dolomítico, Dolomito","RANGE":"NP3","IDADE_MIN":541.1,"IDADE_MAX":635,"EON_MIN":"Proterozóico","EON_MAX":"Proterozóico","ERA_MIN":"Neoproterozóico","ERA_MAX":"Neoproterozóico"},"geometry":{"type":"Polygon","coordinates":[[[-57.33215021699999,-19.377442265000013],[-57.340219091999984,-19.35762865700002],[-57.350885242000004,-19.377730155999984],[-57.34174560600002,-19.383706123000024],[-57.33215021699999,-19.377442265000013]]]}},{"type":"Feature","properties":{"ID_UNIDADE_ESTRATIGRAFICA":877,"SIGLA":"NP3bo","HIERARQUIA":"Formação","NOME":"Formação Bocaina","AMBIENTE_TECTONICO":null,"SUB_AMBIENTE_TECTONICO":null,"NOME_PAI":"NP3co - Grupo Corumbá","LEGENDA":"Calcário dolomítico e calcítico brancos a cinza claros, estromatolíticos e as vezes com níveis fosforíticos no topo das camadas. Apresenta-se com estrutura maciça e comumente silicificado.","ESCALA":"1:1.000.000","MAPA":"Mapa geológico do estado do Mato Grosso do Sul","LITOTIPOS":"Calcário calcítico, Calcário dolomítico, Dolomito","RANGE":"NP3","IDADE_MIN":541.1,"IDADE_MAX":635,"EON_MIN":"Proterozóico","EON_MAX":"Proterozóico","ERA_MIN":"Neoproterozóico","ERA_MAX":"Neoproterozóico"},"geometry":{"type":"Polygon","coordinates":[[[-57.381275593,-19.364362237000023],[-57.375097117999985,-19.356175791999988],[-57.37540613200002,-19.35215985100001],[-57.383592577,-19.355248975999984],[-57.381275593,-19.364362237000023]]]}},{"type":"Feature","properties":{"ID_UNIDADE_ESTRATIGRAFICA":877,"SIGLA":"NP3bo","HIERARQUIA":"Formação","NOME":"Formação Bocaina","AMBIENTE_TECTONICO":null,"SUB_AMBIENTE_TECTONICO":null,"NOME_PAI":"NP3co - Grupo Corumbá","LEGENDA":"Calcário dolomítico e calcítico brancos a cinza claros, estromatolíticos e as vezes com níveis fosforíticos no topo das camadas. Apresenta-se com estrutura maciça e comumente silicificado.","ESCALA":"1:1.000.000","MAPA":"Mapa geológico do estado do Mato Grosso do Sul","LITOTIPOS":"Calcário calcítico, Calcário dolomítico, Dolomito","RANGE":"NP3","IDADE_MIN":541.1,"IDADE_MAX":635,"EON_MIN":"Proterozóico","EON_MAX":"Proterozóico","ERA_MIN":"Neoproterozóico","ERA_MAX":"Neoproterozóico"},"geometry":{"type":"Polygon","coordinates":[[[-57.90043440699998,-19.351188107999974],[-57.91873770699999,-19.34015907700001],[-57.91955902199999,-19.345790938999983],[-57.90043440699998,-19.351188107999974]]]}},{"type":"Feature","properties":{"ID_UNIDADE_ESTRATIGRAFICA":877,"SIGLA":"NP3bo","HIERARQUIA":"Formação","NOME":"Formação Bocaina","AMBIENTE_TECTONICO":null,"SUB_AMBIENTE_TECTONICO":null,"NOME_PAI":"NP3co - Grupo Corumbá","LEGENDA":"Calcário dolomítico e calcítico brancos a cinza claros, estromatolíticos e as vezes com níveis fosforíticos no topo das camadas. Apresenta-se com estrutura maciça e comumente silicificado.","ESCALA":"1:1.000.000","MAPA":"Mapa geológico do estado do Mato Grosso do Sul","LITOTIPOS":"Calcário calcítico, Calcário dolomítico, Dolomito","RANGE":"NP3","IDADE_MIN":541.1,"IDADE_MAX":635,"EON_MIN":"Proterozóico","EON_MAX":"Proterozóico","ERA_MIN":"Neoproterozóico","ERA_MAX":"Neoproterozóico"},"geometry":{"type":"Polygon","coordinates":[[[-57.429972150000026,-19.50243801900001],[-57.433611352000014,-19.490021055],[-57.439077811000004,-19.511141236000014],[-57.429972150000026,-19.50243801900001]]]}},{"type":"Feature","properties":{"ID_UNIDADE_ESTRATIGRAFICA":877,"SIGLA":"NP3bo","HIERARQUIA":"Formação","NOME":"Formação Bocaina","AMBIENTE_TECTONICO":null,"SUB_AMBIENTE_TECTONICO":null,"NOME_PAI":"NP3co - Grupo Corumbá","LEGENDA":"Calcário dolomítico e calcítico brancos a cinza claros, estromatolíticos e as vezes com níveis fosforíticos no topo das camadas. Apresenta-se com estrutura maciça e comumente silicificado.","ESCALA":"1:1.000.000","MAPA":"Mapa geológico do estado do Mato Grosso do Sul","LITOTIPOS":"Calcário calcítico, Calcário dolomítico, Dolomito","RANGE":"NP3","IDADE_MIN":541.1,"IDADE_MAX":635,"EON_MIN":"Proterozóico","EON_MAX":"Proterozóico","ERA_MIN":"Neoproterozóico","ERA_MAX":"Neoproterozóico"},"geometry":{"type":"Polygon","coordinates":[[[-57.465620752999996,-19.488300528000025],[-57.48182935800003,-19.496490660999996],[-57.473093730000016,-19.513784668000028],[-57.465620752999996,-19.488300528000025]]]}},{"type":"Feature","properties":{"ID_UNIDADE_ESTRATIGRAFICA":877,"SIGLA":"NP3bo","HIERARQUIA":"Formação","NOME":"Formação Bocaina","AMBIENTE_TECTONICO":null,"SUB_AMBIENTE_TECTONICO":null,"NOME_PAI":"NP3co - Grupo Corumbá","LEGENDA":"Calcário dolomítico e calcítico brancos a cinza claros, estromatolíticos e as vezes com níveis fosforíticos no topo das camadas. Apresenta-se com estrutura maciça e comumente silicificado.","ESCALA":"1:1.000.000","MAPA":"Mapa geológico do estado do Mato Grosso do Sul","LITOTIPOS":"Calcário calcítico, Calcário dolomítico, Dolomito","RANGE":"NP3","IDADE_MIN":541.1,"IDADE_MAX":635,"EON_MIN":"Proterozóico","EON_MAX":"Proterozóico","ERA_MIN":"Neoproterozóico","ERA_MAX":"Neoproterozóico"},"geometry":{"type":"Polygon","coordinates":[[[-57.93435533000002,-19.47883466799999],[-57.924971389999996,-19.470523388999993],[-57.93127201599998,-19.46422265000001],[-57.93435533000002,-19.47883466799999]]]}},{"type":"Feature","properties":{"ID_UNIDADE_ESTRATIGRAFICA":877,"SIGLA":"NP3bo","HIERARQUIA":"Formação","NOME":"Formação Bocaina","AMBIENTE_TECTONICO":null,"SUB_AMBIENTE_TECTONICO":null,"NOME_PAI":"NP3co - Grupo Corumbá","LEGENDA":"Calcário dolomítico e calcítico brancos a cinza claros, estromatolíticos e as vezes com níveis fosforíticos no topo das camadas. Apresenta-se com estrutura maciça e comumente silicificado.","ESCALA":"1:1.000.000","MAPA":"Mapa geológico do estado do Mato Grosso do Sul","LITOTIPOS":"Calcário calcítico, Calcário dolomítico, Dolomito","RANGE":"NP3","IDADE_MIN":541.1,"IDADE_MAX":635,"EON_MIN":"Proterozóico","EON_MAX":"Proterozóico","ERA_MIN":"Neoproterozóico","ERA_MAX":"Neoproterozóico"},"geometry":{"type":"Polygon","coordinates":[[[-57.724654441999974,-19.469893516000013],[-57.724654441999974,-19.454667159999985],[-57.730798494,-19.450927374999992],[-57.737209651,-19.466420835000008],[-57.724654441999974,-19.469893516000013]]]}},{"type":"Feature","properties":{"ID_UNIDADE_ESTRATIGRAFICA":877,"SIGLA":"NP3bo","HIERARQUIA":"Formação","NOME":"Formação Bocaina","AMBIENTE_TECTONICO":null,"SUB_AMBIENTE_TECTONICO":null,"NOME_PAI":"NP3co - Grupo Corumbá","LEGENDA":"Calcário dolomítico e calcítico brancos a cinza claros, estromatolíticos e as vezes com níveis fosforíticos no topo das camadas. Apresenta-se com estrutura maciça e comumente silicificado.","ESCALA":"1:1.000.000","MAPA":"Mapa geológico do estado do Mato Grosso do Sul","LITOTIPOS":"Calcário calcítico, Calcário dolomítico, Dolomito","RANGE":"NP3","IDADE_MIN":541.1,"IDADE_MAX":635,"EON_MIN":"Proterozóico","EON_MAX":"Proterozóico","ERA_MIN":"Neoproterozóico","ERA_MAX":"Neoproterozóico"},"geometry":{"type":"Polygon","coordinates":[[[-57.70283845,-19.455245847000015],[-57.697977165,-19.451052991999973],[-57.70225931599998,-19.450946037999984],[-57.70283845,-19.455245847000015]]]}},{"type":"Feature","properties":{"ID_UNIDADE_ESTRATIGRAFICA":877,"SIGLA":"NP3bo","HIERARQUIA":"Formação","NOME":"Formação Bocaina","AMBIENTE_TECTONICO":null,"SUB_AMBIENTE_TECTONICO":null,"NOME_PAI":"NP3co - Grupo Corumbá","LEGENDA":"Calcário dolomítico e calcítico brancos a cinza claros, estromatolíticos e as vezes com níveis fosforíticos no topo das camadas. Apresenta-se com estrutura maciça e comumente silicificado.","ESCALA":"1:1.000.000","MAPA":"Mapa geológico do estado do Mato Grosso do Sul","LITOTIPOS":"Calcário calcítico, Calcário dolomítico, Dolomito","RANGE":"NP3","IDADE_MIN":541.1,"IDADE_MAX":635,"EON_MIN":"Proterozóico","EON_MAX":"Proterozóico","ERA_MIN":"Neoproterozóico","ERA_MAX":"Neoproterozóico"},"geometry":{"type":"Polygon","coordinates":[[[-57.88290246600002,-19.372604673000012],[-57.909110020000014,-19.374856724999972],[-57.88718271699997,-19.404365970000015],[-57.890127785000004,-19.446859801000016],[-57.87401931599999,-19.449391585],[-57.88810036799998,-19.47610920599999],[-57.818033402000026,-19.450207423999984],[-57.80948552900003,-19.438290917000018],[-57.814101057000016,-19.41527128299998],[-57.828061633000004,-19.431352817999993],[-57.84014544299998,-19.424863094999978],[-57.82419030699998,-19.403280791999975],[-57.835271976,-19.388992761999987],[-57.863786903000005,-19.385366858999987],[-57.878633837999985,-19.404899953999973],[-57.887743410999974,-19.383058928000025],[-57.88290246600002,-19.372604673000012]]]}},{"type":"Feature","properties":{"ID_UNIDADE_ESTRATIGRAFICA":877,"SIGLA":"NP3bo","HIERARQUIA":"Formação","NOME":"Formação Bocaina","AMBIENTE_TECTONICO":null,"SUB_AMBIENTE_TECTONICO":null,"NOME_PAI":"NP3co - Grupo Corumbá","LEGENDA":"Calcário dolomítico e calcítico brancos a cinza claros, estromatolíticos e as vezes com níveis fosforíticos no topo das camadas. Apresenta-se com estrutura maciça e comumente silicificado.","ESCALA":"1:1.000.000","MAPA":"Mapa geológico do estado do Mato Grosso do Sul","LITOTIPOS":"Calcário calcítico, Calcário dolomítico, Dolomito","RANGE":"NP3","IDADE_MIN":541.1,"IDADE_MAX":635,"EON_MIN":"Proterozóico","EON_MAX":"Proterozóico","ERA_MIN":"Neoproterozóico","ERA_MAX":"Neoproterozóico"},"geometry":{"type":"Polygon","coordinates":[[[-57.38899868599998,-19.385059969999986],[-57.37401596400002,-19.38660458800001],[-57.380348889000004,-19.367760264000026],[-57.38899868599998,-19.385059969999986]]]}},{"type":"Feature","properties":{"ID_UNIDADE_ESTRATIGRAFICA":877,"SIGLA":"NP3bo","HIERARQUIA":"Formação","NOME":"Formação Bocaina","AMBIENTE_TECTONICO":null,"SUB_AMBIENTE_TECTONICO":null,"NOME_PAI":"NP3co - Grupo Corumbá","LEGENDA":"Calcário dolomítico e calcítico brancos a cinza claros, estromatolíticos e as vezes com níveis fosforíticos no topo das camadas. Apresenta-se com estrutura maciça e comumente silicificado.","ESCALA":"1:1.000.000","MAPA":"Mapa geológico do estado do Mato Grosso do Sul","LITOTIPOS":"Calcário calcítico, Calcário dolomítico, Dolomito","RANGE":"NP3","IDADE_MIN":541.1,"IDADE_MAX":635,"EON_MIN":"Proterozóico","EON_MAX":"Proterozóico","ERA_MIN":"Neoproterozóico","ERA_MAX":"Neoproterozóico"},"geometry":{"type":"Polygon","coordinates":[[[-57.35687081999998,-19.395872300000008],[-57.349147727,-19.388921460000006],[-57.36459368999999,-19.361427562000017],[-57.37185343099998,-19.390002838999976],[-57.35687081999998,-19.395872300000008]]]}},{"type":"Feature","properties":{"ID_UNIDADE_ESTRATIGRAFICA":877,"SIGLA":"NP3bo","HIERARQUIA":"Formação","NOME":"Formação Bocaina","AMBIENTE_TECTONICO":null,"SUB_AMBIENTE_TECTONICO":null,"NOME_PAI":"NP3co - Grupo Corumbá","LEGENDA":"Calcário dolomítico e calcítico brancos a cinza claros, estromatolíticos e as vezes com níveis fosforíticos no topo das camadas. Apresenta-se com estrutura maciça e comumente silicificado.","ESCALA":"1:1.000.000","MAPA":"Mapa geológico do estado do Mato Grosso do Sul","LITOTIPOS":"Calcário calcítico, Calcário dolomítico, Dolomito","RANGE":"NP3","IDADE_MIN":541.1,"IDADE_MAX":635,"EON_MIN":"Proterozóico","EON_MAX":"Proterozóico","ERA_MIN":"Neoproterozóico","ERA_MAX":"Neoproterozóico"},"geometry":{"type":"Polygon","coordinates":[[[-57.44774705399999,-19.580266411000025],[-57.44684963100002,-19.560521310000013],[-57.45672206900002,-19.557379992999984],[-57.46749226600002,-19.584305151000024],[-57.44774705399999,-19.580266411000025]]]}},{"type":"Feature","properties":{"ID_UNIDADE_ESTRATIGRAFICA":877,"SIGLA":"NP3bo","HIERARQUIA":"Formação","NOME":"Formação Bocaina","AMBIENTE_TECTONICO":null,"SUB_AMBIENTE_TECTONICO":null,"NOME_PAI":"NP3co - Grupo Corumbá","LEGENDA":"Calcário dolomítico e calcítico brancos a cinza claros, estromatolíticos e as vezes com níveis fosforíticos no topo das camadas. Apresenta-se com estrutura maciça e comumente silicificado.","ESCALA":"1:1.000.000","MAPA":"Mapa geológico do estado do Mato Grosso do Sul","LITOTIPOS":"Calcário calcítico, Calcário dolomítico, Dolomito","RANGE":"NP3","IDADE_MIN":541.1,"IDADE_MAX":635,"EON_MIN":"Proterozóico","EON_MAX":"Proterozóico","ERA_MIN":"Neoproterozóico","ERA_MAX":"Neoproterozóico"},"geometry":{"type":"Polygon","coordinates":[[[-57.66906527200001,-19.735336125999993],[-57.648457393,-19.727201648999994],[-57.648457393,-19.72232091799998],[-57.66418442899999,-19.72340542500001],[-57.66906527200001,-19.735336125999993]]]}},{"type":"Feature","properties":{"ID_UNIDADE_ESTRATIGRAFICA":877,"SIGLA":"NP3bo","HIERARQUIA":"Formação","NOME":"Formação Bocaina","AMBIENTE_TECTONICO":null,"SUB_AMBIENTE_TECTONICO":null,"NOME_PAI":"NP3co - Grupo Corumbá","LEGENDA":"Calcário dolomítico e calcítico brancos a cinza claros, estromatolíticos e as vezes com níveis fosforíticos no topo das camadas. Apresenta-se com estrutura maciça e comumente silicificado.","ESCALA":"1:1.000.000","MAPA":"Mapa geológico do estado do Mato Grosso do Sul","LITOTIPOS":"Calcário calcítico, Calcário dolomítico, Dolomito","RANGE":"NP3","IDADE_MIN":541.1,"IDADE_MAX":635,"EON_MIN":"Proterozóico","EON_MAX":"Proterozóico","ERA_MIN":"Neoproterozóico","ERA_MAX":"Neoproterozóico"},"geometry":{"type":"Polygon","coordinates":[[[-57.568250326,-19.682253817999992],[-57.547933132000026,-19.677511778999985],[-57.54061885300001,-19.659746374999997],[-57.56410507999999,-19.666204805000007],[-57.568250326,-19.682253817999992]]]}},{"type":"Feature","properties":{"ID_UNIDADE_ESTRATIGRAFICA":877,"SIGLA":"NP3bo","HIERARQUIA":"Formação","NOME":"Formação Bocaina","AMBIENTE_TECTONICO":null,"SUB_AMBIENTE_TECTONICO":null,"NOME_PAI":"NP3co - Grupo Corumbá","LEGENDA":"Calcário dolomítico e calcítico brancos a cinza claros, estromatolíticos e as vezes com níveis fosforíticos no topo das camadas. Apresenta-se com estrutura maciça e comumente silicificado.","ESCALA":"1:1.000.000","MAPA":"Mapa geológico do estado do Mato Grosso do Sul","LITOTIPOS":"Calcário calcítico, Calcário dolomítico, Dolomito","RANGE":"NP3","IDADE_MIN":541.1,"IDADE_MAX":635,"EON_MIN":"Proterozóico","EON_MAX":"Proterozóico","ERA_MIN":"Neoproterozóico","ERA_MAX":"Neoproterozóico"},"geometry":{"type":"Polygon","coordinates":[[[-57.661472935999996,-19.795532330000015],[-57.653880601000026,-19.783601628999975],[-57.660930683000004,-19.773297801000012],[-57.679369323,-19.793363091000003],[-57.661472935999996,-19.795532330000015]]]}},{"type":"Feature","properties":{"ID_UNIDADE_ESTRATIGRAFICA":877,"SIGLA":"NP3bo","HIERARQUIA":"Formação","NOME":"Formação Bocaina","AMBIENTE_TECTONICO":null,"SUB_AMBIENTE_TECTONICO":null,"NOME_PAI":"NP3co - Grupo Corumbá","LEGENDA":"Calcário dolomítico e calcítico brancos a cinza claros, estromatolíticos e as vezes com níveis fosforíticos no topo das camadas. Apresenta-se com estrutura maciça e comumente silicificado.","ESCALA":"1:1.000.000","MAPA":"Mapa geológico do estado do Mato Grosso do Sul","LITOTIPOS":"Calcário calcítico, Calcário dolomítico, Dolomito","RANGE":"NP3","IDADE_MIN":541.1,"IDADE_MAX":635,"EON_MIN":"Proterozóico","EON_MAX":"Proterozóico","ERA_MIN":"Neoproterozóico","ERA_MAX":"Neoproterozóico"},"geometry":{"type":"Polygon","coordinates":[[[-57.79557423900002,-19.91742141100002],[-57.779864972999974,-19.902139175000002],[-57.794617695,-19.88405514599998],[-57.803183897,-19.906422109000005],[-57.79557423900002,-19.91742141100002]]]}},{"type":"Feature","properties":{"ID_UNIDADE_ESTRATIGRAFICA":877,"SIGLA":"NP3bo","HIERARQUIA":"Formação","NOME":"Formação Bocaina","AMBIENTE_TECTONICO":null,"SUB_AMBIENTE_TECTONICO":null,"NOME_PAI":"NP3co - Grupo Corumbá","LEGENDA":"Calcário dolomítico e calcítico brancos a cinza claros, estromatolíticos e as vezes com níveis fosforíticos no topo das camadas. Apresenta-se com estrutura maciça e comumente silicificado.","ESCALA":"1:1.000.000","MAPA":"Mapa geológico do estado do Mato Grosso do Sul","LITOTIPOS":"Calcário calcítico, Calcário dolomítico, Dolomito","RANGE":"NP3","IDADE_MIN":541.1,"IDADE_MAX":635,"EON_MIN":"Proterozóico","EON_MAX":"Proterozóico","ERA_MIN":"Neoproterozóico","ERA_MAX":"Neoproterozóico"},"geometry":{"type":"Polygon","coordinates":[[[-57.77312446399998,-19.927151469000023],[-57.78725982999998,-19.930605934000027],[-57.790055924,-19.941261689999976],[-57.77620095999998,-19.936098544000004],[-57.77312446399998,-19.927151469000023]],[[-57.775697262999984,-19.932762544000013],[-57.786054288,-19.93564446800002],[-57.776815075,-19.930818945999988],[-57.775697262999984,-19.932762544000013]]]}},{"type":"Feature","properties":{"ID_UNIDADE_ESTRATIGRAFICA":999,"SIGLA":"NP3t","HIERARQUIA":"Formação","NOME":"Formação Tamengo","AMBIENTE_TECTONICO":null,"SUB_AMBIENTE_TECTONICO":null,"NOME_PAI":"NP3co - Grupo Corumbá","LEGENDA":"Arenito, brecha intraformacional, calcário calcítico e dolomítico, folhelho carbonoso, siltito, folhelho calcítico, microfosforito. Macrofóssil: Corumbella werneri; Calcário dolomítico e calcítico brancos a cinza claros, estromatolíticos e as vezes com níveis fosforíticos no topo das camadas. Apresenta-se com estrutura maciça e comumente silicificado.","ESCALA":"1:1.000.000","MAPA":"Mapa geológico do estado do Mato Grosso do Sul","LITOTIPOS":"Ardósia, Arenito, Brecha cataclástica, Calcário calcítico, Calcário dolomítico, Dolomito, Folhelho, Pelito","RANGE":"NP3","IDADE_MIN":541.1,"IDADE_MAX":635,"EON_MIN":"Proterozóico","EON_MAX":"Proterozóico","ERA_MIN":"Neoproterozóico","ERA_MAX":"Neoproterozóico"},"geometry":{"type":"Polygon","coordinates":[[[-56.594714254999985,-20.863610659000017],[-56.58888379799998,-20.819784328000026],[-56.61031802100001,-20.77649108600002],[-56.62125093899999,-20.854220682999994],[-56.606421103,-20.82866781299998],[-56.60816588099999,-20.78742109799998],[-56.594714254999985,-20.863610659000017]]]}},{"type":"Feature","properties":{"ID_UNIDADE_ESTRATIGRAFICA":999,"SIGLA":"NP3t","HIERARQUIA":"Formação","NOME":"Formação Tamengo","AMBIENTE_TECTONICO":null,"SUB_AMBIENTE_TECTONICO":null,"NOME_PAI":"NP3co - Grupo Corumbá","LEGENDA":"Arenito, brecha intraformacional, calcário calcítico e dolomítico, folhelho carbonoso, siltito, folhelho calcítico, microfosforito. Macrofóssil: Corumbella werneri; Calcário dolomítico e calcítico brancos a cinza claros, estromatolíticos e as vezes com níveis fosforíticos no topo das camadas. Apresenta-se com estrutura maciça e comumente silicificado.","ESCALA":"1:1.000.000","MAPA":"Mapa geológico do estado do Mato Grosso do Sul","LITOTIPOS":"Ardósia, Arenito, Brecha cataclástica, Calcário calcítico, Calcário dolomítico, Dolomito, Folhelho, Pelito","RANGE":"NP3","IDADE_MIN":541.1,"IDADE_MAX":635,"EON_MIN":"Proterozóico","EON_MAX":"Proterozóico","ERA_MIN":"Neoproterozóico","ERA_MAX":"Neoproterozóico"},"geometry":{"type":"Polygon","coordinates":[[[-56.493688421,-20.94080403800001],[-56.50386271999997,-20.956493298999987],[-56.507349035999994,-21.044378196000025],[-56.51887125799999,-20.921841918999974],[-56.53090287700002,-20.903468323000027],[-56.53795653499998,-20.962337725999987],[-56.52838036899999,-21.049060554999983],[-56.50733953700001,-21.115244238000002],[-56.51710211599999,-21.181976432],[-56.505617556999994,-21.18564290400002],[-56.49549701400002,-21.180918523000003],[-56.49508976499999,-21.15974972700002],[-56.50459518700001,-21.079532042999972],[-56.491203016999975,-21.032648885000015],[-56.486368665999976,-21.040536486999997],[-56.481949610000015,-21.030975296999998],[-56.493688421,-20.94080403800001]],[[-56.52894039199998,-20.994780975000026],[-56.529841057,-20.998704714999974],[-56.53016258700001,-20.992465220999975],[-56.52894039199998,-20.994780975000026]],[[-56.52758978700001,-21.016264819000014],[-56.528876131000004,-21.015557274000003],[-56.528104325000015,-21.012019436999992],[-56.52758978700001,-21.016264819000014]],[[-56.526882242,-21.038713476999988],[-56.52823295899998,-21.037877298000012],[-56.52752552599998,-21.034982856],[-56.526882242,-21.038713476999988]],[[-56.527782683,-21.029901295000002],[-56.528554713000005,-21.027328160000025],[-56.527718420999975,-21.025848919999987],[-56.527782683,-21.029901295000002]]]}},{"type":"Feature","properties":{"ID_UNIDADE_ESTRATIGRAFICA":877,"SIGLA":"NP3bo","HIERARQUIA":"Formação","NOME":"Formação Bocaina","AMBIENTE_TECTONICO":null,"SUB_AMBIENTE_TECTONICO":null,"NOME_PAI":"NP3co - Grupo Corumbá","LEGENDA":"Calcário dolomítico e calcítico brancos a cinza claros, estromatolíticos e as vezes com níveis fosforíticos no topo das camadas. Apresenta-se com estrutura maciça e comumente silicificado.","ESCALA":"1:1.000.000","MAPA":"Mapa geológico do estado do Mato Grosso do Sul","LITOTIPOS":"Calcário calcítico, Calcário dolomítico, Dolomito","RANGE":"NP3","IDADE_MIN":541.1,"IDADE_MAX":635,"EON_MIN":"Proterozóico","EON_MAX":"Proterozóico","ERA_MIN":"Neoproterozóico","ERA_MAX":"Neoproterozóico"},"geometry":{"type":"Polygon","coordinates":[[[-57.50862778099997,-19.63373194000002],[-57.502337770999986,-19.610196092000024],[-57.51491745499999,-19.60836995300002],[-57.53500408999997,-19.629471023000008],[-57.52404770300001,-19.624195783999994],[-57.50862778099997,-19.63373194000002]]]}},{"type":"Feature","properties":{"ID_UNIDADE_ESTRATIGRAFICA":877,"SIGLA":"NP3bo","HIERARQUIA":"Formação","NOME":"Formação Bocaina","AMBIENTE_TECTONICO":null,"SUB_AMBIENTE_TECTONICO":null,"NOME_PAI":"NP3co - Grupo Corumbá","LEGENDA":"Calcário dolomítico e calcítico brancos a cinza claros, estromatolíticos e as vezes com níveis fosforíticos no topo das camadas. Apresenta-se com estrutura maciça e comumente silicificado.","ESCALA":"1:1.000.000","MAPA":"Mapa geológico do estado do Mato Grosso do Sul","LITOTIPOS":"Calcário calcítico, Calcário dolomítico, Dolomito","RANGE":"NP3","IDADE_MIN":541.1,"IDADE_MAX":635,"EON_MIN":"Proterozóico","EON_MAX":"Proterozóico","ERA_MIN":"Neoproterozóico","ERA_MAX":"Neoproterozóico"},"geometry":{"type":"Polygon","coordinates":[[[-57.41209163299999,-19.45384595600001],[-57.430322961,-19.45032711800002],[-57.43544989600002,-19.45195019099998],[-57.416331204000016,-19.46654421599999],[-57.41209163299999,-19.45384595600001]]]}},{"type":"Feature","properties":{"ID_UNIDADE_ESTRATIGRAFICA":877,"SIGLA":"NP3bo","HIERARQUIA":"Formação","NOME":"Formação Bocaina","AMBIENTE_TECTONICO":null,"SUB_AMBIENTE_TECTONICO":null,"NOME_PAI":"NP3co - Grupo Corumbá","LEGENDA":"Calcário dolomítico e calcítico brancos a cinza claros, estromatolíticos e as vezes com níveis fosforíticos no topo das camadas. Apresenta-se com estrutura maciça e comumente silicificado.","ESCALA":"1:1.000.000","MAPA":"Mapa geológico do estado do Mato Grosso do Sul","LITOTIPOS":"Calcário calcítico, Calcário dolomítico, Dolomito","RANGE":"NP3","IDADE_MIN":541.1,"IDADE_MAX":635,"EON_MIN":"Proterozóico","EON_MAX":"Proterozóico","ERA_MIN":"Neoproterozóico","ERA_MAX":"Neoproterozóico"},"geometry":{"type":"Polygon","coordinates":[[[-57.706565719000025,-19.453427755000007],[-57.71521272199999,-19.45116005699998],[-57.720993557999975,-19.46058065400001],[-57.709753079999984,-19.466575732000024],[-57.706565719000025,-19.453427755000007]]]}},{"type":"Feature","properties":{"ID_UNIDADE_ESTRATIGRAFICA":877,"SIGLA":"NP3bo","HIERARQUIA":"Formação","NOME":"Formação Bocaina","AMBIENTE_TECTONICO":null,"SUB_AMBIENTE_TECTONICO":null,"NOME_PAI":"NP3co - Grupo Corumbá","LEGENDA":"Calcário dolomítico e calcítico brancos a cinza claros, estromatolíticos e as vezes com níveis fosforíticos no topo das camadas. Apresenta-se com estrutura maciça e comumente silicificado.","ESCALA":"1:1.000.000","MAPA":"Mapa geológico do estado do Mato Grosso do Sul","LITOTIPOS":"Calcário calcítico, Calcário dolomítico, Dolomito","RANGE":"NP3","IDADE_MIN":541.1,"IDADE_MAX":635,"EON_MIN":"Proterozóico","EON_MAX":"Proterozóico","ERA_MIN":"Neoproterozóico","ERA_MAX":"Neoproterozóico"},"geometry":{"type":"Polygon","coordinates":[[[-57.74761987300002,-19.45343077199999],[-57.76069453600002,-19.450767448000022],[-57.75896898000002,-19.461209855999982],[-57.74761987300002,-19.45343077199999]]]}},{"type":"Feature","properties":{"ID_UNIDADE_ESTRATIGRAFICA":877,"SIGLA":"NP3bo","HIERARQUIA":"Formação","NOME":"Formação Bocaina","AMBIENTE_TECTONICO":null,"SUB_AMBIENTE_TECTONICO":null,"NOME_PAI":"NP3co - Grupo Corumbá","LEGENDA":"Calcário dolomítico e calcítico brancos a cinza claros, estromatolíticos e as vezes com níveis fosforíticos no topo das camadas. Apresenta-se com estrutura maciça e comumente silicificado.","ESCALA":"1:1.000.000","MAPA":"Mapa geológico do estado do Mato Grosso do Sul","LITOTIPOS":"Calcário calcítico, Calcário dolomítico, Dolomito","RANGE":"NP3","IDADE_MIN":541.1,"IDADE_MAX":635,"EON_MIN":"Proterozóico","EON_MAX":"Proterozóico","ERA_MIN":"Neoproterozóico","ERA_MAX":"Neoproterozóico"},"geometry":{"type":"Polygon","coordinates":[[[-57.763632899000015,-19.46274307499999],[-57.77425333899998,-19.448104235000017],[-57.795802786000024,-19.454156309999973],[-57.77560595599999,-19.467943436999974],[-57.763632899000015,-19.46274307499999]]]}},{"type":"Feature","properties":{"ID_UNIDADE_ESTRATIGRAFICA":999,"SIGLA":"NP3t","HIERARQUIA":"Formação","NOME":"Formação Tamengo","AMBIENTE_TECTONICO":null,"SUB_AMBIENTE_TECTONICO":null,"NOME_PAI":"NP3co - Grupo Corumbá","LEGENDA":"Arenito, brecha intraformacional, calcário calcítico e dolomítico, folhelho carbonoso, siltito, folhelho calcítico, microfosforito. Macrofóssil: Corumbella werneri; Calcário dolomítico e calcítico brancos a cinza claros, estromatolíticos e as vezes com níveis fosforíticos no topo das camadas. Apresenta-se com estrutura maciça e comumente silicificado.","ESCALA":"1:1.000.000","MAPA":"Mapa geológico do estado do Mato Grosso do Sul","LITOTIPOS":"Ardósia, Arenito, Brecha cataclástica, Calcário calcítico, Calcário dolomítico, Dolomito, Folhelho, Pelito","RANGE":"NP3","IDADE_MIN":541.1,"IDADE_MAX":635,"EON_MIN":"Proterozóico","EON_MAX":"Proterozóico","ERA_MIN":"Neoproterozóico","ERA_MAX":"Neoproterozóico"},"geometry":{"type":"Polygon","coordinates":[[[-56.527060721,-21.22320146499999],[-56.49783690800001,-21.209342365999987],[-56.48824643699999,-21.199305977999984],[-56.520549093,-21.190815213999997],[-56.527060721,-21.22320146499999]]]}},{"type":"Feature","properties":{"ID_UNIDADE_ESTRATIGRAFICA":877,"SIGLA":"NP3bo","HIERARQUIA":"Formação","NOME":"Formação Bocaina","AMBIENTE_TECTONICO":null,"SUB_AMBIENTE_TECTONICO":null,"NOME_PAI":"NP3co - Grupo Corumbá","LEGENDA":"Calcário dolomítico e calcítico brancos a cinza claros, estromatolíticos e as vezes com níveis fosforíticos no topo das camadas. Apresenta-se com estrutura maciça e comumente silicificado.","ESCALA":"1:1.000.000","MAPA":"Mapa geológico do estado do Mato Grosso do Sul","LITOTIPOS":"Calcário calcítico, Calcário dolomítico, Dolomito","RANGE":"NP3","IDADE_MIN":541.1,"IDADE_MAX":635,"EON_MIN":"Proterozóico","EON_MAX":"Proterozóico","ERA_MIN":"Neoproterozóico","ERA_MAX":"Neoproterozóico"},"geometry":{"type":"Polygon","coordinates":[[[-57.682184973999995,-19.132492422999974],[-57.62642838900001,-19.06830508799999],[-57.66229682199997,-19.019007156999976],[-57.68592587699999,-19.024786876000007],[-57.66605225400002,-19.050009276000026],[-57.670801668000024,-19.079088807999995],[-57.68304328200003,-19.089409063999994],[-57.672877476999986,-19.091104334000022],[-57.682184973999995,-19.132492422999974]]]}},{"type":"Feature","properties":{"ID_UNIDADE_ESTRATIGRAFICA":877,"SIGLA":"NP3bo","HIERARQUIA":"Formação","NOME":"Formação Bocaina","AMBIENTE_TECTONICO":null,"SUB_AMBIENTE_TECTONICO":null,"NOME_PAI":"NP3co - Grupo Corumbá","LEGENDA":"Calcário dolomítico e calcítico brancos a cinza claros, estromatolíticos e as vezes com níveis fosforíticos no topo das camadas. Apresenta-se com estrutura maciça e comumente silicificado.","ESCALA":"1:1.000.000","MAPA":"Mapa geológico do estado do Mato Grosso do Sul","LITOTIPOS":"Calcário calcítico, Calcário dolomítico, Dolomito","RANGE":"NP3","IDADE_MIN":541.1,"IDADE_MAX":635,"EON_MIN":"Proterozóico","EON_MAX":"Proterozóico","ERA_MIN":"Neoproterozóico","ERA_MAX":"Neoproterozóico"},"geometry":{"type":"Polygon","coordinates":[[[-57.626258404,-19.04178628599999],[-57.61857967999998,-19.025694468999973],[-57.623947008000016,-19.017565467999987],[-57.640707813000006,-19.028696758000024],[-57.626258404,-19.04178628599999]]]}},{"type":"Feature","properties":{"ID_UNIDADE_ESTRATIGRAFICA":877,"SIGLA":"NP3bo","HIERARQUIA":"Formação","NOME":"Formação Bocaina","AMBIENTE_TECTONICO":null,"SUB_AMBIENTE_TECTONICO":null,"NOME_PAI":"NP3co - Grupo Corumbá","LEGENDA":"Calcário dolomítico e calcítico brancos a cinza claros, estromatolíticos e as vezes com níveis fosforíticos no topo das camadas. Apresenta-se com estrutura maciça e comumente silicificado.","ESCALA":"1:1.000.000","MAPA":"Mapa geológico do estado do Mato Grosso do Sul","LITOTIPOS":"Calcário calcítico, Calcário dolomítico, Dolomito","RANGE":"NP3","IDADE_MIN":541.1,"IDADE_MAX":635,"EON_MIN":"Proterozóico","EON_MAX":"Proterozóico","ERA_MIN":"Neoproterozóico","ERA_MAX":"Neoproterozóico"},"geometry":{"type":"Polygon","coordinates":[[[-57.93020885499999,-22.050514538000016],[-57.92037899600001,-22.013437209000017],[-57.92296934199999,-22.003250729],[-57.952293403,-22.029967121000027],[-57.93819156400002,-22.052189913999996],[-57.93020885499999,-22.050514538000016]]]}}]}