{"type":"FeatureCollection","features":[{"type":"Feature","properties":{"ID_UNIDADE_ESTRATIGRAFICA":2212,"SIGLA":"T3_lambda_fm","HIERARQUIA":"Corpo","NOME":"Corpo Feixe dos Morros","AMBIENTE_TECTONICO":null,"SUB_AMBIENTE_TECTONICO":null,"NOME_PAI":null,"LEGENDA":"Sienito, nefelina sienito, augita sienito, fonolito e fayalita traquito","ESCALA":"1:1.000.000","MAPA":"Mapa geológico do estado do Mato Grosso do Sul","LITOTIPOS":"Foide sienito , Nefelina sienito","RANGE":"T3","IDADE_MIN":201.4,"IDADE_MAX":237,"EON_MIN":"Fanerozóico","EON_MAX":"Fanerozóico","ERA_MIN":"Mesozóico","ERA_MAX":"Mesozóico"},"geometry":{"type":"Polygon","coordinates":[[[-57.91818371800002,-21.436320943999988],[-57.926084618999994,-21.447759683000015],[-57.921259432,-21.464574466999977],[-57.908872084999985,-21.44991025799999],[-57.91818371800002,-21.436320943999988]]]}},{"type":"Feature","properties":{"ID_UNIDADE_ESTRATIGRAFICA":2212,"SIGLA":"T3_lambda_fm","HIERARQUIA":"Corpo","NOME":"Corpo Feixe dos Morros","AMBIENTE_TECTONICO":null,"SUB_AMBIENTE_TECTONICO":null,"NOME_PAI":null,"LEGENDA":"Sienito, nefelina sienito, augita sienito, fonolito e fayalita traquito","ESCALA":"1:1.000.000","MAPA":"Mapa geológico do estado do Mato Grosso do Sul","LITOTIPOS":"Foide sienito , Nefelina sienito","RANGE":"T3","IDADE_MIN":201.4,"IDADE_MAX":237,"EON_MIN":"Fanerozóico","EON_MAX":"Fanerozóico","ERA_MIN":"Mesozóico","ERA_MAX":"Mesozóico"},"geometry":{"type":"Polygon","coordinates":[[[-57.865934013000015,-21.460659779000025],[-57.85477377799998,-21.44414048499999],[-57.85620250300002,-21.42366235899999],[-57.868655004999994,-21.407014318999984],[-57.885615187999974,-21.408736522000027],[-57.90530832000002,-21.438591437000014],[-57.88538172300002,-21.467335133000006],[-57.865934013000015,-21.460659779000025]]]}},{"type":"Feature","properties":{"ID_UNIDADE_ESTRATIGRAFICA":2212,"SIGLA":"T3_lambda_fm","HIERARQUIA":"Corpo","NOME":"Corpo Feixe dos Morros","AMBIENTE_TECTONICO":null,"SUB_AMBIENTE_TECTONICO":null,"NOME_PAI":null,"LEGENDA":"Sienito, nefelina sienito, augita sienito, fonolito e fayalita traquito","ESCALA":"1:1.000.000","MAPA":"Mapa geológico do estado do Mato Grosso do Sul","LITOTIPOS":"Foide sienito , Nefelina sienito","RANGE":"T3","IDADE_MIN":201.4,"IDADE_MAX":237,"EON_MIN":"Fanerozóico","EON_MAX":"Fanerozóico","ERA_MIN":"Mesozóico","ERA_MAX":"Mesozóico"},"geometry":{"type":"Polygon","coordinates":[[[-57.89307452999998,-21.50342686099998],[-57.881851039000026,-21.486971157000028],[-57.88362778099997,-21.48253343800002],[-57.902297202,-21.494972753000013],[-57.89307452999998,-21.50342686099998]]]}},{"type":"Feature","properties":{"ID_UNIDADE_ESTRATIGRAFICA":2212,"SIGLA":"T3_lambda_fm","HIERARQUIA":"Corpo","NOME":"Corpo Feixe dos Morros","AMBIENTE_TECTONICO":null,"SUB_AMBIENTE_TECTONICO":null,"NOME_PAI":null,"LEGENDA":"Sienito, nefelina sienito, augita sienito, fonolito e fayalita traquito","ESCALA":"1:1.000.000","MAPA":"Mapa geológico do estado do Mato Grosso do Sul","LITOTIPOS":"Foide sienito , Nefelina sienito","RANGE":"T3","IDADE_MIN":201.4,"IDADE_MAX":237,"EON_MIN":"Fanerozóico","EON_MAX":"Fanerozóico","ERA_MIN":"Mesozóico","ERA_MAX":"Mesozóico"},"geometry":{"type":"Polygon","coordinates":[[[-57.937669649999975,-21.483245565000004],[-57.92777362999999,-21.491690731999995],[-57.931027934999975,-21.470414424000012],[-57.931721063,-21.47304857900002],[-57.937669649999975,-21.483245565000004]]]}},{"type":"Feature","properties":{"ID_UNIDADE_ESTRATIGRAFICA":2212,"SIGLA":"T3_lambda_fm","HIERARQUIA":"Corpo","NOME":"Corpo Feixe dos Morros","AMBIENTE_TECTONICO":null,"SUB_AMBIENTE_TECTONICO":null,"NOME_PAI":null,"LEGENDA":"Sienito, nefelina sienito, augita sienito, fonolito e fayalita traquito","ESCALA":"1:1.000.000","MAPA":"Mapa geológico do estado do Mato Grosso do Sul","LITOTIPOS":"Foide sienito , Nefelina sienito","RANGE":"T3","IDADE_MIN":201.4,"IDADE_MAX":237,"EON_MIN":"Fanerozóico","EON_MAX":"Fanerozóico","ERA_MIN":"Mesozóico","ERA_MAX":"Mesozóico"},"geometry":{"type":"Polygon","coordinates":[[[-57.903551135999976,-21.482347806999996],[-57.90094816200002,-21.46921972199999],[-57.91105831099998,-21.46730696999998],[-57.914428397999984,-21.477690370000005],[-57.903551135999976,-21.482347806999996]]]}},{"type":"Feature","properties":{"ID_UNIDADE_ESTRATIGRAFICA":2212,"SIGLA":"T3_lambda_fm","HIERARQUIA":"Corpo","NOME":"Corpo Feixe dos Morros","AMBIENTE_TECTONICO":null,"SUB_AMBIENTE_TECTONICO":null,"NOME_PAI":null,"LEGENDA":"Sienito, nefelina sienito, augita sienito, fonolito e fayalita traquito","ESCALA":"1:1.000.000","MAPA":"Mapa geológico do estado do Mato Grosso do Sul","LITOTIPOS":"Foide sienito , Nefelina sienito","RANGE":"T3","IDADE_MIN":201.4,"IDADE_MAX":237,"EON_MIN":"Fanerozóico","EON_MAX":"Fanerozóico","ERA_MIN":"Mesozóico","ERA_MAX":"Mesozóico"},"geometry":{"type":"Polygon","coordinates":[[[-57.91137179499998,-21.528991354000027],[-57.90511050700002,-21.514874539999994],[-57.92362894299998,-21.516000845000008],[-57.92383860199999,-21.52825810500002],[-57.91137179499998,-21.528991354000027]]]}}]}