{"type":"FeatureCollection","features":[{"type":"Feature","id":343297,"geometry":{"type":"Point","coordinates":[-57.90198333000001,-21.45366667000002]},"properties":{"ID":2821,"AMOSTRA":"RP89-WR","TOPONIMIA":null,"ROCHA":"Nefelina sienito","METODO_GEOPOSICIONAMENTO":"Levantamento em mapa 1:2.500.000","ERRO_LOCACIONAL":null,"METODOS":"Rb-Sr - Isocrônico","MATERIAIS_ANALISADOS":null,"OBJECTID":343297,"NIVEL_ACESSO":"Acesso livre","X":-57.90198333,"Y":-21.45366667,"DATUM":"WGS84","__atlas_chave_independente":"ID:2821","__atlas_q_age":0.8,"__atlas_idade_ma":250.9,"__atlas_incerteza_ma":2.1,"__atlas_metodo_analitico":"Rb-Sr - Isocrônico","__atlas_material_analisado":null,"__atlas_referencia":"VELASZQUEZ, V. F. et. al. 1996.","__atlas_n_resultados_diretos":1,"__atlas_unidade_geologica_id":"1504","__atlas_unidade_geologica_sigla":"Q1p2","__atlas_unidade_geologica_nome":"Fácies Pantanal, depósitos aluvionares","__atlas_fonte":"SGB · GeoSGB · Datações geocronológicas","__atlas_snapshot":"2026-08-14"}},{"type":"Feature","id":343313,"geometry":{"type":"Point","coordinates":[-57.901983332999976,-21.453666666999993]},"properties":{"ID":2822,"AMOSTRA":"RP-89Bi","TOPONIMIA":null,"ROCHA":"Nefelina sienito","METODO_GEOPOSICIONAMENTO":"Levantamento em mapa 1:2.500.000","ERRO_LOCACIONAL":null,"METODOS":"Rb-Sr - Isocrônico","MATERIAIS_ANALISADOS":null,"OBJECTID":343313,"NIVEL_ACESSO":"Acesso livre","X":-57.90198333,"Y":-21.45366667,"DATUM":"WGS84","__atlas_chave_independente":"ID:2822","__atlas_q_age":0.8,"__atlas_idade_ma":250.9,"__atlas_incerteza_ma":2.1,"__atlas_metodo_analitico":"Rb-Sr - Isocrônico","__atlas_material_analisado":null,"__atlas_referencia":"VELASZQUEZ, V. F. et. al. 1996.","__atlas_n_resultados_diretos":1,"__atlas_unidade_geologica_id":"1504","__atlas_unidade_geologica_sigla":"Q1p2","__atlas_unidade_geologica_nome":"Fácies Pantanal, depósitos aluvionares","__atlas_fonte":"SGB · GeoSGB · Datações geocronológicas","__atlas_snapshot":"2026-08-14"}},{"type":"Feature","id":343329,"geometry":{"type":"Point","coordinates":[-57.901983332999976,-21.453666666999993]},"properties":{"ID":2823,"AMOSTRA":"RP-89 AF","TOPONIMIA":null,"ROCHA":"Nefelina sienito","METODO_GEOPOSICIONAMENTO":"Levantamento em mapa 1:2.500.000","ERRO_LOCACIONAL":null,"METODOS":"Rb-Sr - Isocrônico","MATERIAIS_ANALISADOS":null,"OBJECTID":343329,"NIVEL_ACESSO":"Acesso livre","X":-57.90198333,"Y":-21.45366667,"DATUM":"WGS84","__atlas_chave_independente":"ID:2823","__atlas_q_age":0.8,"__atlas_idade_ma":250.9,"__atlas_incerteza_ma":2.1,"__atlas_metodo_analitico":"Rb-Sr - Isocrônico","__atlas_material_analisado":null,"__atlas_referencia":"VELASZQUEZ, V. F. et. al. 1996.","__atlas_n_resultados_diretos":1,"__atlas_unidade_geologica_id":"1504","__atlas_unidade_geologica_sigla":"Q1p2","__atlas_unidade_geologica_nome":"Fácies Pantanal, depósitos aluvionares","__atlas_fonte":"SGB · GeoSGB · Datações geocronológicas","__atlas_snapshot":"2026-08-14"}},{"type":"Feature","id":343345,"geometry":{"type":"Point","coordinates":[-57.91309444400002,-21.523000000000025]},"properties":{"ID":2824,"AMOSTRA":"RP-95-WR","TOPONIMIA":null,"ROCHA":"Nefelina sienito","METODO_GEOPOSICIONAMENTO":"Levantamento em mapa 1:2.500.000","ERRO_LOCACIONAL":null,"METODOS":"Rb-Sr - Isocrônico","MATERIAIS_ANALISADOS":null,"OBJECTID":343345,"NIVEL_ACESSO":"Acesso livre","X":-57.91309444,"Y":-21.523,"DATUM":"WGS84","__atlas_chave_independente":"ID:2824","__atlas_q_age":0.8,"__atlas_idade_ma":250.9,"__atlas_incerteza_ma":2.1,"__atlas_metodo_analitico":"Rb-Sr - Isocrônico","__atlas_material_analisado":null,"__atlas_referencia":"VELASZQUEZ, V. F. et. al. 1996.","__atlas_n_resultados_diretos":1,"__atlas_unidade_geologica_id":"2212","__atlas_unidade_geologica_sigla":"T3_lambda_fm","__atlas_unidade_geologica_nome":"Corpo Feixe dos Morros","__atlas_fonte":"SGB · GeoSGB · Datações geocronológicas","__atlas_snapshot":"2026-08-14"}},{"type":"Feature","id":345681,"geometry":{"type":"Point","coordinates":[-52.46142222200001,-18.84916388900001]},"properties":{"ID":3008,"AMOSTRA":"PG-24","TOPONIMIA":"Ponta Grossa","ROCHA":"Siltito argiloso","METODO_GEOPOSICIONAMENTO":"Levantamento em carta 1:25.000","ERRO_LOCACIONAL":null,"METODOS":"Rb-Sr - Isocrônico","MATERIAIS_ANALISADOS":null,"OBJECTID":345681,"NIVEL_ACESSO":"Acesso livre","X":-52.46142222,"Y":-18.84916389,"DATUM":"WGS84","__atlas_chave_independente":"ID:3008","__atlas_q_age":0.8,"__atlas_idade_ma":390.90000000000003,"__atlas_incerteza_ma":19.6,"__atlas_metodo_analitico":"Rb-Sr - Isocrônico","__atlas_material_analisado":null,"__atlas_referencia":"SILVA, D. R. A. et. al. 2006.","__atlas_n_resultados_diretos":1,"__atlas_unidade_geologica_id":"101","__atlas_unidade_geologica_sigla":"ENch","__atlas_unidade_geologica_nome":"Formação Cachoeirinha","__atlas_fonte":"SGB · GeoSGB · Datações geocronológicas","__atlas_snapshot":"2026-08-14"}}],"atlas_metadata":{"id":"geocronologia_geosgb_ms","nome":"Dados geocronológicos","fonte":"Serviço Geológico do Brasil · GeoSGB · Datações geocronológicas","fonte_materializada_por":"ArcGIS REST GeoSGB · queryRelatedRecords com vínculo explícito de origem + fallback CODIGO/AMOSTRA","correcao_runtime":"R3 · vínculo OBJECTID origem → ID amostra + elegibilidade por método e idade; material preservado em Q_age","url_consulta":"https://geoportal.sgb.gov.br/server/rest/services/geologia/geocronologia/MapServer","corte":"2026-08-14","sha256_snapshot_mesclado":"378c2516f07a98699203ddd26b2e4c3e038583a7a84bb8e891d107e787f0014f","registros_pontuais_recortados_ms":5,"amostras_diretas_independentes":5,"registros_sem_resultado_direto_utilizavel":0,"tabelas_relacionadas":{"concordia":3,"frequencia":0,"isocrona":8,"pb_evap":0,"simples":0},"regra_independencia":"ID institucional da amostra; fallback AMOSTRA + coordenada","regra_direta":"exige resultado relacionado com método analítico e idade positiva. Material analisado permanece como bloco de completude em Q_age e nunca é inferido quando ausente","invalid_geometry_removed":0,"outside_ms_removed":11}}
