{
"type": "FeatureCollection",
"name": "reproduced_evidence_M2_Feixe_dos_Morros",
"crs": { "type": "name", "properties": { "name": "urn:ogc:def:crs:OGC:1.3:CRS84" } },
"features": [
{ "type": "Feature", "properties": { "ID_UNIDADE_ESTRATIGRAFICA": 2212, "SIGLA": "T3_lambda_fm", "HIERARQUIA": "Corpo", "NOME": "Corpo Feixe dos Morros", "AMBIENTE_TECTONICO": null, "SUB_AMBIENTE_TECTONICO": null, "NOME_PAI": null, "LEGENDA": "Sienito, nefelina sienito, augita sienito, fonolito e fayalita traquito", "ESCALA": "1:1.000.000", "MAPA": "Mapa geológico do estado do Mato Grosso do Sul", "LITOTIPOS": "Foide sienito , Nefelina sienito", "RANGE": "T3", "IDADE_MIN": 201.4, "IDADE_MAX": 237.0, "EON_MIN": "Fanerozóico", "EON_MAX": "Fanerozóico", "ERA_MIN": "Mesozóico", "ERA_MAX": "Mesozóico" }, "geometry": { "type": "Polygon", "coordinates": [ [ [ -57.918183718000023, -21.436320943999988 ], [ -57.926084619, -21.447759683000015 ], [ -57.921259432, -21.464574466999977 ], [ -57.908872084999985, -21.449910257999989 ], [ -57.918183718000023, -21.436320943999988 ] ] ] } },
{ "type": "Feature", "properties": { "ID_UNIDADE_ESTRATIGRAFICA": 2212, "SIGLA": "T3_lambda_fm", "HIERARQUIA": "Corpo", "NOME": "Corpo Feixe dos Morros", "AMBIENTE_TECTONICO": null, "SUB_AMBIENTE_TECTONICO": null, "NOME_PAI": null, "LEGENDA": "Sienito, nefelina sienito, augita sienito, fonolito e fayalita traquito", "ESCALA": "1:1.000.000", "MAPA": "Mapa geológico do estado do Mato Grosso do Sul", "LITOTIPOS": "Foide sienito , Nefelina sienito", "RANGE": "T3", "IDADE_MIN": 201.4, "IDADE_MAX": 237.0, "EON_MIN": "Fanerozóico", "EON_MAX": "Fanerozóico", "ERA_MIN": "Mesozóico", "ERA_MAX": "Mesozóico" }, "geometry": { "type": "Polygon", "coordinates": [ [ [ -57.865934013000015, -21.460659779000025 ], [ -57.854773777999981, -21.444140485 ], [ -57.85620250300002, -21.423662359 ], [ -57.868655005, -21.407014318999984 ], [ -57.885615187999974, -21.408736522000027 ], [ -57.905308320000017, -21.438591437000014 ], [ -57.885381723000023, -21.467335133 ], [ -57.865934013000015, -21.460659779000025 ] ] ] } },
{ "type": "Feature", "properties": { "ID_UNIDADE_ESTRATIGRAFICA": 2212, "SIGLA": "T3_lambda_fm", "HIERARQUIA": "Corpo", "NOME": "Corpo Feixe dos Morros", "AMBIENTE_TECTONICO": null, "SUB_AMBIENTE_TECTONICO": null, "NOME_PAI": null, "LEGENDA": "Sienito, nefelina sienito, augita sienito, fonolito e fayalita traquito", "ESCALA": "1:1.000.000", "MAPA": "Mapa geológico do estado do Mato Grosso do Sul", "LITOTIPOS": "Foide sienito , Nefelina sienito", "RANGE": "T3", "IDADE_MIN": 201.4, "IDADE_MAX": 237.0, "EON_MIN": "Fanerozóico", "EON_MAX": "Fanerozóico", "ERA_MIN": "Mesozóico", "ERA_MAX": "Mesozóico" }, "geometry": { "type": "Polygon", "coordinates": [ [ [ -57.893074529999978, -21.50342686099998 ], [ -57.881851039000026, -21.486971157000028 ], [ -57.883627780999973, -21.482533438000019 ], [ -57.902297202, -21.494972753000013 ], [ -57.893074529999978, -21.50342686099998 ] ] ] } },
{ "type": "Feature", "properties": { "ID_UNIDADE_ESTRATIGRAFICA": 2212, "SIGLA": "T3_lambda_fm", "HIERARQUIA": "Corpo", "NOME": "Corpo Feixe dos Morros", "AMBIENTE_TECTONICO": null, "SUB_AMBIENTE_TECTONICO": null, "NOME_PAI": null, "LEGENDA": "Sienito, nefelina sienito, augita sienito, fonolito e fayalita traquito", "ESCALA": "1:1.000.000", "MAPA": "Mapa geológico do estado do Mato Grosso do Sul", "LITOTIPOS": "Foide sienito , Nefelina sienito", "RANGE": "T3", "IDADE_MIN": 201.4, "IDADE_MAX": 237.0, "EON_MIN": "Fanerozóico", "EON_MAX": "Fanerozóico", "ERA_MIN": "Mesozóico", "ERA_MAX": "Mesozóico" }, "geometry": { "type": "Polygon", "coordinates": [ [ [ -57.937669649999975, -21.483245565 ], [ -57.92777363, -21.491690732 ], [ -57.931027934999975, -21.470414424000012 ], [ -57.931721063, -21.473048579000022 ], [ -57.937669649999975, -21.483245565 ] ] ] } },
{ "type": "Feature", "properties": { "ID_UNIDADE_ESTRATIGRAFICA": 2212, "SIGLA": "T3_lambda_fm", "HIERARQUIA": "Corpo", "NOME": "Corpo Feixe dos Morros", "AMBIENTE_TECTONICO": null, "SUB_AMBIENTE_TECTONICO": null, "NOME_PAI": null, "LEGENDA": "Sienito, nefelina sienito, augita sienito, fonolito e fayalita traquito", "ESCALA": "1:1.000.000", "MAPA": "Mapa geológico do estado do Mato Grosso do Sul", "LITOTIPOS": "Foide sienito , Nefelina sienito", "RANGE": "T3", "IDADE_MIN": 201.4, "IDADE_MAX": 237.0, "EON_MIN": "Fanerozóico", "EON_MAX": "Fanerozóico", "ERA_MIN": "Mesozóico", "ERA_MAX": "Mesozóico" }, "geometry": { "type": "Polygon", "coordinates": [ [ [ -57.903551135999976, -21.482347807 ], [ -57.90094816200002, -21.469219722 ], [ -57.911058310999977, -21.467306969999981 ], [ -57.914428397999984, -21.47769037 ], [ -57.903551135999976, -21.482347807 ] ] ] } },
{ "type": "Feature", "properties": { "ID_UNIDADE_ESTRATIGRAFICA": 2212, "SIGLA": "T3_lambda_fm", "HIERARQUIA": "Corpo", "NOME": "Corpo Feixe dos Morros", "AMBIENTE_TECTONICO": null, "SUB_AMBIENTE_TECTONICO": null, "NOME_PAI": null, "LEGENDA": "Sienito, nefelina sienito, augita sienito, fonolito e fayalita traquito", "ESCALA": "1:1.000.000", "MAPA": "Mapa geológico do estado do Mato Grosso do Sul", "LITOTIPOS": "Foide sienito , Nefelina sienito", "RANGE": "T3", "IDADE_MIN": 201.4, "IDADE_MAX": 237.0, "EON_MIN": "Fanerozóico", "EON_MAX": "Fanerozóico", "ERA_MIN": "Mesozóico", "ERA_MAX": "Mesozóico" }, "geometry": { "type": "Polygon", "coordinates": [ [ [ -57.91137179499998, -21.528991354000027 ], [ -57.905110507000018, -21.51487454 ], [ -57.923628942999983, -21.516000845 ], [ -57.923838601999989, -21.52825810500002 ], [ -57.91137179499998, -21.528991354000027 ] ] ] } }
]
}
