{
"type": "FeatureCollection",
"name": "reproduced_evidence_M4_fosforitos",
"crs": { "type": "name", "properties": { "name": "urn:ogc:def:crs:OGC:1.3:CRS84" } },
"features": [
{ "type": "Feature", "properties": { "ID_UNIDADE_ESTRATIGRAFICA": 877, "SIGLA": "NP3bo", "HIERARQUIA": "Formação", "NOME": "Formação Bocaina", "AMBIENTE_TECTONICO": null, "SUB_AMBIENTE_TECTONICO": null, "NOME_PAI": "NP3co - Grupo Corumbá", "LEGENDA": "Calcário dolomítico e calcítico brancos a cinza claros, estromatolíticos e as vezes com níveis fosforíticos no topo das camadas. Apresenta-se com estrutura maciça e comumente silicificado.", "ESCALA": "1:1.000.000", "MAPA": "Mapa geológico do estado do Mato Grosso do Sul", "LITOTIPOS": "Calcário calcítico, Calcário dolomítico, Dolomito", "RANGE": "NP3", "IDADE_MIN": 541.1, "IDADE_MAX": 635.0, "EON_MIN": "Proterozóico", "EON_MAX": "Proterozóico", "ERA_MIN": "Neoproterozóico", "ERA_MAX": "Neoproterozóico" }, "geometry": { "type": "Polygon", "coordinates": [ [ [ -57.731366453000021, -17.689323457 ], [ -57.748902305, -17.658240089 ], [ -57.756206973000019, -17.622869877000028 ], [ -57.771893775000024, -17.599357833999989 ], [ -57.779968573000019, -17.60089608200002 ], [ -57.782751033000011, -17.644239503999984 ], [ -57.760106684999982, -17.665406623000024 ], [ -57.755083909, -17.68655005 ], [ -57.731366453000021, -17.689323457 ] ] ] } },
{ "type": "Feature", "properties": { "ID_UNIDADE_ESTRATIGRAFICA": 877, "SIGLA": "NP3bo", "HIERARQUIA": "Formação", "NOME": "Formação Bocaina", "AMBIENTE_TECTONICO": null, "SUB_AMBIENTE_TECTONICO": null, "NOME_PAI": "NP3co - Grupo Corumbá", "LEGENDA": "Calcário dolomítico e calcítico brancos a cinza claros, estromatolíticos e as vezes com níveis fosforíticos no topo das camadas. Apresenta-se com estrutura maciça e comumente silicificado.", "ESCALA": "1:1.000.000", "MAPA": "Mapa geológico do estado do Mato Grosso do Sul", "LITOTIPOS": "Calcário calcítico, Calcário dolomítico, Dolomito", "RANGE": "NP3", "IDADE_MIN": 541.1, "IDADE_MAX": 635.0, "EON_MIN": "Proterozóico", "EON_MAX": "Proterozóico", "ERA_MIN": "Neoproterozóico", "ERA_MAX": "Neoproterozóico" }, "geometry": { "type": "Polygon", "coordinates": [ [ [ -57.660895478999976, -17.938041694999981 ], [ -57.658329943000012, -17.914023048999979 ], [ -57.683619062999981, -17.89581876699998 ], [ -57.674510161, -17.912105380000014 ], [ -57.660895478999976, -17.938041694999981 ] ] ] } },
{ "type": "Feature", "properties": { "ID_UNIDADE_ESTRATIGRAFICA": 877, "SIGLA": "NP3bo", "HIERARQUIA": "Formação", "NOME": "Formação Bocaina", "AMBIENTE_TECTONICO": null, "SUB_AMBIENTE_TECTONICO": null, "NOME_PAI": "NP3co - Grupo Corumbá", "LEGENDA": "Calcário dolomítico e calcítico brancos a cinza claros, estromatolíticos e as vezes com níveis fosforíticos no topo das camadas. Apresenta-se com estrutura maciça e comumente silicificado.", "ESCALA": "1:1.000.000", "MAPA": "Mapa geológico do estado do Mato Grosso do Sul", "LITOTIPOS": "Calcário calcítico, Calcário dolomítico, Dolomito", "RANGE": "NP3", "IDADE_MIN": 541.1, "IDADE_MAX": 635.0, "EON_MIN": "Proterozóico", "EON_MAX": "Proterozóico", "ERA_MIN": "Neoproterozóico", "ERA_MAX": "Neoproterozóico" }, "geometry": { "type": "Polygon", "coordinates": [ [ [ -57.704348088000017, -18.702178178999986 ], [ -57.671122863, -18.705249311999978 ], [ -57.663205310000023, -18.689414651999982 ], [ -57.649130069000023, -18.686775579000027 ], [ -57.617460302999973, -18.601444259 ], [ -57.586670637999987, -18.596166114000027 ], [ -57.636520657, -18.486841740999978 ], [ -57.704348088000017, -18.702178178999986 ] ] ] } },
{ "type": "Feature", "properties": { "ID_UNIDADE_ESTRATIGRAFICA": 877, "SIGLA": "NP3bo", "HIERARQUIA": "Formação", "NOME": "Formação Bocaina", "AMBIENTE_TECTONICO": null, "SUB_AMBIENTE_TECTONICO": null, "NOME_PAI": "NP3co - Grupo Corumbá", "LEGENDA": "Calcário dolomítico e calcítico brancos a cinza claros, estromatolíticos e as vezes com níveis fosforíticos no topo das camadas. Apresenta-se com estrutura maciça e comumente silicificado.", "ESCALA": "1:1.000.000", "MAPA": "Mapa geológico do estado do Mato Grosso do Sul", "LITOTIPOS": "Calcário calcítico, Calcário dolomítico, Dolomito", "RANGE": "NP3", "IDADE_MIN": 541.1, "IDADE_MAX": 635.0, "EON_MIN": "Proterozóico", "EON_MAX": "Proterozóico", "ERA_MIN": "Neoproterozóico", "ERA_MAX": "Neoproterozóico" }, "geometry": { "type": "Polygon", "coordinates": [ [ [ -57.611367100999985, -18.486046465000015 ], [ -57.632593676, -18.474656900000014 ], [ -57.635184804, -18.482593453 ], [ -57.626555683, -18.490290171000026 ], [ -57.611367100999985, -18.486046465000015 ] ] ] } },
{ "type": "Feature", "properties": { "ID_UNIDADE_ESTRATIGRAFICA": 877, "SIGLA": "NP3bo", "HIERARQUIA": "Formação", "NOME": "Formação Bocaina", "AMBIENTE_TECTONICO": null, "SUB_AMBIENTE_TECTONICO": null, "NOME_PAI": "NP3co - Grupo Corumbá", "LEGENDA": "Calcário dolomítico e calcítico brancos a cinza claros, estromatolíticos e as vezes com níveis fosforíticos no topo das camadas. Apresenta-se com estrutura maciça e comumente silicificado.", "ESCALA": "1:1.000.000", "MAPA": "Mapa geológico do estado do Mato Grosso do Sul", "LITOTIPOS": "Calcário calcítico, Calcário dolomítico, Dolomito", "RANGE": "NP3", "IDADE_MIN": 541.1, "IDADE_MAX": 635.0, "EON_MIN": "Proterozóico", "EON_MAX": "Proterozóico", "ERA_MIN": "Neoproterozóico", "ERA_MAX": "Neoproterozóico" }, "geometry": { "type": "Polygon", "coordinates": [ [ [ -57.415502177, -18.915501953999978 ], [ -57.417696003, -18.876866818999986 ], [ -57.437836059, -18.866883293 ], [ -57.434190151, -18.886733446 ], [ -57.415502177, -18.915501953999978 ] ] ] } },
{ "type": "Feature", "properties": { "ID_UNIDADE_ESTRATIGRAFICA": 999, "SIGLA": "NP3t", "HIERARQUIA": "Formação", "NOME": "Formação Tamengo", "AMBIENTE_TECTONICO": null, "SUB_AMBIENTE_TECTONICO": null, "NOME_PAI": "NP3co - Grupo Corumbá", "LEGENDA": "Arenito, brecha intraformacional, calcário calcítico e dolomítico, folhelho carbonoso, siltito, folhelho calcítico, microfosforito. Macrofóssil: Corumbella werneri; Calcário dolomítico e calcítico brancos a cinza claros, estromatolíticos e as vezes com níveis fosforíticos no topo das camadas. Apresenta-se com estrutura maciça e comumente silicificado.", "ESCALA": "1:1.000.000", "MAPA": "Mapa geológico do estado do Mato Grosso do Sul", "LITOTIPOS": "Ardósia, Arenito, Brecha cataclástica, Calcário calcítico, Calcário dolomítico, Dolomito, Folhelho, Pelito", "RANGE": "NP3", "IDADE_MIN": 541.1, "IDADE_MAX": 635.0, "EON_MIN": "Proterozóico", "EON_MAX": "Proterozóico", "ERA_MIN": "Neoproterozóico", "ERA_MAX": "Neoproterozóico" }, "geometry": { "type": "Polygon", "coordinates": [ [ [ -57.597049567, -18.99920718300001 ], [ -57.667596649000018, -18.993470937999973 ], [ -57.712974304, -19.032753937999985 ], [ -57.717646269999989, -19.041994493 ], [ -57.710039741, -19.051428278 ], [ -57.733687347999989, -19.07902577599998 ], [ -57.722094383000012, -19.091890891999981 ], [ -57.693605943000023, -19.064671138999984 ], [ -57.671366162000027, -19.064043613000024 ], [ -57.666052254000022, -19.050009276000026 ], [ -57.685564449000026, -19.02854208399998 ], [ -57.680996084000014, -19.020027068 ], [ -57.659746933, -19.02002718 ], [ -57.636458072999972, -19.046206012000027 ], [ -57.627448636, -19.070684992 ], [ -57.688148201, -19.139193593000016 ], [ -57.665007308999975, -19.15254933 ], [ -57.670563846, -19.158627556999988 ], [ -57.663171894000016, -19.165185228999974 ], [ -57.601431072000025, -19.084547779 ], [ -57.590225127, -19.036387776000026 ], [ -57.571426624000026, -19.025422000999981 ], [ -57.569725431, -19.03690522 ], [ -57.565225462, -19.03231115 ], [ -57.566337461999979, -19.01023118400002 ], [ -57.58769021400002, -19.016348527 ], [ -57.597049567, -18.99920718300001 ] ], [ [ -57.626258404, -19.041786286 ], [ -57.640707813, -19.028696758000024 ], [ -57.623947008000016, -19.017565467999987 ], [ -57.618579679999982, -19.025694468999973 ], [ -57.626258404, -19.041786286 ] ], [ [ -57.700680498999986, -19.061811342 ], [ -57.700547170999982, -19.045266454999989 ], [ -57.687471277999975, -19.034859251 ], [ -57.683468412000025, -19.041397029999985 ], [ -57.700680498999986, -19.061811342 ] ], [ [ -57.720469408999975, -19.083908518999976 ], [ -57.722498837999979, -19.074520555 ], [ -57.711584807, -19.072199211999987 ], [ -57.711703048, -19.07797859599998 ], [ -57.720469408999975, -19.083908518999976 ] ], [ [ -57.594034426, -19.044838866000021 ], [ -57.601560823999989, -19.047177308000016 ], [ -57.596384267000019, -19.041192063999972 ], [ -57.594034426, -19.044838866000021 ] ] ] } },
{ "type": "Feature", "properties": { "ID_UNIDADE_ESTRATIGRAFICA": 877, "SIGLA": "NP3bo", "HIERARQUIA": "Formação", "NOME": "Formação Bocaina", "AMBIENTE_TECTONICO": null, "SUB_AMBIENTE_TECTONICO": null, "NOME_PAI": "NP3co - Grupo Corumbá", "LEGENDA": "Calcário dolomítico e calcítico brancos a cinza claros, estromatolíticos e as vezes com níveis fosforíticos no topo das camadas. Apresenta-se com estrutura maciça e comumente silicificado.", "ESCALA": "1:1.000.000", "MAPA": "Mapa geológico do estado do Mato Grosso do Sul", "LITOTIPOS": "Calcário calcítico, Calcário dolomítico, Dolomito", "RANGE": "NP3", "IDADE_MIN": 541.1, "IDADE_MAX": 635.0, "EON_MIN": "Proterozóico", "EON_MAX": "Proterozóico", "ERA_MIN": "Neoproterozóico", "ERA_MAX": "Neoproterozóico" }, "geometry": { "type": "Polygon", "coordinates": [ [ [ -57.406904012999973, -18.961388112 ], [ -57.409202779999987, -18.93291733 ], [ -57.421552464, -18.929840274000014 ], [ -57.419265655, -18.955787095 ], [ -57.406904012999973, -18.961388112 ] ] ] } },
{ "type": "Feature", "properties": { "ID_UNIDADE_ESTRATIGRAFICA": 877, "SIGLA": "NP3bo", "HIERARQUIA": "Formação", "NOME": "Formação Bocaina", "AMBIENTE_TECTONICO": null, "SUB_AMBIENTE_TECTONICO": null, "NOME_PAI": "NP3co - Grupo Corumbá", "LEGENDA": "Calcário dolomítico e calcítico brancos a cinza claros, estromatolíticos e as vezes com níveis fosforíticos no topo das camadas. Apresenta-se com estrutura maciça e comumente silicificado.", "ESCALA": "1:1.000.000", "MAPA": "Mapa geológico do estado do Mato Grosso do Sul", "LITOTIPOS": "Calcário calcítico, Calcário dolomítico, Dolomito", "RANGE": "NP3", "IDADE_MIN": 541.1, "IDADE_MAX": 635.0, "EON_MIN": "Proterozóico", "EON_MAX": "Proterozóico", "ERA_MIN": "Neoproterozóico", "ERA_MAX": "Neoproterozóico" }, "geometry": { "type": "Polygon", "coordinates": [ [ [ -57.502657178, -18.935894026000028 ], [ -57.511198345000025, -18.941664915999979 ], [ -57.510505776, -18.964056130000017 ], [ -57.487422104000018, -18.985524103999978 ], [ -57.434560295999972, -18.983215837999978 ], [ -57.450949725999976, -18.958977920999985 ], [ -57.494578021, -18.95066753499998 ], [ -57.502657178, -18.935894026000028 ] ] ] } },
{ "type": "Feature", "properties": { "ID_UNIDADE_ESTRATIGRAFICA": 877, "SIGLA": "NP3bo", "HIERARQUIA": "Formação", "NOME": "Formação Bocaina", "AMBIENTE_TECTONICO": null, "SUB_AMBIENTE_TECTONICO": null, "NOME_PAI": "NP3co - Grupo Corumbá", "LEGENDA": "Calcário dolomítico e calcítico brancos a cinza claros, estromatolíticos e as vezes com níveis fosforíticos no topo das camadas. Apresenta-se com estrutura maciça e comumente silicificado.", "ESCALA": "1:1.000.000", "MAPA": "Mapa geológico do estado do Mato Grosso do Sul", "LITOTIPOS": "Calcário calcítico, Calcário dolomítico, Dolomito", "RANGE": "NP3", "IDADE_MIN": 541.1, "IDADE_MAX": 635.0, "EON_MIN": "Proterozóico", "EON_MAX": "Proterozóico", "ERA_MIN": "Neoproterozóico", "ERA_MAX": "Neoproterozóico" }, "geometry": { "type": "Polygon", "coordinates": [ [ [ -57.700680498999986, -19.061811342 ], [ -57.683468412000025, -19.041397029999985 ], [ -57.687471277999975, -19.034859251 ], [ -57.700547170999982, -19.045266454999989 ], [ -57.700680498999986, -19.061811342 ] ] ] } },
{ "type": "Feature", "properties": { "ID_UNIDADE_ESTRATIGRAFICA": 877, "SIGLA": "NP3bo", "HIERARQUIA": "Formação", "NOME": "Formação Bocaina", "AMBIENTE_TECTONICO": null, "SUB_AMBIENTE_TECTONICO": null, "NOME_PAI": "NP3co - Grupo Corumbá", "LEGENDA": "Calcário dolomítico e calcítico brancos a cinza claros, estromatolíticos e as vezes com níveis fosforíticos no topo das camadas. Apresenta-se com estrutura maciça e comumente silicificado.", "ESCALA": "1:1.000.000", "MAPA": "Mapa geológico do estado do Mato Grosso do Sul", "LITOTIPOS": "Calcário calcítico, Calcário dolomítico, Dolomito", "RANGE": "NP3", "IDADE_MIN": 541.1, "IDADE_MAX": 635.0, "EON_MIN": "Proterozóico", "EON_MAX": "Proterozóico", "ERA_MIN": "Neoproterozóico", "ERA_MAX": "Neoproterozóico" }, "geometry": { "type": "Polygon", "coordinates": [ [ [ -57.779883525, -19.088098914999989 ], [ -57.712974304, -19.032753937999985 ], [ -57.785583112999973, -19.034838017000027 ], [ -57.835651062000011, -19.13752112200001 ], [ -57.814822682999989, -19.136963333999972 ], [ -57.78747105399998, -19.109508999000013 ], [ -57.779883525, -19.088098914999989 ] ] ] } },
{ "type": "Feature", "properties": { "ID_UNIDADE_ESTRATIGRAFICA": 877, "SIGLA": "NP3bo", "HIERARQUIA": "Formação", "NOME": "Formação Bocaina", "AMBIENTE_TECTONICO": null, "SUB_AMBIENTE_TECTONICO": null, "NOME_PAI": "NP3co - Grupo Corumbá", "LEGENDA": "Calcário dolomítico e calcítico brancos a cinza claros, estromatolíticos e as vezes com níveis fosforíticos no topo das camadas. Apresenta-se com estrutura maciça e comumente silicificado.", "ESCALA": "1:1.000.000", "MAPA": "Mapa geológico do estado do Mato Grosso do Sul", "LITOTIPOS": "Calcário calcítico, Calcário dolomítico, Dolomito", "RANGE": "NP3", "IDADE_MIN": 541.1, "IDADE_MAX": 635.0, "EON_MIN": "Proterozóico", "EON_MAX": "Proterozóico", "ERA_MIN": "Neoproterozóico", "ERA_MAX": "Neoproterozóico" }, "geometry": { "type": "Polygon", "coordinates": [ [ [ -57.569725431, -19.03690522 ], [ -57.571426624000026, -19.025422000999981 ], [ -57.590225127, -19.036387776000026 ], [ -57.590330180000024, -19.048167044000024 ], [ -57.569725431, -19.03690522 ] ] ] } },
{ "type": "Feature", "properties": { "ID_UNIDADE_ESTRATIGRAFICA": 877, "SIGLA": "NP3bo", "HIERARQUIA": "Formação", "NOME": "Formação Bocaina", "AMBIENTE_TECTONICO": null, "SUB_AMBIENTE_TECTONICO": null, "NOME_PAI": "NP3co - Grupo Corumbá", "LEGENDA": "Calcário dolomítico e calcítico brancos a cinza claros, estromatolíticos e as vezes com níveis fosforíticos no topo das camadas. Apresenta-se com estrutura maciça e comumente silicificado.", "ESCALA": "1:1.000.000", "MAPA": "Mapa geológico do estado do Mato Grosso do Sul", "LITOTIPOS": "Calcário calcítico, Calcário dolomítico, Dolomito", "RANGE": "NP3", "IDADE_MIN": 541.1, "IDADE_MAX": 635.0, "EON_MIN": "Proterozóico", "EON_MAX": "Proterozóico", "ERA_MIN": "Neoproterozóico", "ERA_MAX": "Neoproterozóico" }, "geometry": { "type": "Polygon", "coordinates": [ [ [ -57.720469408999975, -19.083908518999976 ], [ -57.711703048, -19.07797859599998 ], [ -57.711584807, -19.072199211999987 ], [ -57.722498837999979, -19.074520555 ], [ -57.720469408999975, -19.083908518999976 ] ] ] } },
{ "type": "Feature", "properties": { "ID_UNIDADE_ESTRATIGRAFICA": 877, "SIGLA": "NP3bo", "HIERARQUIA": "Formação", "NOME": "Formação Bocaina", "AMBIENTE_TECTONICO": null, "SUB_AMBIENTE_TECTONICO": null, "NOME_PAI": "NP3co - Grupo Corumbá", "LEGENDA": "Calcário dolomítico e calcítico brancos a cinza claros, estromatolíticos e as vezes com níveis fosforíticos no topo das camadas. Apresenta-se com estrutura maciça e comumente silicificado.", "ESCALA": "1:1.000.000", "MAPA": "Mapa geológico do estado do Mato Grosso do Sul", "LITOTIPOS": "Calcário calcítico, Calcário dolomítico, Dolomito", "RANGE": "NP3", "IDADE_MIN": 541.1, "IDADE_MAX": 635.0, "EON_MIN": "Proterozóico", "EON_MAX": "Proterozóico", "ERA_MIN": "Neoproterozóico", "ERA_MAX": "Neoproterozóico" }, "geometry": { "type": "Polygon", "coordinates": [ [ [ -57.601560823999989, -19.047177308000016 ], [ -57.594034426, -19.044838866000021 ], [ -57.596384267000019, -19.041192063999972 ], [ -57.601560823999989, -19.047177308000016 ] ] ] } },
{ "type": "Feature", "properties": { "ID_UNIDADE_ESTRATIGRAFICA": 877, "SIGLA": "NP3bo", "HIERARQUIA": "Formação", "NOME": "Formação Bocaina", "AMBIENTE_TECTONICO": null, "SUB_AMBIENTE_TECTONICO": null, "NOME_PAI": "NP3co - Grupo Corumbá", "LEGENDA": "Calcário dolomítico e calcítico brancos a cinza claros, estromatolíticos e as vezes com níveis fosforíticos no topo das camadas. Apresenta-se com estrutura maciça e comumente silicificado.", "ESCALA": "1:1.000.000", "MAPA": "Mapa geológico do estado do Mato Grosso do Sul", "LITOTIPOS": "Calcário calcítico, Calcário dolomítico, Dolomito", "RANGE": "NP3", "IDADE_MIN": 541.1, "IDADE_MAX": 635.0, "EON_MIN": "Proterozóico", "EON_MAX": "Proterozóico", "ERA_MIN": "Neoproterozóico", "ERA_MAX": "Neoproterozóico" }, "geometry": { "type": "Polygon", "coordinates": [ [ [ -57.459585107, -19.256917424 ], [ -57.456998672, -19.239354748999972 ], [ -57.462453731999972, -19.234664454999972 ], [ -57.465886963, -19.244018109000024 ], [ -57.459585107, -19.256917424 ] ] ] } },
{ "type": "Feature", "properties": { "ID_UNIDADE_ESTRATIGRAFICA": 877, "SIGLA": "NP3bo", "HIERARQUIA": "Formação", "NOME": "Formação Bocaina", "AMBIENTE_TECTONICO": null, "SUB_AMBIENTE_TECTONICO": null, "NOME_PAI": "NP3co - Grupo Corumbá", "LEGENDA": "Calcário dolomítico e calcítico brancos a cinza claros, estromatolíticos e as vezes com níveis fosforíticos no topo das camadas. Apresenta-se com estrutura maciça e comumente silicificado.", "ESCALA": "1:1.000.000", "MAPA": "Mapa geológico do estado do Mato Grosso do Sul", "LITOTIPOS": "Calcário calcítico, Calcário dolomítico, Dolomito", "RANGE": "NP3", "IDADE_MIN": 541.1, "IDADE_MAX": 635.0, "EON_MIN": "Proterozóico", "EON_MAX": "Proterozóico", "ERA_MIN": "Neoproterozóico", "ERA_MAX": "Neoproterozóico" }, "geometry": { "type": "Polygon", "coordinates": [ [ [ -57.426309254999978, -19.235362613 ], [ -57.452924616000018, -19.232402345000025 ], [ -57.44895729000001, -19.25515901 ], [ -57.426309254999978, -19.235362613 ] ] ] } },
{ "type": "Feature", "properties": { "ID_UNIDADE_ESTRATIGRAFICA": 877, "SIGLA": "NP3bo", "HIERARQUIA": "Formação", "NOME": "Formação Bocaina", "AMBIENTE_TECTONICO": null, "SUB_AMBIENTE_TECTONICO": null, "NOME_PAI": "NP3co - Grupo Corumbá", "LEGENDA": "Calcário dolomítico e calcítico brancos a cinza claros, estromatolíticos e as vezes com níveis fosforíticos no topo das camadas. Apresenta-se com estrutura maciça e comumente silicificado.", "ESCALA": "1:1.000.000", "MAPA": "Mapa geológico do estado do Mato Grosso do Sul", "LITOTIPOS": "Calcário calcítico, Calcário dolomítico, Dolomito", "RANGE": "NP3", "IDADE_MIN": 541.1, "IDADE_MAX": 635.0, "EON_MIN": "Proterozóico", "EON_MAX": "Proterozóico", "ERA_MIN": "Neoproterozóico", "ERA_MAX": "Neoproterozóico" }, "geometry": { "type": "Polygon", "coordinates": [ [ [ -57.423189730999979, -19.206327113999976 ], [ -57.444937437000021, -19.203096277999975 ], [ -57.437901325999974, -19.218676351 ], [ -57.422171273, -19.221828061 ], [ -57.423189730999979, -19.206327113999976 ] ] ] } },
{ "type": "Feature", "properties": { "ID_UNIDADE_ESTRATIGRAFICA": 877, "SIGLA": "NP3bo", "HIERARQUIA": "Formação", "NOME": "Formação Bocaina", "AMBIENTE_TECTONICO": null, "SUB_AMBIENTE_TECTONICO": null, "NOME_PAI": "NP3co - Grupo Corumbá", "LEGENDA": "Calcário dolomítico e calcítico brancos a cinza claros, estromatolíticos e as vezes com níveis fosforíticos no topo das camadas. Apresenta-se com estrutura maciça e comumente silicificado.", "ESCALA": "1:1.000.000", "MAPA": "Mapa geológico do estado do Mato Grosso do Sul", "LITOTIPOS": "Calcário calcítico, Calcário dolomítico, Dolomito", "RANGE": "NP3", "IDADE_MIN": 541.1, "IDADE_MAX": 635.0, "EON_MIN": "Proterozóico", "EON_MAX": "Proterozóico", "ERA_MIN": "Neoproterozóico", "ERA_MAX": "Neoproterozóico" }, "geometry": { "type": "Polygon", "coordinates": [ [ [ -57.435324391, -19.200008046999983 ], [ -57.431259388, -19.203207030999977 ], [ -57.431910271, -19.197774434999985 ], [ -57.435324391, -19.200008046999983 ] ] ] } },
{ "type": "Feature", "properties": { "ID_UNIDADE_ESTRATIGRAFICA": 877, "SIGLA": "NP3bo", "HIERARQUIA": "Formação", "NOME": "Formação Bocaina", "AMBIENTE_TECTONICO": null, "SUB_AMBIENTE_TECTONICO": null, "NOME_PAI": "NP3co - Grupo Corumbá", "LEGENDA": "Calcário dolomítico e calcítico brancos a cinza claros, estromatolíticos e as vezes com níveis fosforíticos no topo das camadas. Apresenta-se com estrutura maciça e comumente silicificado.", "ESCALA": "1:1.000.000", "MAPA": "Mapa geológico do estado do Mato Grosso do Sul", "LITOTIPOS": "Calcário calcítico, Calcário dolomítico, Dolomito", "RANGE": "NP3", "IDADE_MIN": 541.1, "IDADE_MAX": 635.0, "EON_MIN": "Proterozóico", "EON_MAX": "Proterozóico", "ERA_MIN": "Neoproterozóico", "ERA_MAX": "Neoproterozóico" }, "geometry": { "type": "Polygon", "coordinates": [ [ [ -57.443440986999974, -19.181935752000015 ], [ -57.456140141, -19.182341995 ], [ -57.455983791, -19.189004384999976 ], [ -57.448369662, -19.188149878 ], [ -57.443440986999974, -19.181935752000015 ] ] ] } },
{ "type": "Feature", "properties": { "ID_UNIDADE_ESTRATIGRAFICA": 877, "SIGLA": "NP3bo", "HIERARQUIA": "Formação", "NOME": "Formação Bocaina", "AMBIENTE_TECTONICO": null, "SUB_AMBIENTE_TECTONICO": null, "NOME_PAI": "NP3co - Grupo Corumbá", "LEGENDA": "Calcário dolomítico e calcítico brancos a cinza claros, estromatolíticos e as vezes com níveis fosforíticos no topo das camadas. Apresenta-se com estrutura maciça e comumente silicificado.", "ESCALA": "1:1.000.000", "MAPA": "Mapa geológico do estado do Mato Grosso do Sul", "LITOTIPOS": "Calcário calcítico, Calcário dolomítico, Dolomito", "RANGE": "NP3", "IDADE_MIN": 541.1, "IDADE_MAX": 635.0, "EON_MIN": "Proterozóico", "EON_MAX": "Proterozóico", "ERA_MIN": "Neoproterozóico", "ERA_MAX": "Neoproterozóico" }, "geometry": { "type": "Polygon", "coordinates": [ [ [ -57.401807811000026, -19.399957867000012 ], [ -57.376866931, -19.322629931 ], [ -57.421358004000012, -19.319989964 ], [ -57.436250535999989, -19.291471237999986 ], [ -57.46232420299998, -19.301259744999982 ], [ -57.498491479999984, -19.289342568 ], [ -57.519918774000018, -19.312911607999979 ], [ -57.528318678, -19.310275664000017 ], [ -57.550718833000019, -19.328202671999975 ], [ -57.555243276999988, -19.345853412999986 ], [ -57.536299375, -19.357722981 ], [ -57.532915764999984, -19.378305155000021 ], [ -57.494360315, -19.384559401999979 ], [ -57.491030237000018, -19.401351835000014 ], [ -57.504210065999985, -19.403255311 ], [ -57.52719371400002, -19.383365371000025 ], [ -57.542437393, -19.407680288999984 ], [ -57.586741604999986, -19.423900292999974 ], [ -57.607260970000027, -19.425433848000011 ], [ -57.613986168999986, -19.412192887 ], [ -57.632369265000023, -19.414905160999979 ], [ -57.676902359, -19.446443164000016 ], [ -57.692420740999978, -19.446179859999972 ], [ -57.692611512999974, -19.46388011 ], [ -57.63896504600001, -19.469113998000012 ], [ -57.572806510000021, -19.445377097 ], [ -57.540766710000014, -19.46121019200001 ], [ -57.524779276, -19.448769535 ], [ -57.489498471, -19.458692265000025 ], [ -57.464636381999981, -19.453622886 ], [ -57.446939820000011, -19.424873376999983 ], [ -57.412595888999988, -19.41186342200001 ], [ -57.434549456000013, -19.402114923999989 ], [ -57.437158689, -19.389686561000019 ], [ -57.413389264999978, -19.386995409 ], [ -57.401807811000026, -19.399957867000012 ] ] ] } },
{ "type": "Feature", "properties": { "ID_UNIDADE_ESTRATIGRAFICA": 877, "SIGLA": "NP3bo", "HIERARQUIA": "Formação", "NOME": "Formação Bocaina", "AMBIENTE_TECTONICO": null, "SUB_AMBIENTE_TECTONICO": null, "NOME_PAI": "NP3co - Grupo Corumbá", "LEGENDA": "Calcário dolomítico e calcítico brancos a cinza claros, estromatolíticos e as vezes com níveis fosforíticos no topo das camadas. Apresenta-se com estrutura maciça e comumente silicificado.", "ESCALA": "1:1.000.000", "MAPA": "Mapa geológico do estado do Mato Grosso do Sul", "LITOTIPOS": "Calcário calcítico, Calcário dolomítico, Dolomito", "RANGE": "NP3", "IDADE_MIN": 541.1, "IDADE_MAX": 635.0, "EON_MIN": "Proterozóico", "EON_MAX": "Proterozóico", "ERA_MIN": "Neoproterozóico", "ERA_MAX": "Neoproterozóico" }, "geometry": { "type": "Polygon", "coordinates": [ [ [ -57.466558298, -19.256095549 ], [ -57.46993833099998, -19.241961971000023 ], [ -57.477655389, -19.235719346999986 ], [ -57.481168750999984, -19.254575294 ], [ -57.466558298, -19.256095549 ] ] ] } },
{ "type": "Feature", "properties": { "ID_UNIDADE_ESTRATIGRAFICA": 877, "SIGLA": "NP3bo", "HIERARQUIA": "Formação", "NOME": "Formação Bocaina", "AMBIENTE_TECTONICO": null, "SUB_AMBIENTE_TECTONICO": null, "NOME_PAI": "NP3co - Grupo Corumbá", "LEGENDA": "Calcário dolomítico e calcítico brancos a cinza claros, estromatolíticos e as vezes com níveis fosforíticos no topo das camadas. Apresenta-se com estrutura maciça e comumente silicificado.", "ESCALA": "1:1.000.000", "MAPA": "Mapa geológico do estado do Mato Grosso do Sul", "LITOTIPOS": "Calcário calcítico, Calcário dolomítico, Dolomito", "RANGE": "NP3", "IDADE_MIN": 541.1, "IDADE_MAX": 635.0, "EON_MIN": "Proterozóico", "EON_MAX": "Proterozóico", "ERA_MIN": "Neoproterozóico", "ERA_MAX": "Neoproterozóico" }, "geometry": { "type": "Polygon", "coordinates": [ [ [ -57.332150217, -19.377442265000013 ], [ -57.340219091999984, -19.357628657000021 ], [ -57.350885242, -19.377730155999984 ], [ -57.341745606000018, -19.383706123000024 ], [ -57.332150217, -19.377442265000013 ] ] ] } },
{ "type": "Feature", "properties": { "ID_UNIDADE_ESTRATIGRAFICA": 877, "SIGLA": "NP3bo", "HIERARQUIA": "Formação", "NOME": "Formação Bocaina", "AMBIENTE_TECTONICO": null, "SUB_AMBIENTE_TECTONICO": null, "NOME_PAI": "NP3co - Grupo Corumbá", "LEGENDA": "Calcário dolomítico e calcítico brancos a cinza claros, estromatolíticos e as vezes com níveis fosforíticos no topo das camadas. Apresenta-se com estrutura maciça e comumente silicificado.", "ESCALA": "1:1.000.000", "MAPA": "Mapa geológico do estado do Mato Grosso do Sul", "LITOTIPOS": "Calcário calcítico, Calcário dolomítico, Dolomito", "RANGE": "NP3", "IDADE_MIN": 541.1, "IDADE_MAX": 635.0, "EON_MIN": "Proterozóico", "EON_MAX": "Proterozóico", "ERA_MIN": "Neoproterozóico", "ERA_MAX": "Neoproterozóico" }, "geometry": { "type": "Polygon", "coordinates": [ [ [ -57.381275593, -19.364362237000023 ], [ -57.375097117999985, -19.356175791999988 ], [ -57.375406132000023, -19.35215985100001 ], [ -57.383592577, -19.355248975999984 ], [ -57.381275593, -19.364362237000023 ] ] ] } },
{ "type": "Feature", "properties": { "ID_UNIDADE_ESTRATIGRAFICA": 877, "SIGLA": "NP3bo", "HIERARQUIA": "Formação", "NOME": "Formação Bocaina", "AMBIENTE_TECTONICO": null, "SUB_AMBIENTE_TECTONICO": null, "NOME_PAI": "NP3co - Grupo Corumbá", "LEGENDA": "Calcário dolomítico e calcítico brancos a cinza claros, estromatolíticos e as vezes com níveis fosforíticos no topo das camadas. Apresenta-se com estrutura maciça e comumente silicificado.", "ESCALA": "1:1.000.000", "MAPA": "Mapa geológico do estado do Mato Grosso do Sul", "LITOTIPOS": "Calcário calcítico, Calcário dolomítico, Dolomito", "RANGE": "NP3", "IDADE_MIN": 541.1, "IDADE_MAX": 635.0, "EON_MIN": "Proterozóico", "EON_MAX": "Proterozóico", "ERA_MIN": "Neoproterozóico", "ERA_MAX": "Neoproterozóico" }, "geometry": { "type": "Polygon", "coordinates": [ [ [ -57.900434406999977, -19.351188107999974 ], [ -57.918737707, -19.34015907700001 ], [ -57.919559021999987, -19.345790938999983 ], [ -57.900434406999977, -19.351188107999974 ] ] ] } },
{ "type": "Feature", "properties": { "ID_UNIDADE_ESTRATIGRAFICA": 877, "SIGLA": "NP3bo", "HIERARQUIA": "Formação", "NOME": "Formação Bocaina", "AMBIENTE_TECTONICO": null, "SUB_AMBIENTE_TECTONICO": null, "NOME_PAI": "NP3co - Grupo Corumbá", "LEGENDA": "Calcário dolomítico e calcítico brancos a cinza claros, estromatolíticos e as vezes com níveis fosforíticos no topo das camadas. Apresenta-se com estrutura maciça e comumente silicificado.", "ESCALA": "1:1.000.000", "MAPA": "Mapa geológico do estado do Mato Grosso do Sul", "LITOTIPOS": "Calcário calcítico, Calcário dolomítico, Dolomito", "RANGE": "NP3", "IDADE_MIN": 541.1, "IDADE_MAX": 635.0, "EON_MIN": "Proterozóico", "EON_MAX": "Proterozóico", "ERA_MIN": "Neoproterozóico", "ERA_MAX": "Neoproterozóico" }, "geometry": { "type": "Polygon", "coordinates": [ [ [ -57.429972150000026, -19.50243801900001 ], [ -57.433611352000014, -19.490021055 ], [ -57.439077811, -19.511141236000014 ], [ -57.429972150000026, -19.50243801900001 ] ] ] } },
{ "type": "Feature", "properties": { "ID_UNIDADE_ESTRATIGRAFICA": 877, "SIGLA": "NP3bo", "HIERARQUIA": "Formação", "NOME": "Formação Bocaina", "AMBIENTE_TECTONICO": null, "SUB_AMBIENTE_TECTONICO": null, "NOME_PAI": "NP3co - Grupo Corumbá", "LEGENDA": "Calcário dolomítico e calcítico brancos a cinza claros, estromatolíticos e as vezes com níveis fosforíticos no topo das camadas. Apresenta-se com estrutura maciça e comumente silicificado.", "ESCALA": "1:1.000.000", "MAPA": "Mapa geológico do estado do Mato Grosso do Sul", "LITOTIPOS": "Calcário calcítico, Calcário dolomítico, Dolomito", "RANGE": "NP3", "IDADE_MIN": 541.1, "IDADE_MAX": 635.0, "EON_MIN": "Proterozóico", "EON_MAX": "Proterozóico", "ERA_MIN": "Neoproterozóico", "ERA_MAX": "Neoproterozóico" }, "geometry": { "type": "Polygon", "coordinates": [ [ [ -57.465620753, -19.488300528000025 ], [ -57.481829358000027, -19.496490661 ], [ -57.473093730000016, -19.513784668000028 ], [ -57.465620753, -19.488300528000025 ] ] ] } },
{ "type": "Feature", "properties": { "ID_UNIDADE_ESTRATIGRAFICA": 877, "SIGLA": "NP3bo", "HIERARQUIA": "Formação", "NOME": "Formação Bocaina", "AMBIENTE_TECTONICO": null, "SUB_AMBIENTE_TECTONICO": null, "NOME_PAI": "NP3co - Grupo Corumbá", "LEGENDA": "Calcário dolomítico e calcítico brancos a cinza claros, estromatolíticos e as vezes com níveis fosforíticos no topo das camadas. Apresenta-se com estrutura maciça e comumente silicificado.", "ESCALA": "1:1.000.000", "MAPA": "Mapa geológico do estado do Mato Grosso do Sul", "LITOTIPOS": "Calcário calcítico, Calcário dolomítico, Dolomito", "RANGE": "NP3", "IDADE_MIN": 541.1, "IDADE_MAX": 635.0, "EON_MIN": "Proterozóico", "EON_MAX": "Proterozóico", "ERA_MIN": "Neoproterozóico", "ERA_MAX": "Neoproterozóico" }, "geometry": { "type": "Polygon", "coordinates": [ [ [ -57.934355330000017, -19.478834668 ], [ -57.92497139, -19.470523389 ], [ -57.93127201599998, -19.464222650000011 ], [ -57.934355330000017, -19.478834668 ] ] ] } },
{ "type": "Feature", "properties": { "ID_UNIDADE_ESTRATIGRAFICA": 877, "SIGLA": "NP3bo", "HIERARQUIA": "Formação", "NOME": "Formação Bocaina", "AMBIENTE_TECTONICO": null, "SUB_AMBIENTE_TECTONICO": null, "NOME_PAI": "NP3co - Grupo Corumbá", "LEGENDA": "Calcário dolomítico e calcítico brancos a cinza claros, estromatolíticos e as vezes com níveis fosforíticos no topo das camadas. Apresenta-se com estrutura maciça e comumente silicificado.", "ESCALA": "1:1.000.000", "MAPA": "Mapa geológico do estado do Mato Grosso do Sul", "LITOTIPOS": "Calcário calcítico, Calcário dolomítico, Dolomito", "RANGE": "NP3", "IDADE_MIN": 541.1, "IDADE_MAX": 635.0, "EON_MIN": "Proterozóico", "EON_MAX": "Proterozóico", "ERA_MIN": "Neoproterozóico", "ERA_MAX": "Neoproterozóico" }, "geometry": { "type": "Polygon", "coordinates": [ [ [ -57.724654441999974, -19.469893516000013 ], [ -57.724654441999974, -19.454667159999985 ], [ -57.730798494, -19.450927375 ], [ -57.737209651, -19.466420835 ], [ -57.724654441999974, -19.469893516000013 ] ] ] } },
{ "type": "Feature", "properties": { "ID_UNIDADE_ESTRATIGRAFICA": 877, "SIGLA": "NP3bo", "HIERARQUIA": "Formação", "NOME": "Formação Bocaina", "AMBIENTE_TECTONICO": null, "SUB_AMBIENTE_TECTONICO": null, "NOME_PAI": "NP3co - Grupo Corumbá", "LEGENDA": "Calcário dolomítico e calcítico brancos a cinza claros, estromatolíticos e as vezes com níveis fosforíticos no topo das camadas. Apresenta-se com estrutura maciça e comumente silicificado.", "ESCALA": "1:1.000.000", "MAPA": "Mapa geológico do estado do Mato Grosso do Sul", "LITOTIPOS": "Calcário calcítico, Calcário dolomítico, Dolomito", "RANGE": "NP3", "IDADE_MIN": 541.1, "IDADE_MAX": 635.0, "EON_MIN": "Proterozóico", "EON_MAX": "Proterozóico", "ERA_MIN": "Neoproterozóico", "ERA_MAX": "Neoproterozóico" }, "geometry": { "type": "Polygon", "coordinates": [ [ [ -57.70283845, -19.455245847000015 ], [ -57.697977165, -19.451052991999973 ], [ -57.702259315999981, -19.450946037999984 ], [ -57.70283845, -19.455245847000015 ] ] ] } },
{ "type": "Feature", "properties": { "ID_UNIDADE_ESTRATIGRAFICA": 877, "SIGLA": "NP3bo", "HIERARQUIA": "Formação", "NOME": "Formação Bocaina", "AMBIENTE_TECTONICO": null, "SUB_AMBIENTE_TECTONICO": null, "NOME_PAI": "NP3co - Grupo Corumbá", "LEGENDA": "Calcário dolomítico e calcítico brancos a cinza claros, estromatolíticos e as vezes com níveis fosforíticos no topo das camadas. Apresenta-se com estrutura maciça e comumente silicificado.", "ESCALA": "1:1.000.000", "MAPA": "Mapa geológico do estado do Mato Grosso do Sul", "LITOTIPOS": "Calcário calcítico, Calcário dolomítico, Dolomito", "RANGE": "NP3", "IDADE_MIN": 541.1, "IDADE_MAX": 635.0, "EON_MIN": "Proterozóico", "EON_MAX": "Proterozóico", "ERA_MIN": "Neoproterozóico", "ERA_MAX": "Neoproterozóico" }, "geometry": { "type": "Polygon", "coordinates": [ [ [ -57.882902466000019, -19.372604673000012 ], [ -57.909110020000014, -19.374856724999972 ], [ -57.887182716999973, -19.404365970000015 ], [ -57.890127785, -19.446859801000016 ], [ -57.874019315999988, -19.449391585 ], [ -57.888100367999982, -19.476109206 ], [ -57.818033402000026, -19.450207423999984 ], [ -57.809485529000028, -19.438290917000018 ], [ -57.814101057000016, -19.415271282999981 ], [ -57.828061633, -19.431352818 ], [ -57.840145442999983, -19.424863094999978 ], [ -57.824190306999981, -19.403280791999975 ], [ -57.835271976, -19.388992761999987 ], [ -57.863786903, -19.385366858999987 ], [ -57.878633837999985, -19.404899953999973 ], [ -57.887743410999974, -19.383058928000025 ], [ -57.882902466000019, -19.372604673000012 ] ] ] } },
{ "type": "Feature", "properties": { "ID_UNIDADE_ESTRATIGRAFICA": 877, "SIGLA": "NP3bo", "HIERARQUIA": "Formação", "NOME": "Formação Bocaina", "AMBIENTE_TECTONICO": null, "SUB_AMBIENTE_TECTONICO": null, "NOME_PAI": "NP3co - Grupo Corumbá", "LEGENDA": "Calcário dolomítico e calcítico brancos a cinza claros, estromatolíticos e as vezes com níveis fosforíticos no topo das camadas. Apresenta-se com estrutura maciça e comumente silicificado.", "ESCALA": "1:1.000.000", "MAPA": "Mapa geológico do estado do Mato Grosso do Sul", "LITOTIPOS": "Calcário calcítico, Calcário dolomítico, Dolomito", "RANGE": "NP3", "IDADE_MIN": 541.1, "IDADE_MAX": 635.0, "EON_MIN": "Proterozóico", "EON_MAX": "Proterozóico", "ERA_MIN": "Neoproterozóico", "ERA_MAX": "Neoproterozóico" }, "geometry": { "type": "Polygon", "coordinates": [ [ [ -57.388998685999979, -19.385059969999986 ], [ -57.374015964000023, -19.386604588000012 ], [ -57.380348889, -19.367760264000026 ], [ -57.388998685999979, -19.385059969999986 ] ] ] } },
{ "type": "Feature", "properties": { "ID_UNIDADE_ESTRATIGRAFICA": 877, "SIGLA": "NP3bo", "HIERARQUIA": "Formação", "NOME": "Formação Bocaina", "AMBIENTE_TECTONICO": null, "SUB_AMBIENTE_TECTONICO": null, "NOME_PAI": "NP3co - Grupo Corumbá", "LEGENDA": "Calcário dolomítico e calcítico brancos a cinza claros, estromatolíticos e as vezes com níveis fosforíticos no topo das camadas. Apresenta-se com estrutura maciça e comumente silicificado.", "ESCALA": "1:1.000.000", "MAPA": "Mapa geológico do estado do Mato Grosso do Sul", "LITOTIPOS": "Calcário calcítico, Calcário dolomítico, Dolomito", "RANGE": "NP3", "IDADE_MIN": 541.1, "IDADE_MAX": 635.0, "EON_MIN": "Proterozóico", "EON_MAX": "Proterozóico", "ERA_MIN": "Neoproterozóico", "ERA_MAX": "Neoproterozóico" }, "geometry": { "type": "Polygon", "coordinates": [ [ [ -57.356870819999983, -19.3958723 ], [ -57.349147727, -19.38892146 ], [ -57.36459369, -19.361427562000017 ], [ -57.371853430999977, -19.390002838999976 ], [ -57.356870819999983, -19.3958723 ] ] ] } },
{ "type": "Feature", "properties": { "ID_UNIDADE_ESTRATIGRAFICA": 877, "SIGLA": "NP3bo", "HIERARQUIA": "Formação", "NOME": "Formação Bocaina", "AMBIENTE_TECTONICO": null, "SUB_AMBIENTE_TECTONICO": null, "NOME_PAI": "NP3co - Grupo Corumbá", "LEGENDA": "Calcário dolomítico e calcítico brancos a cinza claros, estromatolíticos e as vezes com níveis fosforíticos no topo das camadas. Apresenta-se com estrutura maciça e comumente silicificado.", "ESCALA": "1:1.000.000", "MAPA": "Mapa geológico do estado do Mato Grosso do Sul", "LITOTIPOS": "Calcário calcítico, Calcário dolomítico, Dolomito", "RANGE": "NP3", "IDADE_MIN": 541.1, "IDADE_MAX": 635.0, "EON_MIN": "Proterozóico", "EON_MAX": "Proterozóico", "ERA_MIN": "Neoproterozóico", "ERA_MAX": "Neoproterozóico" }, "geometry": { "type": "Polygon", "coordinates": [ [ [ -57.447747054, -19.580266411000025 ], [ -57.446849631000021, -19.560521310000013 ], [ -57.456722069000023, -19.557379992999984 ], [ -57.467492266000022, -19.584305151000024 ], [ -57.447747054, -19.580266411000025 ] ] ] } },
{ "type": "Feature", "properties": { "ID_UNIDADE_ESTRATIGRAFICA": 877, "SIGLA": "NP3bo", "HIERARQUIA": "Formação", "NOME": "Formação Bocaina", "AMBIENTE_TECTONICO": null, "SUB_AMBIENTE_TECTONICO": null, "NOME_PAI": "NP3co - Grupo Corumbá", "LEGENDA": "Calcário dolomítico e calcítico brancos a cinza claros, estromatolíticos e as vezes com níveis fosforíticos no topo das camadas. Apresenta-se com estrutura maciça e comumente silicificado.", "ESCALA": "1:1.000.000", "MAPA": "Mapa geológico do estado do Mato Grosso do Sul", "LITOTIPOS": "Calcário calcítico, Calcário dolomítico, Dolomito", "RANGE": "NP3", "IDADE_MIN": 541.1, "IDADE_MAX": 635.0, "EON_MIN": "Proterozóico", "EON_MAX": "Proterozóico", "ERA_MIN": "Neoproterozóico", "ERA_MAX": "Neoproterozóico" }, "geometry": { "type": "Polygon", "coordinates": [ [ [ -57.669065272000012, -19.735336126 ], [ -57.648457393, -19.727201649 ], [ -57.648457393, -19.72232091799998 ], [ -57.664184428999988, -19.72340542500001 ], [ -57.669065272000012, -19.735336126 ] ] ] } },
{ "type": "Feature", "properties": { "ID_UNIDADE_ESTRATIGRAFICA": 877, "SIGLA": "NP3bo", "HIERARQUIA": "Formação", "NOME": "Formação Bocaina", "AMBIENTE_TECTONICO": null, "SUB_AMBIENTE_TECTONICO": null, "NOME_PAI": "NP3co - Grupo Corumbá", "LEGENDA": "Calcário dolomítico e calcítico brancos a cinza claros, estromatolíticos e as vezes com níveis fosforíticos no topo das camadas. Apresenta-se com estrutura maciça e comumente silicificado.", "ESCALA": "1:1.000.000", "MAPA": "Mapa geológico do estado do Mato Grosso do Sul", "LITOTIPOS": "Calcário calcítico, Calcário dolomítico, Dolomito", "RANGE": "NP3", "IDADE_MIN": 541.1, "IDADE_MAX": 635.0, "EON_MIN": "Proterozóico", "EON_MAX": "Proterozóico", "ERA_MIN": "Neoproterozóico", "ERA_MAX": "Neoproterozóico" }, "geometry": { "type": "Polygon", "coordinates": [ [ [ -57.568250326, -19.682253818 ], [ -57.547933132000026, -19.677511778999985 ], [ -57.540618853000012, -19.659746375 ], [ -57.56410508, -19.666204805 ], [ -57.568250326, -19.682253818 ] ] ] } },
{ "type": "Feature", "properties": { "ID_UNIDADE_ESTRATIGRAFICA": 877, "SIGLA": "NP3bo", "HIERARQUIA": "Formação", "NOME": "Formação Bocaina", "AMBIENTE_TECTONICO": null, "SUB_AMBIENTE_TECTONICO": null, "NOME_PAI": "NP3co - Grupo Corumbá", "LEGENDA": "Calcário dolomítico e calcítico brancos a cinza claros, estromatolíticos e as vezes com níveis fosforíticos no topo das camadas. Apresenta-se com estrutura maciça e comumente silicificado.", "ESCALA": "1:1.000.000", "MAPA": "Mapa geológico do estado do Mato Grosso do Sul", "LITOTIPOS": "Calcário calcítico, Calcário dolomítico, Dolomito", "RANGE": "NP3", "IDADE_MIN": 541.1, "IDADE_MAX": 635.0, "EON_MIN": "Proterozóico", "EON_MAX": "Proterozóico", "ERA_MIN": "Neoproterozóico", "ERA_MAX": "Neoproterozóico" }, "geometry": { "type": "Polygon", "coordinates": [ [ [ -57.661472936, -19.795532330000015 ], [ -57.653880601000026, -19.783601628999975 ], [ -57.660930683, -19.773297801000012 ], [ -57.679369323, -19.793363091 ], [ -57.661472936, -19.795532330000015 ] ] ] } },
{ "type": "Feature", "properties": { "ID_UNIDADE_ESTRATIGRAFICA": 877, "SIGLA": "NP3bo", "HIERARQUIA": "Formação", "NOME": "Formação Bocaina", "AMBIENTE_TECTONICO": null, "SUB_AMBIENTE_TECTONICO": null, "NOME_PAI": "NP3co - Grupo Corumbá", "LEGENDA": "Calcário dolomítico e calcítico brancos a cinza claros, estromatolíticos e as vezes com níveis fosforíticos no topo das camadas. Apresenta-se com estrutura maciça e comumente silicificado.", "ESCALA": "1:1.000.000", "MAPA": "Mapa geológico do estado do Mato Grosso do Sul", "LITOTIPOS": "Calcário calcítico, Calcário dolomítico, Dolomito", "RANGE": "NP3", "IDADE_MIN": 541.1, "IDADE_MAX": 635.0, "EON_MIN": "Proterozóico", "EON_MAX": "Proterozóico", "ERA_MIN": "Neoproterozóico", "ERA_MAX": "Neoproterozóico" }, "geometry": { "type": "Polygon", "coordinates": [ [ [ -57.795574239000018, -19.917421411000021 ], [ -57.779864972999974, -19.902139175 ], [ -57.794617695, -19.88405514599998 ], [ -57.803183897, -19.906422109 ], [ -57.795574239000018, -19.917421411000021 ] ] ] } },
{ "type": "Feature", "properties": { "ID_UNIDADE_ESTRATIGRAFICA": 877, "SIGLA": "NP3bo", "HIERARQUIA": "Formação", "NOME": "Formação Bocaina", "AMBIENTE_TECTONICO": null, "SUB_AMBIENTE_TECTONICO": null, "NOME_PAI": "NP3co - Grupo Corumbá", "LEGENDA": "Calcário dolomítico e calcítico brancos a cinza claros, estromatolíticos e as vezes com níveis fosforíticos no topo das camadas. Apresenta-se com estrutura maciça e comumente silicificado.", "ESCALA": "1:1.000.000", "MAPA": "Mapa geológico do estado do Mato Grosso do Sul", "LITOTIPOS": "Calcário calcítico, Calcário dolomítico, Dolomito", "RANGE": "NP3", "IDADE_MIN": 541.1, "IDADE_MAX": 635.0, "EON_MIN": "Proterozóico", "EON_MAX": "Proterozóico", "ERA_MIN": "Neoproterozóico", "ERA_MAX": "Neoproterozóico" }, "geometry": { "type": "Polygon", "coordinates": [ [ [ -57.773124463999977, -19.927151469000023 ], [ -57.787259829999982, -19.930605934000027 ], [ -57.790055924, -19.941261689999976 ], [ -57.776200959999983, -19.936098544 ], [ -57.773124463999977, -19.927151469000023 ] ], [ [ -57.775697262999984, -19.932762544000013 ], [ -57.786054288, -19.935644468000021 ], [ -57.776815075, -19.930818945999988 ], [ -57.775697262999984, -19.932762544000013 ] ] ] } },
{ "type": "Feature", "properties": { "ID_UNIDADE_ESTRATIGRAFICA": 999, "SIGLA": "NP3t", "HIERARQUIA": "Formação", "NOME": "Formação Tamengo", "AMBIENTE_TECTONICO": null, "SUB_AMBIENTE_TECTONICO": null, "NOME_PAI": "NP3co - Grupo Corumbá", "LEGENDA": "Arenito, brecha intraformacional, calcário calcítico e dolomítico, folhelho carbonoso, siltito, folhelho calcítico, microfosforito. Macrofóssil: Corumbella werneri; Calcário dolomítico e calcítico brancos a cinza claros, estromatolíticos e as vezes com níveis fosforíticos no topo das camadas. Apresenta-se com estrutura maciça e comumente silicificado.", "ESCALA": "1:1.000.000", "MAPA": "Mapa geológico do estado do Mato Grosso do Sul", "LITOTIPOS": "Ardósia, Arenito, Brecha cataclástica, Calcário calcítico, Calcário dolomítico, Dolomito, Folhelho, Pelito", "RANGE": "NP3", "IDADE_MIN": 541.1, "IDADE_MAX": 635.0, "EON_MIN": "Proterozóico", "EON_MAX": "Proterozóico", "ERA_MIN": "Neoproterozóico", "ERA_MAX": "Neoproterozóico" }, "geometry": { "type": "Polygon", "coordinates": [ [ [ -56.594714254999985, -20.863610659000017 ], [ -56.588883797999983, -20.819784328000026 ], [ -56.610318021000012, -20.776491086000021 ], [ -56.621250939, -20.854220683 ], [ -56.606421103, -20.828667812999981 ], [ -56.608165881, -20.787421097999982 ], [ -56.594714254999985, -20.863610659000017 ] ] ] } },
{ "type": "Feature", "properties": { "ID_UNIDADE_ESTRATIGRAFICA": 999, "SIGLA": "NP3t", "HIERARQUIA": "Formação", "NOME": "Formação Tamengo", "AMBIENTE_TECTONICO": null, "SUB_AMBIENTE_TECTONICO": null, "NOME_PAI": "NP3co - Grupo Corumbá", "LEGENDA": "Arenito, brecha intraformacional, calcário calcítico e dolomítico, folhelho carbonoso, siltito, folhelho calcítico, microfosforito. Macrofóssil: Corumbella werneri; Calcário dolomítico e calcítico brancos a cinza claros, estromatolíticos e as vezes com níveis fosforíticos no topo das camadas. Apresenta-se com estrutura maciça e comumente silicificado.", "ESCALA": "1:1.000.000", "MAPA": "Mapa geológico do estado do Mato Grosso do Sul", "LITOTIPOS": "Ardósia, Arenito, Brecha cataclástica, Calcário calcítico, Calcário dolomítico, Dolomito, Folhelho, Pelito", "RANGE": "NP3", "IDADE_MIN": 541.1, "IDADE_MAX": 635.0, "EON_MIN": "Proterozóico", "EON_MAX": "Proterozóico", "ERA_MIN": "Neoproterozóico", "ERA_MAX": "Neoproterozóico" }, "geometry": { "type": "Polygon", "coordinates": [ [ [ -56.493688421, -20.94080403800001 ], [ -56.503862719999972, -20.956493298999987 ], [ -56.507349036, -21.044378196000025 ], [ -56.518871258, -20.921841918999974 ], [ -56.530902877000017, -20.903468323000027 ], [ -56.537956534999978, -20.962337725999987 ], [ -56.528380369, -21.049060554999983 ], [ -56.507339537, -21.115244238 ], [ -56.517102116, -21.181976432 ], [ -56.505617557, -21.185642904000019 ], [ -56.495497014000023, -21.180918523 ], [ -56.495089764999989, -21.159749727000019 ], [ -56.504595187, -21.079532042999972 ], [ -56.491203016999975, -21.032648885000015 ], [ -56.486368665999976, -21.040536487 ], [ -56.481949610000015, -21.030975297 ], [ -56.493688421, -20.94080403800001 ] ], [ [ -56.528940391999981, -20.994780975000026 ], [ -56.529841057, -20.998704714999974 ], [ -56.530162587, -20.992465220999975 ], [ -56.528940391999981, -20.994780975000026 ] ], [ [ -56.527589787000011, -21.016264819000014 ], [ -56.528876131, -21.015557274 ], [ -56.528104325000015, -21.012019437 ], [ -56.527589787000011, -21.016264819000014 ] ], [ [ -56.526882242, -21.038713476999988 ], [ -56.528232958999979, -21.037877298000012 ], [ -56.527525525999977, -21.034982856 ], [ -56.526882242, -21.038713476999988 ] ], [ [ -56.527782683, -21.029901295 ], [ -56.528554713, -21.027328160000025 ], [ -56.527718420999975, -21.025848919999987 ], [ -56.527782683, -21.029901295 ] ] ] } },
{ "type": "Feature", "properties": { "ID_UNIDADE_ESTRATIGRAFICA": 877, "SIGLA": "NP3bo", "HIERARQUIA": "Formação", "NOME": "Formação Bocaina", "AMBIENTE_TECTONICO": null, "SUB_AMBIENTE_TECTONICO": null, "NOME_PAI": "NP3co - Grupo Corumbá", "LEGENDA": "Calcário dolomítico e calcítico brancos a cinza claros, estromatolíticos e as vezes com níveis fosforíticos no topo das camadas. Apresenta-se com estrutura maciça e comumente silicificado.", "ESCALA": "1:1.000.000", "MAPA": "Mapa geológico do estado do Mato Grosso do Sul", "LITOTIPOS": "Calcário calcítico, Calcário dolomítico, Dolomito", "RANGE": "NP3", "IDADE_MIN": 541.1, "IDADE_MAX": 635.0, "EON_MIN": "Proterozóico", "EON_MAX": "Proterozóico", "ERA_MIN": "Neoproterozóico", "ERA_MAX": "Neoproterozóico" }, "geometry": { "type": "Polygon", "coordinates": [ [ [ -57.508627780999973, -19.633731940000018 ], [ -57.502337770999986, -19.610196092000024 ], [ -57.514917454999988, -19.608369953000022 ], [ -57.535004089999973, -19.629471023 ], [ -57.524047703, -19.624195784 ], [ -57.508627780999973, -19.633731940000018 ] ] ] } },
{ "type": "Feature", "properties": { "ID_UNIDADE_ESTRATIGRAFICA": 877, "SIGLA": "NP3bo", "HIERARQUIA": "Formação", "NOME": "Formação Bocaina", "AMBIENTE_TECTONICO": null, "SUB_AMBIENTE_TECTONICO": null, "NOME_PAI": "NP3co - Grupo Corumbá", "LEGENDA": "Calcário dolomítico e calcítico brancos a cinza claros, estromatolíticos e as vezes com níveis fosforíticos no topo das camadas. Apresenta-se com estrutura maciça e comumente silicificado.", "ESCALA": "1:1.000.000", "MAPA": "Mapa geológico do estado do Mato Grosso do Sul", "LITOTIPOS": "Calcário calcítico, Calcário dolomítico, Dolomito", "RANGE": "NP3", "IDADE_MIN": 541.1, "IDADE_MAX": 635.0, "EON_MIN": "Proterozóico", "EON_MAX": "Proterozóico", "ERA_MIN": "Neoproterozóico", "ERA_MAX": "Neoproterozóico" }, "geometry": { "type": "Polygon", "coordinates": [ [ [ -57.412091632999989, -19.453845956 ], [ -57.430322961, -19.450327118000018 ], [ -57.435449896000023, -19.45195019099998 ], [ -57.416331204000016, -19.466544215999988 ], [ -57.412091632999989, -19.453845956 ] ] ] } },
{ "type": "Feature", "properties": { "ID_UNIDADE_ESTRATIGRAFICA": 877, "SIGLA": "NP3bo", "HIERARQUIA": "Formação", "NOME": "Formação Bocaina", "AMBIENTE_TECTONICO": null, "SUB_AMBIENTE_TECTONICO": null, "NOME_PAI": "NP3co - Grupo Corumbá", "LEGENDA": "Calcário dolomítico e calcítico brancos a cinza claros, estromatolíticos e as vezes com níveis fosforíticos no topo das camadas. Apresenta-se com estrutura maciça e comumente silicificado.", "ESCALA": "1:1.000.000", "MAPA": "Mapa geológico do estado do Mato Grosso do Sul", "LITOTIPOS": "Calcário calcítico, Calcário dolomítico, Dolomito", "RANGE": "NP3", "IDADE_MIN": 541.1, "IDADE_MAX": 635.0, "EON_MIN": "Proterozóico", "EON_MAX": "Proterozóico", "ERA_MIN": "Neoproterozóico", "ERA_MAX": "Neoproterozóico" }, "geometry": { "type": "Polygon", "coordinates": [ [ [ -57.706565719000025, -19.453427755 ], [ -57.715212722, -19.451160056999981 ], [ -57.720993557999975, -19.460580654000012 ], [ -57.709753079999984, -19.466575732000024 ], [ -57.706565719000025, -19.453427755 ] ] ] } },
{ "type": "Feature", "properties": { "ID_UNIDADE_ESTRATIGRAFICA": 877, "SIGLA": "NP3bo", "HIERARQUIA": "Formação", "NOME": "Formação Bocaina", "AMBIENTE_TECTONICO": null, "SUB_AMBIENTE_TECTONICO": null, "NOME_PAI": "NP3co - Grupo Corumbá", "LEGENDA": "Calcário dolomítico e calcítico brancos a cinza claros, estromatolíticos e as vezes com níveis fosforíticos no topo das camadas. Apresenta-se com estrutura maciça e comumente silicificado.", "ESCALA": "1:1.000.000", "MAPA": "Mapa geológico do estado do Mato Grosso do Sul", "LITOTIPOS": "Calcário calcítico, Calcário dolomítico, Dolomito", "RANGE": "NP3", "IDADE_MIN": 541.1, "IDADE_MAX": 635.0, "EON_MIN": "Proterozóico", "EON_MAX": "Proterozóico", "ERA_MIN": "Neoproterozóico", "ERA_MAX": "Neoproterozóico" }, "geometry": { "type": "Polygon", "coordinates": [ [ [ -57.747619873000019, -19.453430772 ], [ -57.760694536000017, -19.450767448000022 ], [ -57.75896898000002, -19.461209855999982 ], [ -57.747619873000019, -19.453430772 ] ] ] } },
{ "type": "Feature", "properties": { "ID_UNIDADE_ESTRATIGRAFICA": 877, "SIGLA": "NP3bo", "HIERARQUIA": "Formação", "NOME": "Formação Bocaina", "AMBIENTE_TECTONICO": null, "SUB_AMBIENTE_TECTONICO": null, "NOME_PAI": "NP3co - Grupo Corumbá", "LEGENDA": "Calcário dolomítico e calcítico brancos a cinza claros, estromatolíticos e as vezes com níveis fosforíticos no topo das camadas. Apresenta-se com estrutura maciça e comumente silicificado.", "ESCALA": "1:1.000.000", "MAPA": "Mapa geológico do estado do Mato Grosso do Sul", "LITOTIPOS": "Calcário calcítico, Calcário dolomítico, Dolomito", "RANGE": "NP3", "IDADE_MIN": 541.1, "IDADE_MAX": 635.0, "EON_MIN": "Proterozóico", "EON_MAX": "Proterozóico", "ERA_MIN": "Neoproterozóico", "ERA_MAX": "Neoproterozóico" }, "geometry": { "type": "Polygon", "coordinates": [ [ [ -57.763632899000015, -19.462743075 ], [ -57.774253338999983, -19.448104235000017 ], [ -57.795802786000024, -19.454156309999973 ], [ -57.775605956, -19.467943436999974 ], [ -57.763632899000015, -19.462743075 ] ] ] } },
{ "type": "Feature", "properties": { "ID_UNIDADE_ESTRATIGRAFICA": 999, "SIGLA": "NP3t", "HIERARQUIA": "Formação", "NOME": "Formação Tamengo", "AMBIENTE_TECTONICO": null, "SUB_AMBIENTE_TECTONICO": null, "NOME_PAI": "NP3co - Grupo Corumbá", "LEGENDA": "Arenito, brecha intraformacional, calcário calcítico e dolomítico, folhelho carbonoso, siltito, folhelho calcítico, microfosforito. Macrofóssil: Corumbella werneri; Calcário dolomítico e calcítico brancos a cinza claros, estromatolíticos e as vezes com níveis fosforíticos no topo das camadas. Apresenta-se com estrutura maciça e comumente silicificado.", "ESCALA": "1:1.000.000", "MAPA": "Mapa geológico do estado do Mato Grosso do Sul", "LITOTIPOS": "Ardósia, Arenito, Brecha cataclástica, Calcário calcítico, Calcário dolomítico, Dolomito, Folhelho, Pelito", "RANGE": "NP3", "IDADE_MIN": 541.1, "IDADE_MAX": 635.0, "EON_MIN": "Proterozóico", "EON_MAX": "Proterozóico", "ERA_MIN": "Neoproterozóico", "ERA_MAX": "Neoproterozóico" }, "geometry": { "type": "Polygon", "coordinates": [ [ [ -56.527060721, -21.223201464999988 ], [ -56.497836908000011, -21.209342365999987 ], [ -56.488246436999987, -21.199305977999984 ], [ -56.520549093, -21.190815214 ], [ -56.527060721, -21.223201464999988 ] ] ] } },
{ "type": "Feature", "properties": { "ID_UNIDADE_ESTRATIGRAFICA": 877, "SIGLA": "NP3bo", "HIERARQUIA": "Formação", "NOME": "Formação Bocaina", "AMBIENTE_TECTONICO": null, "SUB_AMBIENTE_TECTONICO": null, "NOME_PAI": "NP3co - Grupo Corumbá", "LEGENDA": "Calcário dolomítico e calcítico brancos a cinza claros, estromatolíticos e as vezes com níveis fosforíticos no topo das camadas. Apresenta-se com estrutura maciça e comumente silicificado.", "ESCALA": "1:1.000.000", "MAPA": "Mapa geológico do estado do Mato Grosso do Sul", "LITOTIPOS": "Calcário calcítico, Calcário dolomítico, Dolomito", "RANGE": "NP3", "IDADE_MIN": 541.1, "IDADE_MAX": 635.0, "EON_MIN": "Proterozóico", "EON_MAX": "Proterozóico", "ERA_MIN": "Neoproterozóico", "ERA_MAX": "Neoproterozóico" }, "geometry": { "type": "Polygon", "coordinates": [ [ [ -57.682184974, -19.132492422999974 ], [ -57.626428389000012, -19.068305087999988 ], [ -57.662296821999973, -19.019007156999976 ], [ -57.685925876999988, -19.024786876 ], [ -57.666052254000022, -19.050009276000026 ], [ -57.670801668000024, -19.079088808 ], [ -57.683043282000028, -19.089409064 ], [ -57.672877476999986, -19.091104334000022 ], [ -57.682184974, -19.132492422999974 ] ] ] } },
{ "type": "Feature", "properties": { "ID_UNIDADE_ESTRATIGRAFICA": 877, "SIGLA": "NP3bo", "HIERARQUIA": "Formação", "NOME": "Formação Bocaina", "AMBIENTE_TECTONICO": null, "SUB_AMBIENTE_TECTONICO": null, "NOME_PAI": "NP3co - Grupo Corumbá", "LEGENDA": "Calcário dolomítico e calcítico brancos a cinza claros, estromatolíticos e as vezes com níveis fosforíticos no topo das camadas. Apresenta-se com estrutura maciça e comumente silicificado.", "ESCALA": "1:1.000.000", "MAPA": "Mapa geológico do estado do Mato Grosso do Sul", "LITOTIPOS": "Calcário calcítico, Calcário dolomítico, Dolomito", "RANGE": "NP3", "IDADE_MIN": 541.1, "IDADE_MAX": 635.0, "EON_MIN": "Proterozóico", "EON_MAX": "Proterozóico", "ERA_MIN": "Neoproterozóico", "ERA_MAX": "Neoproterozóico" }, "geometry": { "type": "Polygon", "coordinates": [ [ [ -57.626258404, -19.041786286 ], [ -57.618579679999982, -19.025694468999973 ], [ -57.623947008000016, -19.017565467999987 ], [ -57.640707813, -19.028696758000024 ], [ -57.626258404, -19.041786286 ] ] ] } },
{ "type": "Feature", "properties": { "ID_UNIDADE_ESTRATIGRAFICA": 877, "SIGLA": "NP3bo", "HIERARQUIA": "Formação", "NOME": "Formação Bocaina", "AMBIENTE_TECTONICO": null, "SUB_AMBIENTE_TECTONICO": null, "NOME_PAI": "NP3co - Grupo Corumbá", "LEGENDA": "Calcário dolomítico e calcítico brancos a cinza claros, estromatolíticos e as vezes com níveis fosforíticos no topo das camadas. Apresenta-se com estrutura maciça e comumente silicificado.", "ESCALA": "1:1.000.000", "MAPA": "Mapa geológico do estado do Mato Grosso do Sul", "LITOTIPOS": "Calcário calcítico, Calcário dolomítico, Dolomito", "RANGE": "NP3", "IDADE_MIN": 541.1, "IDADE_MAX": 635.0, "EON_MIN": "Proterozóico", "EON_MAX": "Proterozóico", "ERA_MIN": "Neoproterozóico", "ERA_MAX": "Neoproterozóico" }, "geometry": { "type": "Polygon", "coordinates": [ [ [ -57.930208854999989, -22.050514538000016 ], [ -57.920378996000011, -22.013437209000017 ], [ -57.922969341999988, -22.003250729 ], [ -57.952293403, -22.029967121000027 ], [ -57.938191564000022, -22.052189914 ], [ -57.930208854999989, -22.050514538000016 ] ] ] } }
]
}
