{"type":"FeatureCollection","name":"geocronologia_geosgb_ms","features":[{"type":"Feature","id":312593,"geometry":{"type":"Point","coordinates":[-52.03899999999999,-22.302999999999997]},"properties":{"ID":341,"AMOSTRA":"2CB-234","TOPONIMIA":null,"ROCHA":"Basalto","METODO_GEOPOSICIONAMENTO":"GPS Manual pré 25/05/2000","ERRO_LOCACIONAL":null,"METODOS":null,"MATERIAIS_ANALISADOS":null,"OBJECTID":312593,"NIVEL_ACESSO":"Acesso livre","X":-52.039,"Y":-22.303,"DATUM":"WGS84"}},{"type":"Feature","id":312609,"geometry":{"type":"Point","coordinates":[-51.50999999999999,-17.781000000000006]},"properties":{"ID":342,"AMOSTRA":"9250-B20","TOPONIMIA":null,"ROCHA":"Basalto","METODO_GEOPOSICIONAMENTO":"Levantamento em mapa 1:2.500.000","ERRO_LOCACIONAL":null,"METODOS":null,"MATERIAIS_ANALISADOS":null,"OBJECTID":312609,"NIVEL_ACESSO":"Acesso livre","X":-51.51,"Y":-17.781000000000002,"DATUM":"WGS84"}},{"type":"Feature","id":312625,"geometry":{"type":"Point","coordinates":[-51.50999999999999,-17.781000000000006]},"properties":{"ID":343,"AMOSTRA":"9250-B20 sh","TOPONIMIA":null,"ROCHA":"Basalto","METODO_GEOPOSICIONAMENTO":"Levantamento em mapa 1:2.500.000","ERRO_LOCACIONAL":null,"METODOS":null,"MATERIAIS_ANALISADOS":null,"OBJECTID":312625,"NIVEL_ACESSO":"Acesso livre","X":-51.51,"Y":-17.781000000000002,"DATUM":"WGS84"}},{"type":"Feature","id":312769,"geometry":{"type":"Point","coordinates":[-52.95999999999998,-23.404999999999973]},"properties":{"ID":354,"AMOSTRA":"MR-8950+","TOPONIMIA":null,"ROCHA":"Glimmerito","METODO_GEOPOSICIONAMENTO":"Levantamento em mapa 1:2.500.000","ERRO_LOCACIONAL":null,"METODOS":null,"MATERIAIS_ANALISADOS":null,"OBJECTID":312769,"NIVEL_ACESSO":"Acesso livre","X":-52.96,"Y":-23.405,"DATUM":"WGS84"}},{"type":"Feature","id":318705,"geometry":{"type":"Point","coordinates":[-52.03899999999999,-22.302999999999997]},"properties":{"ID":345,"AMOSTRA":"2CB-1902","TOPONIMIA":null,"ROCHA":"Basalto","METODO_GEOPOSICIONAMENTO":"GPS Manual pré 25/05/2000","ERRO_LOCACIONAL":null,"METODOS":null,"MATERIAIS_ANALISADOS":null,"OBJECTID":318705,"NIVEL_ACESSO":"Acesso livre","X":-52.039,"Y":-22.303,"DATUM":"WGS84"}},{"type":"Feature","id":343297,"geometry":{"type":"Point","coordinates":[-57.90198333000001,-21.45366667000002]},"properties":{"ID":2821,"AMOSTRA":"RP89-WR","TOPONIMIA":null,"ROCHA":"Nefelina sienito","METODO_GEOPOSICIONAMENTO":"Levantamento em mapa 1:2.500.000","ERRO_LOCACIONAL":null,"METODOS":"Rb-Sr - Isocrônico","MATERIAIS_ANALISADOS":null,"OBJECTID":343297,"NIVEL_ACESSO":"Acesso livre","X":-57.90198333,"Y":-21.45366667,"DATUM":"WGS84"}},{"type":"Feature","id":343313,"geometry":{"type":"Point","coordinates":[-57.901983332999976,-21.453666666999993]},"properties":{"ID":2822,"AMOSTRA":"RP-89Bi","TOPONIMIA":null,"ROCHA":"Nefelina sienito","METODO_GEOPOSICIONAMENTO":"Levantamento em mapa 1:2.500.000","ERRO_LOCACIONAL":null,"METODOS":"Rb-Sr - Isocrônico","MATERIAIS_ANALISADOS":null,"OBJECTID":343313,"NIVEL_ACESSO":"Acesso livre","X":-57.90198333,"Y":-21.45366667,"DATUM":"WGS84"}},{"type":"Feature","id":343329,"geometry":{"type":"Point","coordinates":[-57.901983332999976,-21.453666666999993]},"properties":{"ID":2823,"AMOSTRA":"RP-89 AF","TOPONIMIA":null,"ROCHA":"Nefelina sienito","METODO_GEOPOSICIONAMENTO":"Levantamento em mapa 1:2.500.000","ERRO_LOCACIONAL":null,"METODOS":"Rb-Sr - Isocrônico","MATERIAIS_ANALISADOS":null,"OBJECTID":343329,"NIVEL_ACESSO":"Acesso livre","X":-57.90198333,"Y":-21.45366667,"DATUM":"WGS84"}},{"type":"Feature","id":343345,"geometry":{"type":"Point","coordinates":[-57.91309444400002,-21.523000000000025]},"properties":{"ID":2824,"AMOSTRA":"RP-95-WR","TOPONIMIA":null,"ROCHA":"Nefelina sienito","METODO_GEOPOSICIONAMENTO":"Levantamento em mapa 1:2.500.000","ERRO_LOCACIONAL":null,"METODOS":"Rb-Sr - Isocrônico","MATERIAIS_ANALISADOS":null,"OBJECTID":343345,"NIVEL_ACESSO":"Acesso livre","X":-57.91309444,"Y":-21.523,"DATUM":"WGS84"}},{"type":"Feature","id":345681,"geometry":{"type":"Point","coordinates":[-52.46142222200001,-18.84916388900001]},"properties":{"ID":3008,"AMOSTRA":"PG-24","TOPONIMIA":"Ponta Grossa","ROCHA":"Siltito argiloso","METODO_GEOPOSICIONAMENTO":"Levantamento em carta 1:25.000","ERRO_LOCACIONAL":null,"METODOS":"Rb-Sr - Isocrônico","MATERIAIS_ANALISADOS":null,"OBJECTID":345681,"NIVEL_ACESSO":"Acesso livre","X":-52.46142222,"Y":-18.84916389,"DATUM":"WGS84"}},{"type":"Feature","id":345761,"geometry":{"type":"Point","coordinates":[-51.60687777800001,-22.019291667000005]},"properties":{"ID":3013,"AMOSTRA":"SP0","TOPONIMIA":"Bauru","ROCHA":"Siltito","METODO_GEOPOSICIONAMENTO":"Levantamento em carta 1:25.000","ERRO_LOCACIONAL":null,"METODOS":"Rb-Sr - Isocrônico","MATERIAIS_ANALISADOS":null,"OBJECTID":345761,"NIVEL_ACESSO":"Acesso livre","X":-51.60687778,"Y":-22.01929167,"DATUM":"WGS84"}},{"type":"Feature","id":345777,"geometry":{"type":"Point","coordinates":[-51.60687777800001,-22.019291667000005]},"properties":{"ID":3014,"AMOSTRA":"SP4","TOPONIMIA":"Bauru","ROCHA":"Siltito","METODO_GEOPOSICIONAMENTO":"Levantamento em carta 1:25.000","ERRO_LOCACIONAL":null,"METODOS":"Rb-Sr - Isocrônico","MATERIAIS_ANALISADOS":null,"OBJECTID":345777,"NIVEL_ACESSO":"Acesso livre","X":-51.60687778,"Y":-22.01929167,"DATUM":"WGS84"}},{"type":"Feature","id":345793,"geometry":{"type":"Point","coordinates":[-51.60687777800001,-22.019291667000005]},"properties":{"ID":3015,"AMOSTRA":"SP5","TOPONIMIA":"Bauru","ROCHA":"Siltito","METODO_GEOPOSICIONAMENTO":"Levantamento em carta 1:25.000","ERRO_LOCACIONAL":null,"METODOS":"Rb-Sr - Isocrônico","MATERIAIS_ANALISADOS":null,"OBJECTID":345793,"NIVEL_ACESSO":"Acesso livre","X":-51.60687778,"Y":-22.01929167,"DATUM":"WGS84"}}]}