{"type":"FeatureCollection","features":[{"type":"Feature","id":62844,"geometry":{"type":"Polygon","coordinates":[[[-57.5,-19.75],[-57.5,-21],[-57.75,-21],[-57.75,-21.75],[-57.75,-22.11700000000002],[-57.69999999999999,-22.05000000000001],[-57.61700000000002,-22.067000000000007],[-57.55000000000001,-22.149999999999977],[-57.31700000000001,-22.19999999999999],[-56.93299999999999,-22.216999999999985],[-56.83300000000003,-22.283000000000015],[-56.75,-22.220000000000027],[-56.75,-22],[-56.5,-22],[-56.5,-21.25],[-56.25,-21.25],[-56.25,-21],[-55.89999999999998,-21],[-55.89999999999998,-19.75],[-57.5,-19.75]]]},"properties":{"ID_PROJETO":"1090","ID_SERIE":1000,"SHAPE.AREA":3.4955135,"SHAPE.LEN":8.658689824757198,"OBJECTID":62844,"TITULO":"Bonito - Porto Murtinho","METODOS":"Magnetometria, Gamaespectrometria","ALTURA_VOO_M":"100","AREA_LEVANTADA_KM2":"40700","QUILOMETRAGEM_VOADA_KM":"85472","DIRECAO_LV":"N-S","DIRECAO_LC":"E-W","ESPACAMENTO_LV_M":"500","ESPACAMENTO_LC_KM":"10","SERIE":"Projetos conduzidos pelo Departamento Nacional de Produção Mineral (DNPM) e CPRM - Serviço Geológico do Brasil","DISPONIBILIZACAO":null,"IMAGENS":"https://geosgb.sgb.gov.br/downloads/index.php?dir=1090-Projeto_Aerogeofisico_Bonito_Porto_Murtinho&widget=1&openAll=1","INTERVALO":"0,1 s (mag) 1 s (gama)","CONTRATANTE":"Companhia de Pesquisa de Recursos Minerais - CPRM","CONTRATADA":"Microsurvey  Aerogeofísica e consultoria Cientifica LTDA.","ANO_PROJETO":"2008","DECADA":"2000","ANO_CONCLUSAO":"2009","LOCALIZACAO":" ","SITUACAO":"Disponível","__atlas_serie_layer":0,"__atlas_fonte_servico":"https://geoportal.sgb.gov.br/server/rest/services/geofisica/aerogeofisica/MapServer/0","__atlas_modulos":"AM;GA","__atlas_espacamento_lv_m":500.0,"__atlas_snapshot":"2026-08-14"}},{"type":"Feature","id":62868,"geometry":{"type":"Polygon","coordinates":[[[-55.5,-15],[-55.5,-18],[-53.99996149499998,-18],[-53.99996149499998,-15],[-55.5,-15]]]},"properties":{"ID_PROJETO":"1111","ID_SERIE":1000,"SHAPE.AREA":4.500115515,"SHAPE.LEN":9.00007701,"OBJECTID":62868,"TITULO":"Rondonopolis Dom. Aquino","METODOS":"Magnetometria, Gamaespectrometria","ALTURA_VOO_M":"100","AREA_LEVANTADA_KM2":"54000","QUILOMETRAGEM_VOADA_KM":"115615","DIRECAO_LV":"N-S","DIRECAO_LC":"E-W","ESPACAMENTO_LV_M":"500","ESPACAMENTO_LC_KM":"10","SERIE":"Projetos conduzidos pelo Departamento Nacional de Produção Mineral (DNPM) e CPRM - Serviço Geológico do Brasil","DISPONIBILIZACAO":null,"IMAGENS":"https://geosgb.sgb.gov.br/downloads/index.php?dir=1111-Projeto_Aerogeofisico_Rondonopolis_Dom_Aquino&widget=1&openAll=1","INTERVALO":"0,1 s (mag) 1 s (gama)","CONTRATANTE":"Companhia de Pesquisa de Recursos Minerais - CPRM","CONTRATADA":"Prospectors Aerolevantamentos e Sistemas Ltda.","ANO_PROJETO":"2011","DECADA":"2010","ANO_CONCLUSAO":"2012","LOCALIZACAO":" ","SITUACAO":"Disponível","__atlas_serie_layer":0,"__atlas_fonte_servico":"https://geoportal.sgb.gov.br/server/rest/services/geofisica/aerogeofisica/MapServer/0","__atlas_modulos":"AM;GA","__atlas_espacamento_lv_m":500.0,"__atlas_snapshot":"2026-08-14"}},{"type":"Feature","id":62892,"geometry":{"type":"Polygon","coordinates":[[[-52.75047378900001,-16.50044363500001],[-53.75048090199999,-16.500441351999996],[-53.750484126,-17.750446979999992],[-50.75046221000002,-17.750454219000005],[-50.75046033299998,-17.000450571999977],[-52.75047502799998,-17.000445978000016],[-52.75047378900001,-16.50044363500001]]]},"properties":{"ID_PROJETO":"2009","ID_SERIE":2000,"SHAPE.AREA":2.75003273973375,"SHAPE.LEN":8.500055342024659,"OBJECTID":62892,"TITULO":"Alto Garças","METODOS":"Magnetometria, Gamaespectrometria","ALTURA_VOO_M":"120","AREA_LEVANTADA_KM2":"30000","QUILOMETRAGEM_VOADA_KM":"34000","DIRECAO_LV":"N-S","DIRECAO_LC":"E-W","ESPACAMENTO_LV_M":"1000","ESPACAMENTO_LC_KM":"20","SERIE":"Projetos conduzidos pela Comissão Nacional de Energia Nuclear (CNEN) e pela Empresas Nucleares Brasileiras S.A. (NUCLEBRÁS)","DISPONIBILIZACAO":null,"IMAGENS":null,"INTERVALO":"1 s","CONTRATANTE":"Comissão Nacional de Energia Nuclear - CNEN","CONTRATADA":"PROSPEC S.A - Geologia, Prospecções e Aerofotogrametria","ANO_PROJETO":"1971","DECADA":"1970","ANO_CONCLUSAO":"1971","LOCALIZACAO":" ","SITUACAO":" ","__atlas_serie_layer":1,"__atlas_fonte_servico":"https://geoportal.sgb.gov.br/server/rest/services/geofisica/aerogeofisica/MapServer/1","__atlas_modulos":"AM;GA","__atlas_espacamento_lv_m":1000.0,"__atlas_snapshot":"2026-08-14"}},{"type":"Feature","id":62896,"geometry":{"type":"Polygon","coordinates":[[[-57.250514839000004,-20.000446640000007],[-57.25051818999998,-21.000450204999993],[-57.50051985699997,-21.00044944299998],[-57.500522511999975,-21.750452000999985],[-57.75052417799998,-21.750451209999994],[-57.750525091999975,-22.000452037000002],[-56.50051664799997,-22.000456007000025],[-56.50051398900001,-21.25045337199998],[-56.25051227900002,-21.250454133000005],[-56.25051142199999,-21.000453229000016],[-56.00050970500001,-21.000453977999996],[-56.000506409000025,-20.000450242],[-57.250514839000004,-20.000446640000007]]]},"properties":{"ID_PROJETO":"2014","ID_SERIE":2000,"SHAPE.AREA":2.3750245110817896,"SHAPE.LEN":7.50003785903979,"OBJECTID":62896,"TITULO":"Bodoquena","METODOS":"Magnetometria, Gamaespectrometria","ALTURA_VOO_M":"150","AREA_LEVANTADA_KM2":"24000","QUILOMETRAGEM_VOADA_KM":"14590","DIRECAO_LV":"E-W","DIRECAO_LC":"N-S","ESPACAMENTO_LV_M":"2000","ESPACAMENTO_LC_KM":"20","SERIE":"Projetos conduzidos pela Comissão Nacional de Energia Nuclear (CNEN) e pela Empresas Nucleares Brasileiras S.A. (NUCLEBRÁS)","DISPONIBILIZACAO":null,"IMAGENS":null,"INTERVALO":"1 s","CONTRATANTE":"Comissão Nacional de Energia Nuclear - CNEN / DNPM","CONTRATADA":"Companhia de Pesquisa de Recursos Minerais - CPRM","ANO_PROJETO":"1974","DECADA":"1970","ANO_CONCLUSAO":"1975","LOCALIZACAO":" ","SITUACAO":" ","__atlas_serie_layer":1,"__atlas_fonte_servico":"https://geoportal.sgb.gov.br/server/rest/services/geofisica/aerogeofisica/MapServer/1","__atlas_modulos":"AM;GA","__atlas_espacamento_lv_m":2000.0,"__atlas_snapshot":"2026-08-14"}},{"type":"Feature","id":62902,"geometry":{"type":"Polygon","coordinates":[[[-54.000479128999984,-15.000433794000003],[-55.500489390999974,-15.00043060500002],[-55.50049561700001,-17.500441556],[-55.250493909,-17.500442179000004],[-55.25049816500001,-19.000448398999993],[-55.500499889000025,-19.000447724000026],[-55.500502970000014,-20.000451666000004],[-54.00049242199998,-20.000455879000015],[-54.00048589300002,-17.75044636199999],[-53.750484126,-17.750446979999992],[-53.750481525,-16.750442494000026],[-54.000483282999994,-16.750441910000006],[-54.000479128999984,-15.000433794000003]]]},"properties":{"ID_PROJETO":"2025","ID_SERIE":2000,"SHAPE.AREA":7.37508313314556,"SHAPE.LEN":14.000070999048798,"OBJECTID":62902,"TITULO":"Rondonópolis","METODOS":"Magnetometria, Gamaespectrometria","ALTURA_VOO_M":"150","AREA_LEVANTADA_KM2":"85000","QUILOMETRAGEM_VOADA_KM":"91380","DIRECAO_LV":"E-W","DIRECAO_LC":"N-S","ESPACAMENTO_LV_M":"1000","ESPACAMENTO_LC_KM":"20","SERIE":"Projetos conduzidos pela Comissão Nacional de Energia Nuclear (CNEN) e pela Empresas Nucleares Brasileiras S.A. (NUCLEBRÁS)","DISPONIBILIZACAO":null,"IMAGENS":null,"INTERVALO":"1 s","CONTRATANTE":"Empresas Nucleares Brasileiras S.A - NUCLEBRÁS","CONTRATADA":"LASA Engenharia e Prospecções S.A.","ANO_PROJETO":"1976","DECADA":"1970","ANO_CONCLUSAO":"1977","LOCALIZACAO":" ","SITUACAO":" ","__atlas_serie_layer":1,"__atlas_fonte_servico":"https://geoportal.sgb.gov.br/server/rest/services/geofisica/aerogeofisica/MapServer/1","__atlas_modulos":"AM;GA","__atlas_espacamento_lv_m":1000.0,"__atlas_snapshot":"2026-08-14"}},{"type":"Feature","id":63016,"geometry":{"type":"Polygon","coordinates":[[[-49.003333333,-18.367777778000004],[-49.01555555599998,-18.364166667000006],[-49.041666667000015,-18.375555555999995],[-49.05250000000001,-18.399166666999974],[-49.09361111099997,-18.401666666999972],[-49.09666666700002,-18.38388888899999],[-49.09555555600002,-18.38388888899999],[-49.120555556,-18.376388888999998],[-49.20805555599998,-18.413055556000018],[-49.21472222199998,-18.44638888899999],[-49.29111111100002,-18.530277778000027],[-49.32736357900001,-18.59116422400001],[-49.36468644500002,-18.616894607000006],[-49.36493970499998,-18.617360029999986],[-49.370527869,-18.627629560999992],[-49.37284983400002,-18.63189653699999],[-49.378284259,-18.64188100299998],[-49.394256153000015,-18.645811032999973],[-49.40815003300003,-18.64434503199999],[-49.416259975,-18.63808560000001],[-49.431932926,-18.606279278999978],[-49.481357672,-18.56056663999999],[-49.485253159000024,-18.544044222000025],[-49.48585919200002,-18.53176529900003],[-49.48585183,-18.527570955999977],[-49.48584772700002,-18.525233319999984],[-49.485817779,-18.507797383000025],[-49.490380260999984,-18.49933044300002],[-49.492383727,-18.49611197600001],[-49.494065723999995,-18.495617477999986],[-49.49715868200002,-18.49319499799998],[-49.53536992099998,-18.493182597999976],[-49.547352776000025,-18.50293456600002],[-49.546151287999976,-18.508251019],[-49.543023296,-18.522086444000024],[-49.54192125600002,-18.526959449000003],[-49.542255650000016,-18.527570955999977],[-49.54304524899999,-18.529014894],[-49.54724071999999,-18.53668737800001],[-49.54798671200001,-18.538052400000026],[-49.54958468900003,-18.540975891000016],[-49.55756359700001,-18.54589484500002],[-49.574712465999994,-18.541879901000016],[-49.57478298299998,-18.541863447000026],[-49.581365941,-18.543137437999974],[-49.587949356000024,-18.54441096300002],[-49.62777354999997,-18.552118484000005],[-49.64752438199997,-18.558405514000015],[-49.65052531700002,-18.56395347199998],[-49.65200279300001,-18.571366966000028],[-49.640102884999976,-18.58414538300002],[-49.63506491099997,-18.589555847999975],[-49.639647835999995,-18.59975878099999],[-49.64738778399999,-18.601350276000005],[-49.661730180000006,-18.593817879000028],[-49.669260114999986,-18.589863400000013],[-49.68644800599998,-18.58974195000002],[-49.693063451,-18.591138940999997],[-49.70520436200002,-18.594607944000018],[-49.72362516800001,-18.60895040600002],[-49.73091760400001,-18.612870941999972],[-49.735664063,-18.615422414000022],[-49.74117251199999,-18.615205445000015],[-49.74999393000002,-18.611545491000015],[-49.75676742500002,-18.608735497999987],[-49.75884276800002,-18.609309569999994],[-49.762770359,-18.610396003999995],[-49.769807790000016,-18.61234251899998],[-49.77238528100003,-18.614981992000025],[-49.777056691999974,-18.63046042000002],[-49.78321714200001,-18.64088038699998],[-49.79431453699999,-18.64322893100001],[-49.81931884400001,-18.63211454399999],[-49.82749831699999,-18.634170523000023],[-49.835678726000026,-18.636227539999993],[-49.84907966899999,-18.62533261599998],[-49.85231614600002,-18.62270163400001],[-49.85589708700002,-18.622540635000007],[-49.86761953400003,-18.622014693999972],[-49.86967601499998,-18.616897687999995],[-49.87116950400002,-18.613184250000018],[-49.877023979,-18.61085875499998],[-49.88132194000002,-18.609607278999988],[-49.884601900999996,-18.60991975899998],[-49.88822637800001,-18.61139979799998],[-49.903394241,-18.620539276999978],[-49.90389723800001,-18.620842750999998],[-49.917537115000016,-18.622185781999974],[-49.93117802400002,-18.623529796000014],[-49.962551786000006,-18.61614843199999],[-49.97334070699998,-18.613854445000015],[-49.975831218999986,-18.61070046399999],[-49.98097767600001,-18.604182530999992],[-50.016113444999974,-18.599376643000028],[-50.02648534299999,-18.600762641000017],[-50.02804684199998,-18.600971157999993],[-50.02828533799999,-18.601003623999986],[-50.03695672700002,-18.610465595999983],[-50.04489461999998,-18.63073654599998],[-50.04972757600001,-18.643078005999996],[-50.05328854200002,-18.64556497199999],[-50.06379744700001,-18.652905469000018],[-50.07044884999999,-18.660865958999977],[-50.07956775600002,-18.671780915],[-50.16381062200003,-18.663888618999977],[-50.19840233100001,-18.678617164000002],[-50.20770575400002,-18.679338153999993],[-50.217009684000004,-18.680059690999997],[-50.235064032000025,-18.678610221999975],[-50.249782923,-18.67742825099998],[-50.252097918000004,-18.678156752000007],[-50.269481265000024,-18.683627795000007],[-50.286075616999995,-18.689675780000016],[-50.30888044599999,-18.697986780999997],[-50.316185338000025,-18.705006301000026],[-50.32349127499998,-18.712025760000017],[-50.33098817199999,-18.724667196999974],[-50.35184445599998,-18.759833585000024],[-50.37625861599997,-18.811917912000013],[-50.385021567000024,-18.81709139899999],[-50.39378498100001,-18.82226540900001],[-50.40207338699997,-18.82392740099999],[-50.41361981699998,-18.826242439999987],[-50.42065624999998,-18.83069993700002],[-50.424115710000024,-18.835752909999997],[-50.44109392600001,-18.890322691999984],[-50.465595672000006,-18.916425616000026],[-50.46928816000002,-18.918421604999992],[-50.469295629999976,-18.918425594999974],[-50.47298109799999,-18.920417613999973],[-50.499825868000016,-18.929231619000007],[-50.508662320999974,-18.936965106000002],[-50.51139523799998,-18.951501055999984],[-50.499567739999975,-18.980698887000017],[-50.50353866500001,-19.004017784999974],[-50.49918569099998,-19.008098761999975],[-50.494593710000004,-19.012404740000022],[-50.49698617199999,-19.02620515900003],[-50.49826214699999,-19.033564649000027],[-50.50162007,-19.039549626999985],[-50.52234235399999,-19.076470975000007],[-50.537039661999984,-19.098938927999995],[-50.540115652,-19.10205141],[-50.54011862300001,-19.10205341699998],[-50.54319259699997,-19.105164398],[-50.54900853800001,-19.108271881999997],[-50.57201182199998,-19.120563392000008],[-50.57827776200003,-19.128744368000014],[-50.584543688,-19.136924834000013],[-50.64511075799999,-19.133467020000012],[-50.66736508700001,-19.135073041999988],[-50.67114253599999,-19.135345558999973],[-50.67418353300002,-19.137286551999978],[-50.67722550000002,-19.13922703899999],[-50.67496246799999,-19.149711998999976],[-50.672042976,-19.16323641499997],[-50.67610791499999,-19.16798492700002],[-50.680172862999996,-19.172734901000013],[-50.73298443700003,-19.185341447999974],[-50.733200947,-19.185626963999994],[-50.742401347,-19.19774743900001],[-50.74347580900002,-19.214496853000014],[-50.74556673699999,-19.226084302000004],[-50.747240198999975,-19.235358754000004],[-50.770981957000004,-19.258887689000005],[-50.77963540600001,-19.260554233999983],[-50.78828830399999,-19.262221249999982],[-50.81663752399999,-19.28936266400001],[-50.828487886999994,-19.30999409100002],[-50.83534678000001,-19.326655054000014],[-50.83573327300002,-19.330142529],[-50.836298751000015,-19.335241506999978],[-50.837397710000005,-19.345154938000007],[-50.86014442300001,-19.391620787000022],[-50.86602638699998,-19.398641769999983],[-50.87190879799999,-19.40566375100002],[-50.874870225999985,-19.422370170000022],[-50.871482732000004,-19.427914676],[-50.868095788000005,-19.433458137000002],[-50.83831541000001,-19.45713396399998],[-50.824457978,-19.474574322000024],[-50.826204958999995,-19.487001271999986],[-50.82706392,-19.487649266999995],[-50.841691819000005,-19.49868524300001],[-50.93532315599998,-19.467213118000018],[-50.94895255900002,-19.47058713199999],[-50.957415448999996,-19.47956663399998],[-50.96197991399998,-19.484409115999995],[-50.962219414,-19.492260577000025],[-50.96245886899999,-19.50011304999998],[-50.93825995999998,-19.531556824000006],[-50.93039351300001,-19.541778783999973],[-50.92703601900001,-19.549964719000002],[-50.92367949800001,-19.558150695999984],[-50.92264199499999,-19.57559560599998],[-50.92751038799997,-19.587333037000008],[-50.937090329,-19.591803074999973],[-50.94605474399998,-19.59122307199999],[-50.951915208,-19.587639099],[-50.962381642000025,-19.581237680000015],[-50.970528580999996,-19.581674675999977],[-50.987067438,-19.58904019099998],[-50.98997737600001,-19.604937620999976],[-51.004848701000014,-19.63682352699999],[-51.01110260600001,-19.65023245399999],[-51.012395588000004,-19.653002954999977],[-51.01574204299999,-19.655601941999976],[-51.02135199700001,-19.659959448999984],[-51.03608580000002,-19.68654634500001],[-51.03800671699997,-19.719066715999986],[-51.04218217900001,-19.724402196000028],[-51.04545463900001,-19.728583705000005],[-51.04494161299999,-19.73709067300001],[-51.027412208999976,-19.756109528000025],[-51.03945103699999,-19.776650467000024],[-51.03359557499999,-19.79080238199998],[-51.031784069000025,-19.793382369000028],[-51.022204606,-19.807028284000012],[-51.01771004699998,-19.836813613000004],[-51.01871896199998,-19.867062001000022],[-50.998983021000015,-19.905909262000023],[-51.00011750300001,-19.91346325699999],[-51.00125143899999,-19.92101672199999],[-51.01190978699998,-19.944381134000025],[-51.019910186000004,-19.961919057999978],[-51.01953119199999,-19.964362547000007],[-51.019152701999985,-19.966807043000017],[-51.00431722299999,-19.99874835600002],[-51.00554614499998,-20.024829232000002],[-51.010862085999975,-20.032829245000016],[-51.01637400300001,-20.04112521600001],[-51.01739998099998,-20.04792316700002],[-51.00926746800002,-20.07155704500002],[-50.99998499899999,-20.084914443999992],[-50.99689354100002,-20.080291967999983],[-50.96597241400002,-20.03405912599999],[-50.94905554899998,-20.031112584000027],[-50.948674548999975,-20.031045595000023],[-50.944797084000015,-20.028627603000018],[-50.93537567599998,-20.017148626999983],[-50.933170226000016,-20.01446062299999],[-50.92748929200002,-20.011368135999987],[-50.91138940600001,-20.002604111999972],[-50.909516929999995,-19.998196147999977],[-50.907643990999986,-19.993787639999994],[-50.89649859000002,-19.98968264299998],[-50.885613174000014,-19.989435619999995],[-50.87343676299997,-19.98829311100002],[-50.871270772,-19.988089580000008],[-50.86874627399999,-19.985738588000004],[-50.85289044299998,-19.97097213799998],[-50.84359254899999,-19.96711413899999],[-50.82123920800001,-19.959382111000025],[-50.81684727300001,-19.957863616999987],[-50.803046385000016,-19.94819959900002],[-50.79355097500002,-19.941550602999996],[-50.788334512999995,-19.939156129000025],[-50.783114598,-19.93676112899999],[-50.724629058999994,-19.926350520000028],[-50.682925904,-19.91483995499999],[-50.656408618,-19.904905939000002],[-50.63569837900002,-19.874595543999988],[-50.61603058200001,-19.861263552000025],[-50.610236122,-19.858218540999985],[-50.60575818199999,-19.85586555499998],[-50.590821335999976,-19.833755628999995],[-50.58583039400003,-19.826367134999998],[-50.58066644799999,-19.820959657999992],[-50.575501007000014,-19.81555064700001],[-50.56154163399998,-19.81311465700003],[-50.546675737999976,-19.810133623000013],[-50.51732401700002,-19.79629511600001],[-50.51655950999998,-19.795935111000006],[-50.50763960400002,-19.795630585000026],[-50.50763209399997,-19.795630105999976],[-50.498704636000014,-19.795325590000004],[-50.49593967200002,-19.79316860099999],[-50.485699264000004,-19.785178581000025],[-50.471423904999995,-19.779184579999992],[-50.45400700699997,-19.785567504000028],[-50.414026275000026,-19.803293333],[-50.372419492000006,-19.844907549000027],[-50.36772550699999,-19.848693534000006],[-50.365661038999974,-19.849696515999995],[-50.356606080000006,-19.85409895700002],[-50.35587708000003,-19.855799468999976],[-50.35231409300002,-19.864117411999985],[-50.33599023300002,-19.867677360000016],[-50.32368081499999,-19.870138300000008],[-50.311371881000014,-19.87259875699999],[-50.28514812999998,-19.867349228000023],[-50.24467438200003,-19.876288104000025],[-50.22040862699998,-19.86796407899999],[-50.210207690000004,-19.867477044999987],[-50.20000825300002,-19.866990045000023],[-50.17310147500001,-19.874187923000022],[-50.15921253900001,-19.87778088099998],[-50.138410706,-19.874538858999983],[-50.102329983000004,-19.875441247000026],[-50.08992457900001,-19.878829705999976],[-50.08261711799997,-19.883526684000003],[-50.07633918900001,-19.88756164],[-50.04341585200001,-19.916025448000028],[-50.01170508400003,-19.926244317],[-49.95963350699998,-19.920425717],[-49.904512865000015,-19.938576017000003],[-49.89080397700002,-19.943250458000023],[-49.881072526000025,-19.944094902000018],[-49.85509476599998,-19.946349827999995],[-49.84495784400002,-19.939609854000025],[-49.83478094999998,-19.932842350999977],[-49.82964298799999,-19.932248847999972],[-49.798457713999994,-19.928647280000007],[-49.79264379199998,-19.927976279999996],[-49.78731184700001,-19.925984304999986],[-49.781977396,-19.92399077099998],[-49.74908561299998,-19.924848211999972],[-49.71172441800002,-19.93078859000002],[-49.640739967,-19.931401911000023],[-49.62618857799998,-19.927273386000024],[-49.60547928300002,-19.916013915999997],[-49.58167397699998,-19.909571357999994],[-49.57009105100002,-19.91015883],[-49.558728143999986,-19.91073581500001],[-49.55777415,-19.91007430100001],[-49.550991246000024,-19.905373343999997],[-49.52357941499997,-19.911398736000024],[-49.513293024000006,-19.915423682999972],[-49.50300506100001,-19.919449144999987],[-49.48700911100002,-19.954757932000007],[-49.457706755000004,-19.975510771000017],[-49.44880633899999,-19.977921229999993],[-49.439904894999984,-19.98033221899999],[-49.41133361599998,-19.982343117000028],[-49.35599355199997,-19.986238978000017],[-49.34498163500001,-19.983167467999976],[-49.33396972999998,-19.980097445000013],[-49.32025838300001,-19.970633952000014],[-49.31372991400002,-19.966127968000023],[-49.30539851100002,-19.963100465000025],[-49.29706456700001,-19.960072466999975],[-49.26469685000001,-19.961566894999976],[-49.257979379999995,-19.964817372000027],[-49.255898410999976,-19.965824827999995],[-49.25364990200001,-19.966912815],[-49.250249946,-19.970329799000012],[-49.246545905000005,-19.982066222000014],[-49.247868383000025,-19.99916666500002],[-49.25496329499998,-20.002809679999984],[-49.262059244,-20.006453179999994],[-49.268764669999996,-20.005807172999994],[-49.28354707300002,-20.00438320400002],[-49.289816985000016,-20.010379704],[-49.29608694799998,-20.01637671399999],[-49.30723670399999,-20.073286972999995],[-49.30805860200002,-20.10150581800002],[-49.30532658300001,-20.116514247999987],[-49.29877350300001,-20.166589983999984],[-49.265649102,-20.227338110000005],[-49.265369631,-20.22785063499998],[-49.26139910799998,-20.239421067000023],[-49.257587623999996,-20.245984529999987],[-49.25902659899998,-20.257782985000006],[-49.258791581000025,-20.258111466000003],[-49.23835419300002,-20.286567279999986],[-49.217186801000025,-20.303227151999977],[-49.21706831199998,-20.30323415700002],[-49.21706028800003,-20.30323467400001],[-49.19068700600002,-20.30782607200001],[-49.179091072999995,-20.309699532000025],[-49.130295563000004,-20.279668578999974],[-49.128925073000005,-20.278189587999975],[-49.12399412899998,-20.27286359599998],[-49.120261175999985,-20.268832083999996],[-49.089208068999994,-20.211279269999977],[-49.08694444399998,-20.20888888899998],[-49.064444444,-20.153055556000027],[-48.98166666700001,-20.153611110999975],[-49.003333333,-18.367777778000004]]]},"properties":{"ID_PROJETO":"3092","ID_SERIE":3000,"SHAPE.AREA":2.39841603415026,"SHAPE.LEN":8.26609348882417,"OBJECTID":63016,"TITULO":"Área 21 - Ituiutaba - Iturama - Fronteira","METODOS":"Magnetometria, Gamaespectrometria","ALTURA_VOO_M":"100","AREA_LEVANTADA_KM2":"31947","QUILOMETRAGEM_VOADA_KM":"31947","DIRECAO_LV":"N-S","DIRECAO_LC":"E-W","ESPACAMENTO_LV_M":"1000","ESPACAMENTO_LC_KM":"10","SERIE":"Projetos conduzidos pelos governos estaduais e empresas privadas","DISPONIBILIZACAO":null,"IMAGENS":"https://geosgb.sgb.gov.br/downloads/index.php?dir=3092-Area21-Ituiutaba_Iturama_Fronteira&widget=1&openAll=1","INTERVALO":"0,1 s (mag) 1 s (gama)","CONTRATANTE":"CODEMIG","CONTRATADA":"LASA Engenharia e Prospecções S.A.","ANO_PROJETO":"2013","DECADA":"2010","ANO_CONCLUSAO":"2013","LOCALIZACAO":"Ituiutaba - Iturama - Fronteira","SITUACAO":"À venda","__atlas_serie_layer":2,"__atlas_fonte_servico":"https://geoportal.sgb.gov.br/server/rest/services/geofisica/aerogeofisica/MapServer/2","__atlas_modulos":"AM;GA","__atlas_espacamento_lv_m":1000.0,"__atlas_snapshot":"2026-08-14"}},{"type":"Feature","id":63072,"geometry":{"type":"Polygon","coordinates":[[[-54.000499026,-22.000463749000005],[-55.13324422699998,-22.001395946000002],[-54.00495086699999,-23.989359890999992],[-53.996062026000004,-24.018248911],[-51.34078261799999,-28.369106187],[-49.731325004999974,-28.364112052999985],[-49.45993246900002,-28.058278641000015],[-49.849933126999986,-27.484664150000015],[-51.514102150999975,-24.86798238199998],[-52.00160688599999,-25.107981642000027],[-53.78355333000002,-22.09268698300002],[-54.000499026,-22.000463749000005]]]},"properties":{"ID_PROJETO":"4012","ID_SERIE":4000,"SHAPE.AREA":10.6882265313314,"SHAPE.LEN":18.640534802915198,"OBJECTID":63072,"TITULO":"Bacia do Paraná 1973","METODOS":"Magnetometria","ALTURA_VOO_M":"1500","AREA_LEVANTADA_KM2":"116400","QUILOMETRAGEM_VOADA_KM":"20650","DIRECAO_LV":"NW-SE","DIRECAO_LC":"NE-SW","ESPACAMENTO_LV_M":"7000","ESPACAMENTO_LC_KM":"50","SERIE":"Projetos conduzidos pelo Conselho Nacional do Petróleo (CNP) e pela Petróleo Brasileiro S.A. (PETROBRAS)","DISPONIBILIZACAO":null,"IMAGENS":"https://reate.cprm.gov.br/anp/TERRESTRE","INTERVALO":"70 m","CONTRATANTE":"Petrobras","CONTRATADA":"PRAKLA-SEISMOS GmbH","ANO_PROJETO":"1972","DECADA":"1970","ANO_CONCLUSAO":"1973","LOCALIZACAO":"Bacia do Paraná","SITUACAO":"Público","__atlas_serie_layer":3,"__atlas_fonte_servico":"https://geoportal.sgb.gov.br/server/rest/services/geofisica/aerogeofisica/MapServer/3","__atlas_modulos":"AM","__atlas_espacamento_lv_m":7000.0,"__atlas_snapshot":"2026-08-14"}},{"type":"Feature","id":63077,"geometry":{"type":"Polygon","coordinates":[[[-50.00046567700002,-21.000471181000023],[-51.000473382999985,-21.00046842400002],[-51.00047032200001,-20.00046402999999],[-52.00047783500003,-20.000461355000027],[-52.000484244000006,-22.000469744999975],[-53.000491710000006,-22.000466770000003],[-53.00049525700001,-23.000470624000002],[-50.000472253,-23.000479788000007],[-50.00046567700002,-21.000471181000023]]]},"properties":{"ID_PROJETO":"4018","ID_SERIE":4000,"SHAPE.AREA":6.00007064574685,"SHAPE.LEN":12.000070934057899,"OBJECTID":63077,"TITULO":"Confluência Paraná-Paranapanema","METODOS":"Magnetometria","ALTURA_VOO_M":"400","AREA_LEVANTADA_KM2":"67000","QUILOMETRAGEM_VOADA_KM":"37610","DIRECAO_LV":"N45E","DIRECAO_LC":"N45W","ESPACAMENTO_LV_M":"2000","ESPACAMENTO_LC_KM":"20","SERIE":"Projetos conduzidos pelo Conselho Nacional do Petróleo (CNP) e pela Petróleo Brasileiro S.A. (PETROBRAS)","DISPONIBILIZACAO":null,"IMAGENS":"https://reate.cprm.gov.br/anp/TERRESTRE","INTERVALO":"100 m","CONTRATANTE":"PAULIPETRO - Consórcio CESP/IPT","CONTRATADA":"ENCAL S.A  - Consultoria e Aerolevantamentos","ANO_PROJETO":"1980","DECADA":"1980","ANO_CONCLUSAO":"1980","LOCALIZACAO":"Bacia do Paraná","SITUACAO":"Público","__atlas_serie_layer":3,"__atlas_fonte_servico":"https://geoportal.sgb.gov.br/server/rest/services/geofisica/aerogeofisica/MapServer/3","__atlas_modulos":"AM","__atlas_espacamento_lv_m":2000.0,"__atlas_snapshot":"2026-08-14"}},{"type":"Feature","id":63083,"geometry":{"type":"Polygon","coordinates":[[[-52.000472159000026,-18.000452402000008],[-53.000479439,-18.000449946000003],[-53.00048222999999,-19.00045436099998],[-52.000474908,-19.00045694800002],[-52.000472159000026,-18.000452402000008]]]},"properties":{"ID_PROJETO":"4024","ID_SERIE":4000,"SHAPE.AREA":1.0000117815397,"SHAPE.LEN":4.0000235630140395,"OBJECTID":63083,"TITULO":"Cabeceira do Rio Aporé","METODOS":"Magnetometria","ALTURA_VOO_M":"400","AREA_LEVANTADA_KM2":"12155","QUILOMETRAGEM_VOADA_KM":"6627","DIRECAO_LV":"N-S","DIRECAO_LC":"E-W","ESPACAMENTO_LV_M":"2000","ESPACAMENTO_LC_KM":"20","SERIE":"Projetos conduzidos pelo Conselho Nacional do Petróleo (CNP) e pela Petróleo Brasileiro S.A. (PETROBRAS)","DISPONIBILIZACAO":null,"IMAGENS":"https://reate.cprm.gov.br/anp/TERRESTRE","INTERVALO":"66 m","CONTRATANTE":"PAULIPETRO - Consórcio CESP/IPT","CONTRATADA":"ENCAL S.A  - Consultoria e Aerolevantamentos","ANO_PROJETO":"1981","DECADA":"1980","ANO_CONCLUSAO":"1981","LOCALIZACAO":"Bacia do Paraná","SITUACAO":"Público","__atlas_serie_layer":3,"__atlas_fonte_servico":"https://geoportal.sgb.gov.br/server/rest/services/geofisica/aerogeofisica/MapServer/3","__atlas_modulos":"AM","__atlas_espacamento_lv_m":2000.0,"__atlas_snapshot":"2026-08-14"}},{"type":"Feature","id":63107,"geometry":{"type":"Polygon","coordinates":[[[-55.500502970000014,-20.000451666000004],[-57.111355077999974,-22.256010489000005],[-57.09302159800001,-22.249899416999995],[-57.08191039600001,-22.245732771999997],[-57.063576915,-22.23934392000001],[-57.042743417999986,-22.233232854999983],[-57.017187675,-22.229344034999997],[-57.001354236,-22.22989964300001],[-56.986909716000014,-22.23601082099998],[-56.96385400600002,-22.236566453000023],[-56.948298346,-22.236844281000003],[-56.93024269,-22.242955471000016],[-56.90246474700001,-22.249344469999983],[-56.89524247700001,-22.24962227200001],[-56.88440909100001,-22.255455659000006],[-56.879964642000004,-22.262400141],[-56.870520177,-22.274066877999985],[-56.856075654999984,-22.279900277000024],[-56.84746446999998,-22.275733623999997],[-56.81801978599998,-22.265178127000013],[-56.80579746500001,-22.261011484999983],[-56.79579735200002,-22.248789253999973],[-56.78218610800002,-22.237955926999973],[-56.77218601599998,-22.231567047999988],[-56.74913028899999,-22.227678219999973],[-56.71913012800002,-22.239622800999996],[-56.70968564100002,-22.245456183999977],[-56.693852221999975,-22.251567366000018],[-56.68385209600001,-22.23601179000002],[-56.67135197900001,-22.22740068899998],[-56.66412970699997,-22.22740071200002],[-56.65024078699997,-22.244623037999986],[-56.63579627399997,-22.252956444999995],[-56.619962826000005,-22.25128982299998],[-56.61246275000002,-22.244623158000024],[-56.599684787,-22.217956441000013],[-56.591906886000004,-22.198789734],[-56.57551780699998,-22.177678602000015],[-56.563017677999994,-22.165734156999974],[-56.545795306,-22.157123071],[-56.51912843399998,-22.15101202300002],[-56.50662830800002,-22.13990091300002],[-56.496350373999974,-22.116567531999976],[-56.47246120400001,-22.084345273999986],[-56.45662775599999,-22.082678652000027],[-56.443294331999994,-22.082956473000024],[-56.41801637499998,-22.081289879999986],[-56.40107181500002,-22.08156771199998],[-56.39134955600002,-22.089901105000024],[-56.38690510499998,-22.09656780900002],[-56.379682855,-22.10240118600001],[-56.373016221,-22.124067948000004],[-56.368571796000026,-22.13767912100002],[-56.36134955699998,-22.146845842000005],[-56.352182898000024,-22.166290382],[-56.336071785,-22.196012758999984],[-56.320516165000015,-22.207679514999995],[-56.31329389299998,-22.20767953799998],[-56.29190490000002,-22.219624091000014],[-56.253293567000014,-22.231846478000023],[-56.224404521999986,-22.24379105600002],[-56.204126651000024,-22.256568942],[-56.189959929,-22.268235693999998],[-56.17412648800001,-22.268513523000024],[-56.152181868000014,-22.26212468199998],[-56.139959546,-22.257958039000016],[-56.12412610400003,-22.258235867999986],[-56.11107048000002,-22.264347041999997],[-56.101348212000005,-22.270180426000024],[-56.089681514000006,-22.283791622000024],[-56.07634808900002,-22.28406944300002],[-56.06162576700001,-22.28462504700002],[-56.03857002799998,-22.278236209],[-56.02884772300001,-22.274069558999997],[-56.01412537499999,-22.26740291499999],[-56.00079194199998,-22.265458506000016],[-55.99329189000002,-22.265736308999976],[-55.98134736399999,-22.266014125000027],[-55.974125113000014,-22.271847502000014],[-55.95718057200003,-22.277680909000026],[-55.934124833,-22.271292071000005],[-55.91940250099998,-22.269347665999987],[-55.902735741000015,-22.275458850999996],[-55.890791260000015,-22.288236712000014],[-55.881346791,-22.29962567000001],[-55.869680088999985,-22.312125750999996],[-55.857735612,-22.326014725999983],[-55.84579112199998,-22.336292577999984],[-55.831624422999994,-22.354626020000012],[-55.82940220699999,-22.360459381],[-55.82134665299998,-22.376292795999973],[-55.80495775100002,-22.403792943999974],[-55.79301329100002,-22.42212637900002],[-55.773291089,-22.465182147999997],[-55.761902254999995,-22.5015712],[-55.755235629000026,-22.525460194000004],[-55.74829120700002,-22.54462695000001],[-55.74023566300002,-22.56296037200002],[-55.72606896100001,-22.580182700000023],[-55.70579110900002,-22.59851616200001],[-55.68662435599998,-22.611294046000012],[-55.66495758399998,-22.624071936999997],[-55.65217980099999,-22.646849835000012],[-55.640513183999985,-22.68212777299999],[-55.636068771,-22.699072290999993],[-55.63662443700002,-22.727405721000025],[-55.643291224999984,-22.74740576900001],[-55.649402424000016,-22.759628013999986],[-55.65606921800003,-22.781016955999974],[-55.669958296000004,-22.805461439999988],[-55.67662511499998,-22.833517071000017],[-55.677458623999996,-22.878795002999993],[-55.67579208199999,-22.914906244000008],[-55.66940330099999,-22.95546195999998],[-55.66273673799998,-22.99518433999998],[-55.663570187999994,-23.024351104000004],[-55.651903533999985,-23.049351227999978],[-55.63551466000001,-23.08351806500002],[-55.620514722999985,-23.12796271100001],[-55.59051462999997,-23.158796246999998],[-55.56301453200001,-23.184074201999977],[-55.54745895000002,-23.205740993000006],[-55.548014609000006,-23.23185219200002],[-55.55440360699998,-23.24851889399997],[-55.56718154800001,-23.267407805999994],[-55.56745939699999,-23.28546342200002],[-55.56551503899999,-23.311574629000006],[-55.55857061099999,-23.328519153000002],[-55.556070620000014,-23.335463629999992],[-55.54190392300001,-23.353519292999977],[-55.527459421,-23.36518604700001],[-55.513292734000004,-23.38574171900001],[-55.51968175899998,-23.40935288999998],[-55.52634854600001,-23.428241820999972],[-55.53995980100001,-23.440464039000005],[-55.553571051000006,-23.451575143000014],[-55.57746022600003,-23.481575166000027],[-55.57523806299997,-23.500741903999995],[-55.570793657000024,-23.518797536000022],[-55.557738067,-23.53379762899999],[-55.54690473300002,-23.55324217499998],[-55.537738133999994,-23.587131209000006],[-55.535793746000024,-23.605186832000015],[-55.52940499800002,-23.65268701299999],[-55.51996055799998,-23.67074266100002],[-55.503016043,-23.683520537999982],[-55.487460449000025,-23.701853984000024],[-55.47190489000002,-23.729076350000014],[-55.465238320000026,-23.76546538299999],[-55.46579399900003,-23.795743260999984],[-55.472738666,-23.839632273000007],[-55.47329431899999,-23.863243461000025],[-55.466349924999975,-23.888243568000007],[-55.46190555200002,-23.914354780999986],[-55.450238910999985,-23.94157713300001],[-55.437183334,-23.959632793000026],[-55.410516546999986,-23.97713294099998],[-55.38329413299999,-23.977688590000014],[-55.36357174400001,-23.971021967000013],[-55.35107162000003,-23.962410868999996],[-55.342460421,-23.955744208999988],[-55.32246022099997,-23.941299784000023],[-55.30162672199998,-23.937133173000007],[-55.291904432000024,-23.937410984999985],[-55.27968217199998,-23.949911067000016],[-55.269959907999976,-23.95685556799998],[-55.260515467999994,-23.97491121600001],[-55.253293239000016,-23.986300167000024],[-55.243848774000014,-23.99796690400001],[-55.22162637600002,-23.993800297999996],[-55.21162627799998,-23.987133642999993],[-55.20662621499997,-23.980466971],[-55.19912612600001,-23.971578077000004],[-55.191626026999984,-23.960189174999982],[-55.175514776,-23.95380031899998],[-55.15829242199999,-23.951855926000007],[-55.14468121499999,-23.952133749999973],[-55.12412553899998,-23.95907828700001],[-55.09245869199998,-23.970745099],[-55.06301406,-23.976856328999986],[-55.02495822499998,-23.97518978400001],[-54.997735740999985,-23.958523151999998],[-54.98523559300003,-23.944078701000024],[-54.98023552199999,-23.93518979800001],[-54.972735433000025,-23.926300904000016],[-54.96273532599997,-23.917412018999983],[-54.94773516599997,-23.904078690000006],[-54.92662385,-23.890745381999977],[-54.90329033199998,-23.88657877899999],[-54.878845694999995,-23.882412179000028],[-54.85301216800002,-23.880467813999985],[-54.822178579000024,-23.871856776000016],[-54.80356730800003,-23.865467926999997],[-54.77801155200001,-23.861301330999993],[-54.76078920600003,-23.861579167000002],[-54.73856682500002,-23.861857019000013],[-54.72634447899998,-23.85296814100002],[-54.71134431399997,-23.83852369599998],[-54.698844167000004,-23.82407924300003],[-54.68773294099998,-23.81519036100002],[-54.670788397000024,-23.82102377000001],[-54.64495489900003,-23.826857209000025],[-54.62662145600001,-23.83269062300002],[-54.592454566000015,-23.838801869000008],[-54.55828770099998,-23.851579803999982],[-54.53162091299998,-23.86991328900001],[-54.49495405599998,-23.889357921999988],[-54.45967612499999,-23.91574701899998],[-54.42800932199998,-23.939636096000015],[-54.408842644,-23.972414050999987],[-54.39439817099998,-23.99185861000001],[-54.250508266,-24.000470228999973],[-53.867172118999974,-24.00047149599999],[-55.000506191,-22.000460685000007],[-54.000499026,-22.000463749000005],[-54.00049400099999,-20.500457899000025],[-53.700490272000025,-20.000456711000027],[-55.500502970000014,-20.000451666000004]]]},"properties":{"ID_PROJETO":"4051","ID_SERIE":4000,"SHAPE.AREA":7.0994647003605795,"SHAPE.LEN":15.0782685602715,"OBJECTID":63107,"TITULO":"Borda Oeste da Bacia do Paraná (Bloco Oeste)","METODOS":"Magnetometria","ALTURA_VOO_M":"1000","AREA_LEVANTADA_KM2":"80000","QUILOMETRAGEM_VOADA_KM":"29039","DIRECAO_LV":"N-S","DIRECAO_LC":"E-W","ESPACAMENTO_LV_M":"3000","ESPACAMENTO_LC_KM":"18","SERIE":"Projetos conduzidos pelo Conselho Nacional do Petróleo (CNP) e pela Petróleo Brasileiro S.A. (PETROBRAS)","DISPONIBILIZACAO":null,"IMAGENS":"https://reate.cprm.gov.br/anp/TERRESTRE","INTERVALO":"100 m","CONTRATANTE":"Petrobras","CONTRATADA":"Consórcio PROSPEC/ENCAL/LASA","ANO_PROJETO":"1989","DECADA":"1980","ANO_CONCLUSAO":"1989","LOCALIZACAO":"Bacia do Paraná","SITUACAO":"Público","__atlas_serie_layer":3,"__atlas_fonte_servico":"https://geoportal.sgb.gov.br/server/rest/services/geofisica/aerogeofisica/MapServer/3","__atlas_modulos":"AM","__atlas_espacamento_lv_m":3000.0,"__atlas_snapshot":"2026-08-14"}},{"type":"Feature","id":63108,"geometry":{"type":"Polygon","coordinates":[[[-54.003000249000024,-20.973468791000016],[-54.000499026,-22.000463749000005],[-53.33383106399998,-23.000469579000026],[-53.00049525700001,-23.000470624000002],[-53.000491710000006,-22.000466770000003],[-52.000484244000006,-22.000469744999975],[-52.000482569999974,-21.50046770099999],[-54.003000249000024,-20.973468791000016]]]},"properties":{"ID_PROJETO":"4052","ID_SERIE":4000,"SHAPE.AREA":2.19430858330194,"SHAPE.LEN":7.13290471857559,"OBJECTID":63108,"TITULO":"Borda Oeste da Bacia do Paraná (Bloco Leste/Norte)","METODOS":"Magnetometria","ALTURA_VOO_M":"1000","AREA_LEVANTADA_KM2":"25730","QUILOMETRAGEM_VOADA_KM":"10211","DIRECAO_LV":"N-S","DIRECAO_LC":"E-W","ESPACAMENTO_LV_M":"3000","ESPACAMENTO_LC_KM":"18","SERIE":"Projetos conduzidos pelo Conselho Nacional do Petróleo (CNP) e pela Petróleo Brasileiro S.A. (PETROBRAS)","DISPONIBILIZACAO":null,"IMAGENS":"https://reate.cprm.gov.br/anp/TERRESTRE","INTERVALO":"100 m","CONTRATANTE":"Petrobras","CONTRATADA":"Consórcio PROSPEC/ENCAL/LASA","ANO_PROJETO":"1989","DECADA":"1980","ANO_CONCLUSAO":"1989","LOCALIZACAO":"Bacia do Paraná","SITUACAO":"Público","__atlas_serie_layer":3,"__atlas_fonte_servico":"https://geoportal.sgb.gov.br/server/rest/services/geofisica/aerogeofisica/MapServer/3","__atlas_modulos":"AM","__atlas_espacamento_lv_m":3000.0,"__atlas_snapshot":"2026-08-14"}},{"type":"Feature","id":63109,"geometry":{"type":"Polygon","coordinates":[[[-53.867172118999974,-24.00047149599999],[-54.37245360100002,-24.000469823999993],[-54.34689793899997,-24.02074775699998],[-54.339675691000025,-24.027692249999973],[-54.332453499999986,-24.049081236999996],[-54.33273136899999,-24.071581313000024],[-54.333009232999984,-24.092970275000027],[-54.333009317999995,-24.11435923800002],[-54.339398338000024,-24.135748179000018],[-54.33967619399999,-24.15491491099999],[-54.339954076000026,-24.180748332999997],[-54.337454107999974,-24.193248384000015],[-54.33023191900003,-24.214915148999978],[-54.325509710999995,-24.22713742899998],[-54.320787521,-24.244081947999973],[-54.31606535999998,-24.267970934999994],[-54.301620936000006,-24.299637758000017],[-54.289676531,-24.331304574],[-54.28967659900002,-24.348249076000002],[-54.287454482999976,-24.37880474399998],[-54.28523234300002,-24.40352705800001],[-54.29162141400002,-24.43713826200002],[-54.298010491000014,-24.472138359999974],[-54.31106638199998,-24.531582963000005],[-54.317455482000014,-24.572138633999998],[-54.317733394000015,-24.60463874300001],[-54.31801132999999,-24.642972204999978],[-54.32190038099998,-24.67575008],[-54.328567307000014,-24.727416898],[-54.33523423499997,-24.779083716000002],[-54.34773445500002,-24.810472667],[-54.369123672,-24.851861621000012],[-54.37801272299998,-24.875472780999985],[-54.390512908000005,-24.897972813000024],[-54.404402042000015,-24.932695103000015],[-54.412180044000024,-24.97297298799998],[-54.41884686700001,-24.998806383999977],[-54.424958075000006,-25.01130640399998],[-54.42523595799997,-25.036028707000014],[-54.43162504700001,-25.072973251999997],[-54.438291900000024,-25.105751113999986],[-54.438569890999986,-25.156306836],[-54.43912558400001,-25.18797360399998],[-54.43690350600002,-25.226307071000008],[-54.443292584000005,-25.259918270000014],[-54.449959432000014,-25.29130723899999],[-54.456348472,-25.316029518999983],[-54.47523761000002,-25.34186287099999],[-54.48884887700001,-25.355196200000023],[-54.505238014999975,-25.385474019000014],[-54.51801602500001,-25.417974078999976],[-54.53301623499999,-25.44130743599999],[-54.533571947999974,-25.477418661],[-54.53996097100003,-25.49769648199998],[-54.539961033,-25.512140972999987],[-54.540238895000016,-25.531307701000003],[-54.546627903,-25.548252176999995],[-54.55301690099998,-25.562696646000006],[-54.553016979000006,-25.580752259000008],[-54.553294849999986,-25.602141216000007],[-54.522461350000015,-25.616030258000023],[-54.49746121099997,-25.626585936000026],[-54.49023899399998,-25.640197117000014],[-54.483016792,-25.65714164100001],[-54.47829462200002,-25.677419500999974],[-54.47079464000001,-25.694364026000017],[-54.45107230299999,-25.701586340999995],[-54.43468324600002,-25.69047525299999],[-54.422183071000006,-25.67130856900002],[-54.41468296300002,-25.659086333999994],[-54.40440503299999,-25.641308535000007],[-54.391904882999995,-25.627975203000005],[-54.33829326099999,-25.601308639000024],[-54.328293121,-25.585753067999974],[-54.32801527800001,-25.571030799000027],[-54.320515193999995,-25.564364136999984],[-54.297181738000006,-25.57603092400001],[-54.27607052000002,-25.587419924000017],[-54.25134816899998,-25.600197831000003],[-54.233847991999994,-25.589086744999975],[-54.196625471000004,-25.583809081000027],[-54.196347633000016,-25.57019792599999],[-54.196347566999975,-25.554642320000028],[-54.155236075000005,-25.53686462799999],[-54.13912483600001,-25.534920234000026],[-54.126624725,-25.530475819000003],[-54.08912436100002,-25.510475885000005],[-54.08801331900003,-25.52853150300001],[-54.10690242499999,-25.546587052000007],[-54.126902624000024,-25.558531464999987],[-54.12690268699998,-25.573253736000026],[-54.11218045700002,-25.597142754000004],[-54.072457980000024,-25.60658736900001],[-54.002179609999985,-25.590198672999975],[-53.99245732600002,-25.592698715999973],[-53.981068381,-25.599365444],[-53.966346117,-25.615198881000026],[-53.95884608900002,-25.62186559600002],[-53.94884611100002,-25.644365704999984],[-53.872734509,-25.662421586999983],[-53.857734429999994,-25.670199443],[-53.850234426999975,-25.68269951000002],[-53.84551221800001,-25.69381067500001],[-53.843012276000024,-25.711866298000018],[-53.8430123,-25.71742187199999],[-53.84301238699999,-25.737699716999998],[-53.84329021999997,-25.75019975700002],[-53.84329027299998,-25.762422018999985],[-53.84329032599999,-25.774922059999994],[-53.830790304999994,-25.79158882500002],[-53.82106811599999,-25.816311163000023],[-53.82106816999999,-25.828811202999987],[-53.828568313000005,-25.849089020999998],[-53.834957298000006,-25.86020014600001],[-53.834957352,-25.87270018700002],[-53.82745734399998,-25.883811361000028],[-53.822735135000016,-25.895200303000024],[-53.81273511799998,-25.908533716000022],[-53.812735171999975,-25.921033755999986],[-53.81273527000002,-25.94353382999998],[-53.825513231,-25.963811627999974],[-53.823013264999986,-25.976033899000015],[-53.805513222,-25.996311805000005],[-53.79190203799999,-26.002978541000004],[-53.77162413299999,-26.008811965999996],[-53.75801294399997,-26.01436758699998],[-53.74801291699998,-26.025478770000007],[-53.74301296300001,-26.044645516999992],[-53.740513023000005,-26.06270114],[-53.73579091200003,-26.096312377000004],[-53.728290973000014,-26.123256934999972],[-53.71829098699999,-26.14353481500001],[-53.70579098100001,-26.16381270300002],[-53.69606877000001,-26.182979466000006],[-53.69106878600002,-26.19520174600001],[-53.688568929999974,-26.232424096999978],[-53.68356895699998,-26.247146385000008],[-53.68134680100002,-26.26603534200001],[-53.681346856000005,-26.27853538300002],[-53.68495801900002,-26.284090943000024],[-53.68523588300002,-26.303257670999983],[-53.68523601200002,-26.332424430999993],[-53.691624999,-26.343813334000004],[-53.70051403399998,-26.361591137000005],[-53.71579202100003,-26.382980039000017],[-53.72218102400001,-26.397702286000026],[-53.722181122999984,-26.420202357999983],[-53.719681200000025,-26.441591324],[-53.71968128999998,-26.461869166999975],[-53.73245924399998,-26.479924734000008],[-53.738848206,-26.485480284000005],[-53.745237218,-26.502424759000007],[-53.745237308000014,-26.522424822999994],[-53.745515173,-26.54159155000002],[-53.74301524499998,-26.561869401000024],[-53.74051525599998,-26.56853609799998],[-53.74051534199998,-26.587702825000008],[-53.740793252,-26.616869582999982],[-53.747182295000016,-26.64048074599998],[-53.742182344000014,-26.659647490999987],[-53.73468238800001,-26.68214759],[-53.73218246099998,-26.702425441000003],[-53.72996033800001,-26.728258863999997],[-53.72246045899999,-26.767703460000007],[-53.71496049899997,-26.789092443000015],[-53.70523833599998,-26.818259237000007],[-53.69773839599998,-26.844092679000028],[-53.68746059699998,-26.85659275500001],[-53.682738434999976,-26.87770395000001],[-53.682738497,-26.891315104],[-53.696627568,-26.908259551000015],[-53.70301656100003,-26.920481788000018],[-53.70940562099997,-26.947426292999978],[-53.71718356500003,-26.971037448999994],[-53.74773955799998,-27.016037476999998],[-53.75412855799999,-27.029648607000013],[-53.766906525000024,-27.049926400999993],[-53.787184518000004,-27.063259700999993],[-53.79635133199997,-27.08020416400001],[-53.802740418999974,-27.112704241000017],[-53.80274047099999,-27.124093164999977],[-53.800518340999986,-27.14770435700001],[-53.81440736600001,-27.154370992999986],[-53.820796293,-27.152148739999973],[-53.841074171,-27.140759742],[-53.856074275000026,-27.138537456999984],[-53.86996326899998,-27.13853740600001],[-53.891630150000026,-27.149648470999978],[-53.89801911500001,-27.155481798999972],[-53.92607491299998,-27.162148381999998],[-53.965241881,-27.163259351000022],[-53.978019846999985,-27.183259365000026],[-53.98440885299999,-27.19798160900001],[-53.999409033000006,-27.212426042000004],[-54.00163126199999,-27.210203804000002],[-54.04579839600001,-27.239092616999983],[-54.05468738299999,-27.245759270999997],[-54.06746525699998,-27.245759222999993],[-54.07385421999999,-27.251314772],[-54.09774334999997,-27.264370278],[-54.118021306,-27.26992577499999],[-54.14191036300002,-27.267425678999984],[-54.15691046500001,-27.26492561499998],[-54.175799453000025,-27.255758850000007],[-54.18218834700002,-27.24659213199999],[-54.194688410000026,-27.239925399000015],[-54.207466307999994,-27.245203145000005],[-54.21385534500001,-27.266592074000016],[-54.21385537100002,-27.272147646999997],[-54.22024436100003,-27.283536545999993],[-54.22663335499999,-27.295758781000018],[-54.233022344000005,-27.306869902000017],[-54.24580032900002,-27.33048103599998],[-54.245800385999985,-27.34270329499998],[-54.245800492,-27.36520336199999],[-54.254689446999976,-27.365203328999996],[-54.279967466000016,-27.37603660000002],[-54.28635642900002,-27.38159214799998],[-54.28635646700002,-27.389647728],[-54.29913443999999,-27.410758853999994],[-54.305523333999986,-27.401592135999977],[-54.31163444399999,-27.391592084000024],[-54.34830134600003,-27.38325858799999],[-54.354690335999976,-27.394369708],[-54.35496819000002,-27.410203087000014],[-54.352468251000005,-27.427147591999983],[-54.365246171000024,-27.436869795000007],[-54.373857336000015,-27.43464753400002],[-54.38024624000002,-27.427703044999987],[-54.38635731199997,-27.409647412000027],[-54.39885731999999,-27.391591756000025],[-54.412746239,-27.375758324000003],[-54.44052424900002,-27.381036013000028],[-54.454413305,-27.394369332999986],[-54.47969126999999,-27.393813680999983],[-54.49385806800001,-27.399369200000024],[-54.49135811399998,-27.412980360999995],[-54.48385811200001,-27.42436931200001],[-54.47135813,-27.447980540000003],[-54.49052499300001,-27.45909161100002],[-54.513025148999986,-27.45659151900003],[-54.52830306599998,-27.46186925500001],[-54.548580973000014,-27.45714694200001],[-54.562192089999996,-27.43686905300001],[-54.57496992,-27.42770231100002],[-54.58747001199998,-27.427424486000007],[-54.602747928999975,-27.432702221],[-54.616637000000026,-27.449368885000013],[-54.623303792,-27.465202239000007],[-54.623303894,-27.486591191000002],[-54.629970705000005,-27.506591223999976],[-54.64385975099998,-27.517702315000008],[-54.65774874300001,-27.51770226299999],[-54.664137649,-27.511313330999997],[-54.67024875999999,-27.501591056999985],[-54.676637658999994,-27.493813233000026],[-54.68274876200002,-27.482424287000015],[-54.696637753000005,-27.48214645600001],[-54.70441567300003,-27.499924255999986],[-54.70219349400003,-27.51242430100001],[-54.699693534999994,-27.524924347000024],[-54.69997143299997,-27.54964663999999],[-54.71247152500001,-27.54936881399999],[-54.724971563,-27.537979844999995],[-54.73136047899999,-27.533535363],[-54.745249436999984,-27.52631306799998],[-54.75274949200002,-27.526313039],[-54.765527444999975,-27.542979705999983],[-54.77830534399999,-27.54853522899998],[-54.79719431799998,-27.536868457000026],[-54.79691647499999,-27.52353508599998],[-54.796916409999994,-27.509923935000018],[-54.80941650099999,-27.509646109000016],[-54.828861201999985,-27.532979436000005],[-54.828861261999975,-27.545479473],[-54.83525025099999,-27.55659059200002],[-54.84830600999999,-27.578812828000025],[-54.856083899,-27.589923941999984],[-54.869972949999976,-27.602146146999985],[-54.890528743000004,-27.61992389699998],[-54.90469565400002,-27.648812814999985],[-54.911362499999996,-27.675757310999984],[-54.918029330000024,-27.69936846500002],[-54.93219620999997,-27.72159069600002],[-54.939974071999984,-27.72714623799999],[-54.95914094599999,-27.74047953600001],[-54.965529941,-27.752701768999998],[-54.97219673799998,-27.769368456999985],[-55.027752636,-27.754923759000008],[-55.049141650000024,-27.74797921200002],[-55.06303064000002,-27.747701381000013],[-55.076086379,-27.765479158999995],[-55.076086444,-27.778812529999982],[-55.071086434999984,-27.784645898999997],[-55.06108641600002,-27.796034857999985],[-55.03858630600001,-27.80770164400002],[-55.04497532900001,-27.82547944800001],[-55.07025325500001,-27.817423771999984],[-55.07664215699998,-27.810479283999996],[-55.109697976999996,-27.814368057000024],[-55.116087005,-27.833256973999994],[-55.11636481300002,-27.839090322999994],[-55.116364867000016,-27.850201464999998],[-55.129420579,-27.862423671999977],[-55.13553172500002,-27.86020141900002],[-55.141920648999985,-27.85770138800001],[-55.15442069699998,-27.848534647000008],[-55.16053177600003,-27.832701246],[-55.16803178700002,-27.823534524000024],[-55.18192076600002,-27.82103446399998],[-55.20358759099997,-27.820478822999974],[-55.20997655399998,-27.826034370000002],[-55.22275445899999,-27.83270100599998],[-55.22942126700002,-27.851589922000016],[-55.236088048,-27.864923266999995],[-55.24247706699998,-27.881867734000025],[-55.25025493499999,-27.88853438899997],[-55.266921749999995,-27.893812118000028],[-55.28219963999999,-27.893534279999983],[-55.297199749000015,-27.893256442999984],[-55.31386656500001,-27.898534170999994],[-55.32803337299998,-27.906034137000006],[-55.34081132099999,-27.921589686999994],[-55.341089157,-27.932978606000006],[-55.34136699099997,-27.94408974700002],[-55.347755982000024,-27.955200864000005],[-55.35442278099998,-27.97214532999999],[-55.354700616,-27.983256470000015],[-55.35497848,-28.000478739000016],[-53.000516205999986,-28.00048773200001],[-53.00050538400001,-25.58381324999999],[-53.867172118999974,-24.00047149599999]]]},"properties":{"ID_PROJETO":"4053","ID_SERIE":4000,"SHAPE.AREA":4.1712256832579095,"SHAPE.LEN":13.991140828929499,"OBJECTID":63109,"TITULO":"Borda Oeste da Bacia do Paraná (Bloco Leste/Sul)","METODOS":"Magnetometria","ALTURA_VOO_M":"1000","AREA_LEVANTADA_KM2":"59270","QUILOMETRAGEM_VOADA_KM":"20244","DIRECAO_LV":"N-S","DIRECAO_LC":"E-W","ESPACAMENTO_LV_M":"3000","ESPACAMENTO_LC_KM":"18","SERIE":"Projetos conduzidos pelo Conselho Nacional do Petróleo (CNP) e pela Petróleo Brasileiro S.A. (PETROBRAS)","DISPONIBILIZACAO":null,"IMAGENS":"https://reate.cprm.gov.br/anp/TERRESTRE","INTERVALO":"100 m","CONTRATANTE":"Petrobras","CONTRATADA":"Consórcio PROSPEC/ENCAL/LASA","ANO_PROJETO":"1989","DECADA":"1980","ANO_CONCLUSAO":"1990","LOCALIZACAO":"Bacia do Paraná","SITUACAO":"Público","__atlas_serie_layer":3,"__atlas_fonte_servico":"https://geoportal.sgb.gov.br/server/rest/services/geofisica/aerogeofisica/MapServer/3","__atlas_modulos":"AM","__atlas_espacamento_lv_m":3000.0,"__atlas_snapshot":"2026-08-14"}},{"type":"Feature","id":63112,"geometry":{"type":"Polygon","coordinates":[[[-54.00048589300002,-17.75044636199999],[-54.00049242199998,-20.000455879000015],[-53.800490990000014,-20.000456434],[-53.40048392699998,-18.583784847999993],[-53.000481279999974,-18.66711957199999],[-53.000479439,-18.000449946000003],[-52.000472159000026,-18.000452402000008],[-52.000471499000014,-17.750451243999976],[-54.00048589300002,-17.75044636199999]]]},"properties":{"ID_PROJETO":"4056","ID_SERIE":4000,"SHAPE.AREA":1.66668599797336,"SHAPE.LEN":8.24735578900817,"OBJECTID":63112,"TITULO":"Serra das Araras","METODOS":"Magnetometria","ALTURA_VOO_M":"1200","AREA_LEVANTADA_KM2":"20230","QUILOMETRAGEM_VOADA_KM":"8220","DIRECAO_LV":"N-S","DIRECAO_LC":"E-W","ESPACAMENTO_LV_M":"3000","ESPACAMENTO_LC_KM":"15","SERIE":"Projetos conduzidos pelo Conselho Nacional do Petróleo (CNP) e pela Petróleo Brasileiro S.A. (PETROBRAS)","DISPONIBILIZACAO":null,"IMAGENS":"https://reate.cprm.gov.br/anp/TERRESTRE","INTERVALO":"100 m","CONTRATANTE":"Petrobras","CONTRATADA":"Consórcio PROSPEC/ENCAL/LASA","ANO_PROJETO":"1991","DECADA":"1990","ANO_CONCLUSAO":"1991","LOCALIZACAO":"Bacia do Paraná","SITUACAO":"Público","__atlas_serie_layer":3,"__atlas_fonte_servico":"https://geoportal.sgb.gov.br/server/rest/services/geofisica/aerogeofisica/MapServer/3","__atlas_modulos":"AM","__atlas_espacamento_lv_m":3000.0,"__atlas_snapshot":"2026-08-14"}},{"type":"Feature","id":63113,"geometry":{"type":"Polygon","coordinates":[[[-49.00044883700002,-17.75045828399999],[-50.25045657099997,-17.000451697000017],[-50.75046033299998,-17.000450571999977],[-50.75046221000002,-17.750454219000005],[-52.000471499000014,-17.750451243999976],[-52.000475623,-19.250458062999996],[-51.250470027999995,-19.25046000100002],[-51.25047221400001,-20.000463364999973],[-51.00047032200001,-20.00046402999999],[-51.000473382999985,-21.00046842400002],[-50.00046567700002,-21.000471181000023],[-50.00046609200001,-21.133805107],[-49.00046027299999,-21.78381076300002],[-49.00044883700002,-17.75045828399999]]]},"properties":{"ID_PROJETO":"4057","ID_SERIE":4000,"SHAPE.AREA":9.48969949162537,"SHAPE.LEN":14.5671748731371,"OBJECTID":63113,"TITULO":"Nordeste da Bacia do Paraná (Bloco Oeste)","METODOS":"Magnetometria","ALTURA_VOO_M":"1400","AREA_LEVANTADA_KM2":"117770","QUILOMETRAGEM_VOADA_KM":"46461","DIRECAO_LV":"N-S","DIRECAO_LC":"E-W","ESPACAMENTO_LV_M":"3000","ESPACAMENTO_LC_KM":"15","SERIE":"Projetos conduzidos pelo Conselho Nacional do Petróleo (CNP) e pela Petróleo Brasileiro S.A. (PETROBRAS)","DISPONIBILIZACAO":null,"IMAGENS":"https://reate.cprm.gov.br/anp/TERRESTRE","INTERVALO":"100 m","CONTRATANTE":"Petrobras","CONTRATADA":"Consórcio PROSPEC/ENCAL/LASA","ANO_PROJETO":"1991","DECADA":"1990","ANO_CONCLUSAO":"1992","LOCALIZACAO":"Bacia do Paraná","SITUACAO":"Público","__atlas_serie_layer":3,"__atlas_fonte_servico":"https://geoportal.sgb.gov.br/server/rest/services/geofisica/aerogeofisica/MapServer/3","__atlas_modulos":"AM","__atlas_espacamento_lv_m":3000.0,"__atlas_snapshot":"2026-08-14"}},{"type":"Feature","id":63152,"geometry":{"type":"Polygon","coordinates":[[[-53.43048355500002,-18.549228527000025],[-54.15855210299998,-20.935736948],[-51.697058303000006,-21.594934191999982],[-51.00648973900002,-19.202591772000005],[-53.43048355500002,-18.549228527000025]]]},"properties":{"ID_PROJETO":"4016","ID_SERIE":4000,"SHAPE.AREA":6.302265905964239,"SHAPE.LEN":10.0438510522419,"OBJECTID":63152,"TITULO":"Arco de Campo Grande","METODOS":"Magnetometria","ALTURA_VOO_M":"1800","AREA_LEVANTADA_KM2":"70200","QUILOMETRAGEM_VOADA_KM":"27920","DIRECAO_LV":"N15E","DIRECAO_LC":"N75W","ESPACAMENTO_LV_M":"3000","ESPACAMENTO_LC_KM":"18","SERIE":"Projetos conduzidos pelo Conselho Nacional do Petróleo (CNP) e pela Petróleo Brasileiro S.A. (PETROBRAS)","DISPONIBILIZACAO":null,"IMAGENS":"https://reate.cprm.gov.br/anp/TERRESTRE","INTERVALO":"100 m","CONTRATANTE":"Petrobras","CONTRATADA":"ENCAL S.A  - Consultoria e Aerolevantamentos","ANO_PROJETO":"1979","DECADA":"1970","ANO_CONCLUSAO":"1979","LOCALIZACAO":"Bacia do Paraná","SITUACAO":"Público","__atlas_serie_layer":3,"__atlas_fonte_servico":"https://geoportal.sgb.gov.br/server/rest/services/geofisica/aerogeofisica/MapServer/3","__atlas_modulos":"AM","__atlas_espacamento_lv_m":3000.0,"__atlas_snapshot":"2026-08-14"}},{"type":"Feature","id":63153,"geometry":{"type":"Polygon","coordinates":[[[-54.000502626000014,-23.000467474000004],[-54.00050643399999,-24.00047105599998],[-50.00047583100002,-24.000483873000007],[-50.000472253,-23.000479788000007],[-54.000502626000014,-23.000467474000004]]]},"properties":{"ID_PROJETO":"4025","ID_SERIE":4000,"SHAPE.AREA":4.00004582216328,"SHAPE.LEN":10.0000686430531,"OBJECTID":63153,"TITULO":"Rio Ivaí","METODOS":"Magnetometria","ALTURA_VOO_M":"450","AREA_LEVANTADA_KM2":"48840","QUILOMETRAGEM_VOADA_KM":"25726","DIRECAO_LV":"N-S","DIRECAO_LC":"E-W","ESPACAMENTO_LV_M":"2000","ESPACAMENTO_LC_KM":"20","SERIE":"Projetos conduzidos pelo Conselho Nacional do Petróleo (CNP) e pela Petróleo Brasileiro S.A. (PETROBRAS)","DISPONIBILIZACAO":null,"IMAGENS":"https://reate.cprm.gov.br/anp/TERRESTRE","INTERVALO":"66 m","CONTRATANTE":"PAULIPETRO - Consórcio CESP/IPT","CONTRATADA":"LASA Engenharia e Prospecções S.A.","ANO_PROJETO":"1981","DECADA":"1980","ANO_CONCLUSAO":"1981","LOCALIZACAO":"Bacia do Paraná","SITUACAO":"Público","__atlas_serie_layer":3,"__atlas_fonte_servico":"https://geoportal.sgb.gov.br/server/rest/services/geofisica/aerogeofisica/MapServer/3","__atlas_modulos":"AM","__atlas_espacamento_lv_m":2000.0,"__atlas_snapshot":"2026-08-14"}}],"atlas_metadata":{"id":"levantamentos_geofisicos_cobertura_ms","fonte":"SGB · Aerogeofísica · séries 1000–4000","corte":"2026-08-14","sha256_snapshot":"5c10fdf1ebf17244ba3af148677a0ec088b5bdf4423f7e810000f162efc2f9ec","regra":"geometrias-fonte preservadas. O IGF avalia apenas suportes dentro das malhas de Mato Grosso do Sul."}}
