{"type":"FeatureCollection","features":[{"type":"Feature","properties":{"code":"SE.21-Y-D","name":"Corumbá","scale":250000,"year":2001,"source":"SGB/CPRM · PLGB Corumbá, Aldeia Tomázia e Porto Murtinho","extent_wgs84":[-58.5,-20,-57,-19],"area_em_ms_km2":11085.445,"regra_geometria":"extensão oficial da folha pela nomenclatura cartográfica sistemática, recortada ao limite de MS"},"geometry":{"type":"Polygon","coordinates":[[[-57,-19],[-57,-20],[-57.874466299271326,-20],[-57.86999149999999,-19.99360548581978],[-57.867581970040035,-19.990563448518518],[-57.86683609999991,-19.989621785820116],[-57.86539640000001,-19.98656498582019],[-57.86399620000001,-19.981181085820563],[-57.8630143999999,-19.97896068582074],[-57.861659200000005,-19.975895785820743],[-57.8607322999999,-19.97428848582085],[-57.85931239999999,-19.972079685821004],[-57.8590991,-19.97174688582113],[-57.86001220000001,-19.971032885821135],[-57.860536800000006,-19.970627185821137],[-57.8656741999999,-19.966622585821302],[-57.87615759999991,-19.958408185821835],[-57.90878698683236,-19.93275301907717],[-57.9311906999999,-19.91513788582427],[-57.9979681999999,-19.863249985827476],[-58.01739628673613,-19.84812351640802],[-58.0646821999999,-19.811307285830917],[-58.1312679,-19.75945668583441],[-58.13138299999999,-19.759361285834537],[-58.114302625578986,-19.72387439603259],[-58.0890510999999,-19.671410785840905],[-58.06435274095701,-19.620026537234686],[-58.058550430403464,-19.60795499161278],[-58.0516916,-19.593685385847184],[-58.0316372,-19.552531585850648],[-58.01823519999991,-19.523901785853138],[-58.006714699999996,-19.499956985855096],[-58.0009135999999,-19.487059985856288],[-57.99380242908404,-19.472429606082915],[-57.96554230000001,-19.41428778586307],[-57.926243599225266,-19.332466742832548],[-57.8878845999999,-19.25260218587937],[-57.8853948,-19.247530885879915],[-57.878395899999994,-19.23294288588152],[-57.873492600000006,-19.222887085882604],[-57.8635295,-19.202022085884874],[-57.8588985469404,-19.192428568312923],[-57.855749599999996,-19.185905185886643],[-57.85435019999989,-19.182920485886985],[-57.8309841999999,-19.134379685892497],[-57.8092417,-19.089066485897664],[-57.791620100149075,-19.052398330800884],[-57.78329200000001,-19.035068685904264],[-57.7698912,-19.033905185904345],[-57.7430482,-19.03371818590442],[-57.723508,-19.034746585904216],[-57.71992959999991,-19.03470488590435],[-57.713473,-19.034684285904316],[-57.710446299999894,-19.03466238590421],[-57.7103620999999,-19.034631685904312],[-57.7103215,-19.034537585904324],[-57.7103523,-19.034453185904344],[-57.71030390000001,-19.034397285904376],[-57.7101241,-19.034381085904332],[-57.7100028999999,-19.034302685904372],[-57.709911000000005,-19.034103285904397],[-57.7099193999999,-19.033905885904435],[-57.7100176,-19.03376878590444],[-57.7102409999999,-19.033566285904467],[-57.7103473999999,-19.033392285904345],[-57.7103759999999,-19.033251985904393],[-57.7103059,-19.033135185904406],[-57.71015529999989,-19.033007885904517],[-57.71003820000001,-19.032838485904552],[-57.7100566,-19.032633885904563],[-57.710113699999994,-19.032433985904568],[-57.710113699999994,-19.032366385904517],[-57.7100882,-19.03218568590465],[-57.7098617999999,-19.031805485904684],[-57.7098358,-19.031672985904713],[-57.70970599999999,-19.031343185904724],[-57.709765699999906,-19.03117698590475],[-57.70975270000001,-19.031057485904764],[-57.7095937999999,-19.030849785904717],[-57.7092696999999,-19.03060948590481],[-57.7092476,-19.03048488590486],[-57.7091761999999,-19.03043288590475],[-57.7090944,-19.030404385904806],[-57.7091315,-19.030382385904833],[-57.7091905999999,-19.030347985904754],[-57.70935550000001,-19.03012458590486],[-57.7093328,-19.030059685904916],[-57.70909959999991,-19.029797985904903],[-57.709016500000004,-19.029704485904933],[-57.7087152,-19.029299285904877],[-57.7084659,-19.028966885904953],[-57.70828929999989,-19.028701985905062],[-57.7082477,-19.028525385905095],[-57.7082789,-19.028333185905083],[-57.7083984,-19.028063085905025],[-57.708424299999905,-19.027792985905133],[-57.7083724,-19.027652785905076],[-57.7080245,-19.02729378590513],[-57.7078609,-19.02718348590527],[-57.70767130000001,-19.027127585905234],[-57.7075272,-19.02692378590526],[-57.7075389,-19.026622485905303],[-57.7077283,-19.025990685905366],[-57.707744100000006,-19.025765485905403],[-57.70765579999989,-19.02559668590531],[-57.7072712,-19.025107685905486],[-57.7069753,-19.024957785905517],[-57.7063051,-19.024837585905523],[-57.706066199999995,-19.02458828590544],[-57.705983100000005,-19.02429738590561],[-57.7060246999999,-19.023912985905568],[-57.70595189999991,-19.02360138590567],[-57.7056611,-19.02330008590575],[-57.70521439999991,-19.022998885905643],[-57.7043522,-19.0225625859058],[-57.7040405,-19.02221978590581],[-57.7039366,-19.02181458590588],[-57.7043002,-19.021471785905963],[-57.7045807,-19.021139385906],[-57.7046210999999,-19.020818085905912],[-57.7044562,-19.02046488590607],[-57.7040225,-19.020183085905977],[-57.7039159999999,-19.02016878590611],[-57.7036328999999,-19.019922085906135],[-57.7034381999999,-19.01981688590615],[-57.7033342999999,-19.01970398590604],[-57.70334079999999,-19.019549385906153],[-57.703309600000004,-19.01946498590617],[-57.7030551,-19.019301385906218],[-57.7029810999999,-19.01915858590619],[-57.702816199999994,-19.019053385906226],[-57.70265649999989,-19.01900278590627],[-57.7020044,-19.018448885906327],[-57.701942099999904,-19.018261885906348],[-57.7019837,-19.017939785906382],[-57.7022396,-19.017160185906484],[-57.702237000000004,-19.016838085906503],[-57.7021228,-19.016656285906535],[-57.7015473,-19.016288085906496],[-57.701349999999906,-19.01613228590658],[-57.70102789999999,-19.01594528590655],[-57.7005604999999,-19.015841385906544],[-57.7003112,-19.01572718590664],[-57.6998644999999,-19.01534278590657],[-57.6994074,-19.014709085906663],[-57.698701,-19.01356638590682],[-57.6982647,-19.012589885907047],[-57.6980154,-19.011779585907128],[-57.69769329999999,-19.011312185907208],[-57.6973401,-19.01106288590723],[-57.6968414999999,-19.01090698590726],[-57.6951377999999,-19.010803185907136],[-57.6934472,-19.011070585907216],[-57.6925886,-19.010756485907258],[-57.6925653,-19.010730185907292],[-57.6925558999999,-19.01071458590729],[-57.6925371,-19.01069088590717],[-57.69251369999989,-19.01066558590727],[-57.6923305999999,-19.010435785907276],[-57.6921874,-19.010271185907303],[-57.6920277,-19.009758885907384],[-57.692241,-19.009321585907422],[-57.6934408,-19.008698285907435],[-57.6944068999999,-19.008371085907537],[-57.695373,-19.008246385907576],[-57.6972585,-19.008215285907557],[-57.698318099999895,-19.007919185907507],[-57.6992686,-19.00682848590762],[-57.699782799999994,-19.00561298590787],[-57.6999231,-19.004584585907924],[-57.6994711999999,-19.002730285908164],[-57.6990193,-19.00184208590837],[-57.6981311,-19.00086038590849],[-57.69758117374324,-19],[-57,-19]]]}},{"type":"Feature","properties":{"code":"SF.21-V-B","name":"Aldeia Tomázia","scale":250000,"year":2001,"source":"SGB/CPRM · PLGB Corumbá, Aldeia Tomázia e Porto Murtinho","extent_wgs84":[-58.5,-21,-57,-20],"area_em_ms_km2":11496.46,"regra_geometria":"extensão oficial da folha pela nomenclatura cartográfica sistemática, recortada ao limite de MS"},"geometry":{"type":"Polygon","coordinates":[[[-57,-20],[-57,-21],[-57.83575010409223,-21],[-57.83331969999989,-20.997278985800115],[-57.829645399999904,-20.992705285800138],[-57.82783009999999,-20.990277085800102],[-57.82700140000001,-20.989168685800013],[-57.8236858,-20.98585058579998],[-57.8204959,-20.983372185800025],[-57.817529500000006,-20.98058248579999],[-57.8174557999999,-20.97998508579999],[-57.8172706,-20.97848198579989],[-57.8190334,-20.976143385799908],[-57.8222335,-20.972102285799902],[-57.8243125,-20.96829198579983],[-57.8252691,-20.965240985799696],[-57.82476170000001,-20.961570085799753],[-57.82425510000001,-20.95800448579969],[-57.82298049999999,-20.955604985799553],[-57.820901499999906,-20.95216608579952],[-57.818817800000005,-20.9484121857996],[-57.81876909999989,-20.945259585799466],[-57.8191704,-20.942100485799514],[-57.81978129999991,-20.937995585799456],[-57.82165559999999,-20.935554085799346],[-57.82489330000001,-20.933932885799354],[-57.82871859999991,-20.933878885799437],[-57.8321104999999,-20.934882285799482],[-57.8337061,-20.936280985799474],[-57.8355333,-20.937882885799507],[-57.8380425,-20.940055785799476],[-57.8416824999999,-20.942846385799527],[-57.8444332,-20.94648938579958],[-57.84751060000001,-20.947618385799593],[-57.8507756,-20.94881628579962],[-57.85091020000001,-20.948830885799588],[-57.8567535999999,-20.949468285799604],[-57.8636023999999,-20.94884948579949],[-57.8671813999999,-20.946735685799553],[-57.8715161,-20.94352428579955],[-57.8746115,-20.9398030857994],[-57.876115899999895,-20.935262885799336],[-57.877598299999896,-20.929462885799367],[-57.879786800000005,-20.91860998579918],[-57.881525599999996,-20.914695985799153],[-57.883623030801346,-20.91216109265507],[-57.88653109999999,-20.908646485799213],[-57.8924259,-20.904466285799174],[-57.89768070000001,-20.90250188579908],[-57.90216680000001,-20.901810685799003],[-57.907471900000004,-20.90310198579904],[-57.91130450000001,-20.903572085799137],[-57.916491999999906,-20.904549785799045],[-57.921888399999894,-20.904473385799164],[-57.9262363999999,-20.90273338579904],[-57.9281132,-20.900184085799026],[-57.9289443,-20.895229785799103],[-57.92651140000001,-20.89191218579906],[-57.9219735999999,-20.888712185798937],[-57.9182901999999,-20.885931585798915],[-57.9146431,-20.88345878579899],[-57.911014699999996,-20.882037185798982],[-57.90807729999991,-20.88123778579896],[-57.90433419999991,-20.87898038579889],[-57.9016043,-20.876813285798935],[-57.8984277,-20.874658885798826],[-57.89669859999999,-20.87352618579896],[-57.894790900000004,-20.872272685798837],[-57.89194009999989,-20.870119585798932],[-57.88983910000001,-20.868128385798805],[-57.8840564,-20.86250518579875],[-57.876993000000006,-20.856563585798842],[-57.8726808,-20.853899985798833],[-57.8695155999999,-20.853494785798798],[-57.86648610000001,-20.853850685798843],[-57.86232319999989,-20.853598585798736],[-57.85789640000001,-20.850927985798776],[-57.85500019999989,-20.845504785798777],[-57.854029599999905,-20.841106985798746],[-57.854733,-20.83573778579864],[-57.8559021999999,-20.833031685798627],[-57.8573362,-20.829712985798768],[-57.8593969,-20.824855685798642],[-57.8634708,-20.819392185798687],[-57.86810299999999,-20.815184685798712],[-57.87154120000001,-20.81102348579871],[-57.8738420999999,-20.807206385798583],[-57.876834699999996,-20.804429385798574],[-57.88453439999991,-20.79877928579864],[-57.88985269999989,-20.793768585798663],[-57.8932904,-20.79078238579862],[-57.8988737,-20.788700985798567],[-57.9059435,-20.78807998579867],[-57.911013099999906,-20.788955785798542],[-57.913729200000006,-20.79017828579866],[-57.9175921999999,-20.792536685798648],[-57.9222397999999,-20.794781185798588],[-57.93004089999991,-20.797823785798524],[-57.9351526,-20.799276985798667],[-57.9360245999999,-20.799524885798576],[-57.936599300000005,-20.799667485798558],[-57.94122719999999,-20.80081588579864],[-57.9470408,-20.800524085798656],[-57.9515378,-20.800354285798658],[-57.9558019999999,-20.79890778579854],[-57.9594916999999,-20.797908585798684],[-57.961355399999896,-20.79504598579865],[-57.96176530000001,-20.792624285798578],[-57.9609480999999,-20.790536185798675],[-57.9587559,-20.78699628579853],[-57.9569294999999,-20.784502485798644],[-57.9562283,-20.78362488579856],[-57.9539411,-20.780762285798524],[-57.9524092999999,-20.77626558579856],[-57.95143886688031,-20.772690821558378],[-57.95132970000001,-20.772288685798532],[-57.949525400000006,-20.765276485798662],[-57.9461623999999,-20.758489685798565],[-57.941452500000004,-20.752251985798576],[-57.9367789,-20.748329585798693],[-57.9341542999999,-20.745954485798716],[-57.930381000000004,-20.74485348579868],[-57.92678111698803,-20.744358070636096],[-57.92553939999989,-20.744187185798594],[-57.9203691,-20.7439441857986],[-57.9145377,-20.744659485798703],[-57.9087135,-20.74568608579858],[-57.9032238999999,-20.7466036857987],[-57.89638779999999,-20.747746285798677],[-57.8895563,-20.748587185798673],[-57.88406080000001,-20.749179285798693],[-57.87891139999989,-20.75051678579869],[-57.87351610000001,-20.750798285798613],[-57.8680031,-20.749410085798676],[-57.86468539999999,-20.746404185798667],[-57.8648347,-20.742298685798566],[-57.8681975,-20.735475485798602],[-57.868797399999906,-20.730846385798703],[-57.870173,-20.72547058579866],[-57.874524400000006,-20.71881968579877],[-57.87807020000001,-20.713703185798696],[-57.8822628,-20.70912688579874],[-57.88636000000001,-20.70549918579888],[-57.8940851999999,-20.696978185798834],[-57.8979629999999,-20.693668085798905],[-57.903288200000006,-20.68982058579893],[-57.9073935,-20.68212748579898],[-57.90843619999999,-20.680082785799037],[-57.9112731,-20.674996885798926],[-57.913674899999904,-20.670764085798965],[-57.91693683247693,-20.667834406718328],[-57.91707669999991,-20.66770878579908],[-57.9185429999999,-20.6663918857991],[-57.923118900000006,-20.664533785799122],[-57.9291759,-20.664024985799124],[-57.93313899999999,-20.666070685799138],[-57.934026149484694,-20.667027339499924],[-57.936794600000006,-20.670012685799076],[-57.94119419999999,-20.678935685798994],[-57.94513920000001,-20.686178285798864],[-57.9469877,-20.69003818579885],[-57.948419999999906,-20.694639785798817],[-57.950181,-20.698295085798772],[-57.95317970000001,-20.701845085798883],[-57.9536037,-20.702339885798875],[-57.958246700000004,-20.70489818579879],[-57.9666228,-20.704272585798847],[-57.9746309,-20.706258285798746],[-57.97699249999991,-20.706434185798773],[-57.9810272999999,-20.705746085798733],[-57.985146,-20.703479585798842],[-57.9878879999999,-20.69955158579879],[-57.988908699999996,-20.694178185798894],[-57.98822870000001,-20.686729085798927],[-57.9853457,-20.68160338579898],[-57.9846362,-20.680344385798985],[-57.9811872,-20.674744785798946],[-57.9807183999999,-20.673596085798984],[-57.977747799999996,-20.66761068579911],[-57.97456360000001,-20.658410485799077],[-57.97303110000001,-20.652638285799238],[-57.9727583,-20.65161088579927],[-57.9709985,-20.647333685799175],[-57.97077788054301,-20.646201989028754],[-57.97038599999999,-20.64419178579921],[-57.97125270000001,-20.642182185799292],[-57.974588399999995,-20.640029485799346],[-57.97870929999989,-20.638291685799352],[-57.98475830000001,-20.636723085799268],[-57.9903343999999,-20.634116285799383],[-57.9955743,-20.63172638579933],[-57.99910129999991,-20.628743285799324],[-58.0007542,-20.627039785799468],[-58.00240159999999,-20.625203685799363],[-58.0033988,-20.624092185799466],[-58.005689282096746,-20.62138150252161],[-58.0068138,-20.620050685799548],[-58.010785899999995,-20.61621128579955],[-58.01263790000001,-20.61261148579961],[-58.0131282999999,-20.608296385799697],[-58.0127277,-20.604626585799732],[-58.011166499999895,-20.598556885799674],[-58.0066325999999,-20.588953585799896],[-58.004891641327845,-20.58665317100373],[-58.003878900000004,-20.58531498579998],[-58.002076200000005,-20.582911985799967],[-57.998634799999905,-20.578549085800056],[-57.9970130999999,-20.575525885799983],[-57.9971829,-20.572371385800132],[-57.9987184999999,-20.57014248580017],[-57.999918699999995,-20.5680233858002],[-58.00125189999991,-20.565736585800227],[-58.0017721,-20.56484438580021],[-58.0028472,-20.56230858580018],[-58.0034825,-20.560304885800214],[-58.0040081,-20.558302285800323],[-58.00421928686567,-20.557379656446653],[-58.00463529999999,-20.5555621858003],[-58.0052772999999,-20.55366178580032],[-58.0066737,-20.54768218580042],[-58.0103495,-20.53953928580054],[-58.0126213999999,-20.53494398580063],[-58.013395699999904,-20.53337728580067],[-58.013805124850215,-20.532501142342525],[-58.015656,-20.52854038580073],[-58.017699999999905,-20.522830985800834],[-58.0199142,-20.514393085800986],[-58.020175499999894,-20.509762985801196],[-58.019466800000004,-20.507564885801173],[-58.018976099999996,-20.505924785801145],[-58.018131700000005,-20.5031027858013],[-58.0172370999999,-20.496917185801333],[-58.0167949999999,-20.490725585801567],[-58.0155952,-20.486226985801505],[-58.013596400000004,-20.480264185801733],[-58.00979160000001,-20.474014985801883],[-58.006783399999996,-20.4684897858019],[-58.0047139,-20.465580885802062],[-58.0019237,-20.460897185802168],[-57.9985599999999,-20.455563585802185],[-57.9969071,-20.450755585802405],[-57.99645269999999,-20.443406685802554],[-57.99813820000001,-20.4369736858027],[-58.0013858999999,-20.43073568580286],[-58.00434870000001,-20.426591585802846],[-58.0072226,-20.423068385803028],[-58.0108106,-20.418896985803123],[-58.01574870000001,-20.412624985803166],[-58.0196766,-20.406473985803345],[-58.0218427999999,-20.401924685803433],[-58.0246189,-20.400096285803624],[-58.02786400000001,-20.399627285803607],[-58.033576200000006,-20.399437985803637],[-58.0397354999999,-20.399030985803638],[-58.0434246999999,-20.398239785803572],[-58.047555700000004,-20.39678088580368],[-58.05513659999999,-20.39456908580377],[-58.06100425520455,-20.393356782416575],[-58.0617288,-20.393207085803724],[-58.0671894,-20.391126385803865],[-58.0731903,-20.387988085803933],[-58.0763752,-20.384688385804022],[-58.0790003,-20.380759785804145],[-58.0818313,-20.37588368580429],[-58.084017699999904,-20.37216628580427],[-58.0870217,-20.36627278580441],[-58.09091610000001,-20.35823038580474],[-58.09395640000001,-20.35125968580496],[-58.09569640000001,-20.342924085805105],[-58.09747540000001,-20.33596978580535],[-58.10092589999989,-20.328358085805572],[-58.103050499999895,-20.321168785805895],[-58.10289389999999,-20.31865128580584],[-58.1014613,-20.313653385806145],[-58.0970827,-20.306367585806257],[-58.0947535,-20.301254685806533],[-58.092838899999904,-20.29456028580664],[-58.090773199999894,-20.28503148580698],[-58.0904553,-20.282522885807044],[-58.0897366,-20.276852785807357],[-58.089708,-20.268979485807506],[-58.089814600000004,-20.266385885807644],[-58.089891,-20.264527985807636],[-58.092589800000006,-20.258813185807995],[-58.0926289,-20.258766085807885],[-58.0943336,-20.25671228580798],[-58.0966498,-20.253924985808172],[-58.0988818,-20.25256718580811],[-58.10196679999999,-20.250690585808155],[-58.1040968999999,-20.250107185808208],[-58.10764879999991,-20.249134485808344],[-58.1145824,-20.24871238580824],[-58.1195235,-20.249581585808198],[-58.123362299999904,-20.251306285808226],[-58.12639247026475,-20.25275164063996],[-58.1272016,-20.253137585808076],[-58.127290743251606,-20.25321334642996],[-58.13084189999999,-20.25623138580797],[-58.1329046,-20.258719785807866],[-58.13519239999991,-20.261626885807868],[-58.1355121,-20.262778985807813],[-58.1363737999999,-20.265853385807727],[-58.136855599999905,-20.267452485807535],[-58.1372117999999,-20.26863448580764],[-58.1401666,-20.270794885807447],[-58.1445502999999,-20.271777385807525],[-58.1500247,-20.270432285807573],[-58.15512472597745,-20.267519811359204],[-58.155131599999905,-20.26751588580767],[-58.159397000000006,-20.263848385807798],[-58.1620811,-20.25729298580791],[-58.1630906999999,-20.252654985808086],[-58.163824500000004,-20.24928398580822],[-58.165491,-20.242116185808488],[-58.1664182,-20.23663338580878],[-58.165990399999906,-20.231916685808883],[-58.1635676,-20.227326285809134],[-58.1599032999999,-20.222440985809218],[-58.1542219999999,-20.21573098580949],[-58.1477692,-20.21205168580971],[-58.14308840000001,-20.210777885809755],[-58.1404593999999,-20.2100623858098],[-58.137449499999896,-20.20906398580984],[-58.1320067999999,-20.207258485809895],[-58.12430700000001,-20.20212418581011],[-58.122115999999906,-20.198483485810264],[-58.1218461999999,-20.194392585810427],[-58.123668300000006,-20.18974188581048],[-58.127283899999995,-20.185274085810768],[-58.132597,-20.181935985810913],[-58.1399603,-20.180666685810987],[-58.1464493999999,-20.180566385810973],[-58.1545307,-20.18191138581084],[-58.15814410000001,-20.181539085810968],[-58.15933460000001,-20.18141648581093],[-58.1658558999999,-20.177218085811003],[-58.166779899999895,-20.175778085811082],[-58.1679674,-20.174067385811256],[-58.1683338999999,-20.173196085811217],[-58.16851170000001,-20.172243485811354],[-58.16843120000001,-20.17118338581139],[-58.1683694,-20.170800585811378],[-58.1682517,-20.170207685811334],[-58.1680094,-20.169196785811458],[-58.1680059999999,-20.169176785811388],[-58.1682322,-20.16918448581145],[-58.168720300000004,-20.167301085811573],[-58.16864139999999,-20.16578258581152],[-58.1679708999999,-20.164618985811664],[-58.16649180000001,-20.162646885811768],[-58.164740799999905,-20.16079858581184],[-58.1606345,-20.157874285811815],[-58.152864300000005,-20.15302288581203],[-58.14862419999999,-20.15181988581222],[-58.1451532999999,-20.151721285812187],[-58.141509,-20.15231578581208],[-58.141406199999906,-20.152332585812186],[-58.1372253,-20.152332585812182],[-58.132650000000005,-20.15217488581219],[-58.1277590999999,-20.15063658581217],[-58.12069880000001,-20.14838838581225],[-58.1167546,-20.14665288581232],[-58.1138753,-20.143497485812535],[-58.1113903999999,-20.13896158581277],[-58.1099886,-20.135907185812922],[-58.1091534,-20.133379485812892],[-58.1084898,-20.131371285813103],[-58.1068923999999,-20.12831448581311],[-58.10360662741443,-20.124189251671048],[-58.1007013999999,-20.120541785813582],[-58.0954161,-20.110365585814026],[-58.0922212,-20.108314585814128],[-58.0876853,-20.106736885814144],[-58.0818196,-20.106096485814238],[-58.0752214999999,-20.10537608581418],[-58.070863,-20.105573385814292],[-58.0669636,-20.106589585814145],[-58.0631850999999,-20.10757418581408],[-58.0615546,-20.10799908581415],[-58.0570187,-20.108630185814025],[-58.0538238,-20.108275185814165],[-58.048065199999904,-20.105415585814267],[-58.045678900000006,-20.10283208581429],[-58.0440814999999,-20.099637185814544],[-58.0431796,-20.096425085814705],[-58.04295739999999,-20.09563378581476],[-58.04100499999999,-20.088612985815054],[-58.0389539,-20.081868285815286],[-58.0384412,-20.076661885815668],[-58.0369424,-20.071060985815834],[-58.035798499999906,-20.06770838581607],[-58.0345758,-20.065736285816204],[-58.03213039999999,-20.063133085816307],[-58.02842269999999,-20.060372085816343],[-58.0240446,-20.05887328581652],[-58.01520949999999,-20.05836048581643],[-58.0088592,-20.057749085816567],[-58.0044219,-20.0568221858165],[-58.0005368,-20.056427785816528],[-57.9960402999999,-20.056644685816508],[-57.99289373670964,-20.057710803187323],[-57.99243130000001,-20.057867485816466],[-57.98909839999989,-20.05863658581643],[-57.98560769999991,-20.058439385816435],[-57.981545200000006,-20.05666448581664],[-57.9789814,-20.055461485816654],[-57.9748398999999,-20.051891885816794],[-57.972611399999906,-20.048499785816954],[-57.9709942,-20.04520638581708],[-57.9681391,-20.036060685817684],[-57.967424699999995,-20.03378768581767],[-57.9658075,-20.030001185817987],[-57.96340150000001,-20.026964085818],[-57.96130120000001,-20.02522868581821],[-57.95811619999989,-20.023049485818337],[-57.95035589999999,-20.019854585818504],[-57.9464708,-20.01906578581852],[-57.9437098,-20.018888285818583],[-57.9392528,-20.018888285818583],[-57.933849099999996,-20.020367385818403],[-57.9301809999999,-20.022122585818284],[-57.9269467,-20.02444968581818],[-57.920537200000005,-20.029813885818005],[-57.917815699999906,-20.03273258581783],[-57.912657200000005,-20.037500285817607],[-57.9126036,-20.03754978581762],[-57.909329199999895,-20.040576185817432],[-57.908704400000005,-20.041153585817444],[-57.9062984,-20.042849685817313],[-57.9036163,-20.043263785817313],[-57.9025119,-20.042396085817348],[-57.9020781,-20.041252185817406],[-57.9009028,-20.03879888581754],[-57.899694,-20.036356685817548],[-57.898954499999896,-20.034887685817715],[-57.8978142,-20.03262218581773],[-57.8960630999999,-20.029143385817985],[-57.8921187999999,-20.02204368581831],[-57.890205799999904,-20.019479885818516],[-57.8884112,-20.01772468581864],[-57.8878953999999,-20.01716418581864],[-57.884545800000005,-20.013524085818755],[-57.88150869999999,-20.01015168581891],[-57.877128000000006,-20.003803585819387],[-57.874466299271326,-20],[-57,-20]]]}},{"type":"Feature","properties":{"code":"SF.21-V-D","name":"Porto Murtinho","scale":250000,"year":2001,"source":"SGB/CPRM · PLGB Corumbá, Aldeia Tomázia e Porto Murtinho","extent_wgs84":[-58.5,-22,-57,-21],"area_em_ms_km2":10416.352,"regra_geometria":"extensão oficial da folha pela nomenclatura cartográfica sistemática, recortada ao limite de MS"},"geometry":{"type":"Polygon","coordinates":[[[-57,-21],[-57,-22],[-57.96468967959427,-22],[-57.964531300000004,-21.996345785847588],[-57.9648642,-21.989661385846954],[-57.96486821269343,-21.989505213574574],[-57.965019599999906,-21.983613285846484],[-57.962763100000004,-21.978427885846106],[-57.95934890000001,-21.973020885845653],[-57.9548849,-21.965849785845137],[-57.9519723,-21.95984088584474],[-57.949031299999895,-21.95312868584423],[-57.94531210000001,-21.944405085843556],[-57.9404413999999,-21.93569798584279],[-57.93699530000001,-21.927920585842198],[-57.93674359999991,-21.9197473858416],[-57.9381974999999,-21.915217585841273],[-57.9426321,-21.91313568584109],[-57.94758660000001,-21.910706385841056],[-57.94969520000001,-21.907227785840675],[-57.949765899999896,-21.903439485840373],[-57.947985,-21.900390285840285],[-57.9426885999999,-21.896792085839987],[-57.939044099999904,-21.892571285839598],[-57.9359257,-21.889295685839357],[-57.9332267999999,-21.88826618583936],[-57.929934100000004,-21.889970785839473],[-57.9258631,-21.89097498583956],[-57.9215116,-21.89091778583954],[-57.9168913,-21.889320985839344],[-57.9141346,-21.88509098583902],[-57.913802399999994,-21.879762185838707],[-57.91617300000001,-21.8762918858385],[-57.9200448,-21.873749085838202],[-57.926534800000006,-21.870698685838015],[-57.9328556999999,-21.866700185837836],[-57.940704,-21.86303008583744],[-57.9475505999999,-21.85961758583731],[-57.95502320000001,-21.855488785836876],[-57.9598379999999,-21.853169485836844],[-57.9653084,-21.85189878583674],[-57.9696369,-21.851139285836577],[-57.9716359999999,-21.84838028583653],[-57.9719784,-21.845886585836347],[-57.96978159999999,-21.844253985836197],[-57.96567659999991,-21.843118485836005],[-57.959626199999896,-21.841975985835944],[-57.9555190999999,-21.84084728583595],[-57.9497347,-21.838792685835717],[-57.9426554999999,-21.835452685835598],[-57.9357884,-21.829738685835206],[-57.934232936112416,-21.82802678132741],[-57.93110929999991,-21.82458898583474],[-57.927921,-21.8166870858343],[-57.92499289999989,-21.809256885833815],[-57.92013630000001,-21.801021085833224],[-57.9156771,-21.793616785832658],[-57.9146653,-21.791606385832633],[-57.91404329999991,-21.790370585832562],[-57.9129712,-21.785463785832114],[-57.9117608,-21.780647185831878],[-57.9100129999999,-21.77699528583163],[-57.9084931,-21.773968585831337],[-57.9090123,-21.771123485831133],[-57.910015200000004,-21.770374085831207],[-57.911018199999894,-21.769624685831186],[-57.91712009999999,-21.769118685831106],[-57.9267214,-21.76677388583098],[-57.93276999999989,-21.76300928583073],[-57.940274799999905,-21.758350685830337],[-57.9411737,-21.757296285830396],[-57.9456223,-21.752077785829933],[-57.947424500000004,-21.74595468582962],[-57.945758000000005,-21.74040828582926],[-57.9408933,-21.73290728582883],[-57.9312530999999,-21.726435885828387],[-57.9198507,-21.71964728582797],[-57.90796799999999,-21.71267358582753],[-57.90427259999999,-21.710108485827266],[-57.903537,-21.709564985827278],[-57.90104189999991,-21.707721685827277],[-57.89854690000001,-21.705878385827116],[-57.896876399999904,-21.70434288582705],[-57.893973075012134,-21.701674036439638],[-57.8926875,-21.70049228582678],[-57.89117759999989,-21.697992585826643],[-57.890709799999996,-21.6975496858266],[-57.8889381,-21.69587208582654],[-57.8888972999999,-21.695833485826405],[-57.88888200000001,-21.69581898582653],[-57.88885719999999,-21.695796585826443],[-57.8872039999999,-21.694305685826382],[-57.886588,-21.693750085826288],[-57.88656379999999,-21.693722885826354],[-57.88542050000001,-21.69243448582621],[-57.884285,-21.691154885826215],[-57.8832335,-21.689067385826036],[-57.88342069999991,-21.687259185825987],[-57.883527399999906,-21.68622728582584],[-57.88518079999991,-21.6835761858257],[-57.88719230000001,-21.68207628582558],[-57.8899949,-21.68056698582552],[-57.89302869999991,-21.67936898582552],[-57.897194,-21.678045985825356],[-57.903579199999996,-21.674707185825138],[-57.911418,-21.670079585824983],[-57.9203062999999,-21.666261385824626],[-57.92566959999989,-21.66208428582442],[-57.9300377,-21.65733158582426],[-57.933448600000006,-21.651609185823805],[-57.9367255,-21.644627785823474],[-57.939220899999995,-21.638179785823027],[-57.9432428,-21.628565885822614],[-57.9422158,-21.62089958582219],[-57.9380518,-21.61517588582174],[-57.935301,-21.612900685821714],[-57.93207849999991,-21.609973685821544],[-57.9285078999999,-21.60592378582136],[-57.9235801999999,-21.601790585821096],[-57.9185601,-21.59891898582094],[-57.91455949999991,-21.595614185820658],[-57.914026,-21.590476685820498],[-57.915536700000004,-21.58635698582028],[-57.918963999999995,-21.582201185819983],[-57.9234382,-21.579300785819814],[-57.930288299999994,-21.576575785819657],[-57.9362285999999,-21.5735500858196],[-57.9409957999999,-21.571984185819534],[-57.9508026999999,-21.569933385819432],[-57.956763800000004,-21.56691218581914],[-57.96161620000001,-21.562443485819035],[-57.961807688806815,-21.562057329001174],[-57.964164,-21.55730558581865],[-57.965805200000005,-21.551649785818473],[-57.9685264999999,-21.535337185817664],[-57.9684015,-21.527770385817263],[-57.9676827,-21.52147788581695],[-57.9646425,-21.51532488581652],[-57.9604876,-21.509920785816387],[-57.954890599999906,-21.5058012858162],[-57.9466409,-21.49898058581582],[-57.9462908,-21.498458185815807],[-57.944084214036366,-21.49608416052017],[-57.9397319,-21.491401585815506],[-57.934417700000004,-21.484120785815186],[-57.93231310000001,-21.480254185814886],[-57.9295794,-21.474812385814705],[-57.9266643999999,-21.468861085814456],[-57.9250939,-21.461947785814154],[-57.9255709999999,-21.457002085813915],[-57.92577430594462,-21.45654989238221],[-57.92732790000001,-21.453094385813664],[-57.927256999999905,-21.449831385813482],[-57.92468939999999,-21.445030585813296],[-57.91971360000001,-21.437950185812994],[-57.915892,-21.43118358581267],[-57.9150764,-21.428884785812567],[-57.91298750000001,-21.425342585812498],[-57.9100862,-21.420973685812232],[-57.909642100000006,-21.41446368581197],[-57.9096459,-21.407528485811763],[-57.90937460000001,-21.4066673858116],[-57.9080964999999,-21.40260988581158],[-57.90562460000001,-21.39883448581141],[-57.90192410000001,-21.392202085811103],[-57.8967428,-21.383547885810692],[-57.8924512999999,-21.377948685810455],[-57.8880083999999,-21.374606485810414],[-57.88572939999991,-21.372616785810227],[-57.884157899999906,-21.37105808581029],[-57.8803455999999,-21.368104885810077],[-57.8746176,-21.3632492858099],[-57.86673169999991,-21.356946685809767],[-57.86112439999991,-21.350616885809472],[-57.85847749528203,-21.344767926325382],[-57.85715749999999,-21.34185108580907],[-57.855984,-21.338549185808944],[-57.8553428,-21.33674498580898],[-57.853892039766066,-21.332662405054833],[-57.8536956999999,-21.332109885808812],[-57.8526906,-21.325815085808458],[-57.8528752999999,-21.320154485808267],[-57.85473580000001,-21.31687178580815],[-57.861266300000004,-21.31562638580812],[-57.8691186,-21.313520585808014],[-57.87585030000001,-21.311115785808063],[-57.88517559999999,-21.308782385807863],[-57.8949626,-21.307172485807893],[-57.905673500000006,-21.300620685807655],[-57.91457869999991,-21.292285785807323],[-57.920428300000005,-21.28463968580713],[-57.921686,-21.280051885806888],[-57.92096980000001,-21.277645285806877],[-57.91207969999989,-21.271042785806696],[-57.90646409999991,-21.265550985806513],[-57.90560289999999,-21.265018785806497],[-57.89814789999999,-21.26041208580626],[-57.8866427999999,-21.25375748580602],[-57.8771939,-21.247773285805863],[-57.8677494999999,-21.238697585805646],[-57.8629696,-21.23603108580548],[-57.857175,-21.233168885805533],[-57.8530213999999,-21.227131585805317],[-57.8514112999999,-21.21800898580496],[-57.850008699999904,-21.20772758580465],[-57.84912550000001,-21.201750085804576],[-57.8482820999999,-21.195012085804326],[-57.84895829999989,-21.187857285804192],[-57.851757600000006,-21.179517085803884],[-57.855985599999904,-21.168949785803683],[-57.85904727075464,-21.161008667964033],[-57.8601005,-21.158276885803435],[-57.862409,-21.147417285803158],[-57.8649890999999,-21.13633608580278],[-57.8630785,-21.1298473858027],[-57.8591521,-21.12359678580259],[-57.854495500000006,-21.11399108580233],[-57.85321244522404,-21.11159208160893],[-57.850316299999996,-21.10617698580209],[-57.84742510000001,-21.101312885802052],[-57.8458909,-21.09692818580198],[-57.85106239999989,-21.08918748580183],[-57.85263846392777,-21.086036891740417],[-57.854556099999996,-21.082203485801553],[-57.8568523,-21.0779702858015],[-57.8592775,-21.074572885801537],[-57.86137070000001,-21.071601085801483],[-57.863252599999996,-21.069578985801463],[-57.865793999999894,-21.066710085801375],[-57.86720475092887,-21.06196762246736],[-57.86771099999999,-21.060265785801278],[-57.868149300000006,-21.052064785801143],[-57.8686129,-21.046174085800974],[-57.868195500000006,-21.04187538580095],[-57.8663597999999,-21.039272585800795],[-57.8621436999999,-21.035437685800705],[-57.85768730000001,-21.031294785800767],[-57.852639399999994,-21.02537378580061],[-57.849645599999995,-21.021324085800604],[-57.84620499999989,-21.017273985800397],[-57.844819899999905,-21.015086985800387],[-57.842751199999995,-21.010387885800395],[-57.84053959999991,-21.005586485800233],[-57.83721439999991,-21.00163938580016],[-57.83575010409223,-21],[-57,-21]]]}},{"type":"Feature","properties":{"code":"SF.21-X-A","name":"Aquidauana","scale":250000,"year":1999,"source":"SGB/CPRM · PLGB Folha Aquidauana","extent_wgs84":[-57,-21,-55.5,-20],"area_em_ms_km2":17326.52,"regra_geometria":"extensão oficial da folha pela nomenclatura cartográfica sistemática, recortada ao limite de MS"},"geometry":{"type":"Polygon","coordinates":[[[-55.5,-20],[-55.5,-21],[-57,-21],[-57,-20],[-55.62632781493729,-20],[-55.55211428507289,-20.04087394976134],[-55.626327814937284,-20],[-55.5,-20]]]}},{"type":"Feature","properties":{"code":"SF.21-V-B-VI","name":"Aldeia Tomázia","scale":100000,"year":null,"source":"SGB · folha geológica 1:100.000","extent_wgs84":[-57.5,-21,-57,-20.5],"area_em_ms_km2":2882.481,"regra_geometria":"extensão oficial da folha pela nomenclatura cartográfica sistemática, recortada ao limite de MS"},"geometry":{"type":"Polygon","coordinates":[[[-57.5,-21],[-57.5,-20.5],[-57,-20.5],[-57,-21],[-57.5,-21]]]}},{"type":"Feature","properties":{"code":"SF.21-V-D-III","name":"Fazenda Santa Otília","scale":100000,"year":2014,"source":"SGB · folha geológica 1:100.000","extent_wgs84":[-57.5,-21.5,-57,-21],"area_em_ms_km2":2873.066,"regra_geometria":"extensão oficial da folha pela nomenclatura cartográfica sistemática, recortada ao limite de MS"},"geometry":{"type":"Polygon","coordinates":[[[-57.5,-21.5],[-57.5,-21],[-57,-21],[-57,-21.5],[-57.5,-21.5]]]}},{"type":"Feature","properties":{"code":"SF.21-V-D-VI","name":"Colônia São Lourenço","scale":100000,"year":2020,"source":"SGB · folha geológica 1:100.000","extent_wgs84":[-57.5,-22,-57,-21.5],"area_em_ms_km2":2863.434,"regra_geometria":"extensão oficial da folha pela nomenclatura cartográfica sistemática, recortada ao limite de MS"},"geometry":{"type":"Polygon","coordinates":[[[-57.5,-22],[-57.5,-21.5],[-57,-21.5],[-57,-22],[-57.5,-22]]]}},{"type":"Feature","properties":{"code":"SF.21-X-A-IV","name":"Vila Campão","scale":100000,"year":2020,"source":"SGB · folha geológica 1:100.000","extent_wgs84":[-57,-21,-56.5,-20.5],"area_em_ms_km2":2882.481,"regra_geometria":"extensão oficial da folha pela nomenclatura cartográfica sistemática, recortada ao limite de MS"},"geometry":{"type":"Polygon","coordinates":[[[-57,-21],[-57,-20.5],[-56.5,-20.5],[-56.5,-21],[-57,-21]]]}},{"type":"Feature","properties":{"code":"SF.21-X-C-I","name":"Rio Perdido","scale":100000,"year":2020,"source":"SGB · folha geológica 1:100.000","extent_wgs84":[-57,-21.5,-56.5,-21],"area_em_ms_km2":2873.066,"regra_geometria":"extensão oficial da folha pela nomenclatura cartográfica sistemática, recortada ao limite de MS"},"geometry":{"type":"Polygon","coordinates":[[[-57,-21.5],[-57,-21],[-56.5,-21],[-56.5,-21.5],[-57,-21.5]]]}},{"type":"Feature","properties":{"code":"SF.21-X-C-IV","name":"Fazenda Margarida","scale":100000,"year":2014,"source":"SGB · folha geológica 1:100.000","extent_wgs84":[-57,-22,-56.5,-21.5],"area_em_ms_km2":2863.434,"regra_geometria":"extensão oficial da folha pela nomenclatura cartográfica sistemática, recortada ao limite de MS"},"geometry":{"type":"Polygon","coordinates":[[[-57,-22],[-57,-21.5],[-56.5,-21.5],[-56.5,-22],[-57,-22]]]}},{"type":"Feature","properties":{"code":"SE.21-V-D-V","name":"Morraria da Ínsua","scale":100000,"year":1991,"source":"SGB/CPRM · PLGB Geologia da região da Serra do Amolar","extent_wgs84":[-58,-18,-57.5,-17.5],"area_em_ms_km2":618.589,"regra_geometria":"extensão oficial da folha pela nomenclatura cartográfica sistemática, recortada ao limite de MS"},"geometry":{"type":"Polygon","coordinates":[[[-57.5,-18],[-57.62459320201742,-18],[-57.630847583296536,-17.98902155462484],[-57.632734399999904,-17.98570958607243],[-57.6549800999999,-17.946411586080316],[-57.6763711999999,-17.908658386087975],[-57.70704413491202,-17.85442862060378],[-57.71042990000001,-17.8484425861003],[-57.72143109999999,-17.828987486104484],[-57.70478534136667,-17.828989442347204],[-57.68399129999991,-17.828991886104358],[-57.6840139,-17.80904928610868],[-57.704033531348784,-17.788648478632755],[-57.7193078,-17.773083386116344],[-57.71656039849765,-17.757843598050236],[-57.71129949999991,-17.72866148612586],[-57.7134983999999,-17.727175786126164],[-57.71727169999999,-17.724141986126906],[-57.72045999999991,-17.721354686127437],[-57.7256139,-17.721512486127477],[-57.72832229999991,-17.72117068612759],[-57.730294399999906,-17.720013686127828],[-57.733581300000004,-17.71591158612871],[-57.7361056,-17.7095481861301],[-57.7380514,-17.701580786131768],[-57.74023389999999,-17.69616398613307],[-57.7410227999999,-17.69487558613327],[-57.7421535,-17.694191886133495],[-57.7435733999999,-17.694139286133503],[-57.7452299999999,-17.694454786133438],[-57.7500156999999,-17.69613768613308],[-57.7518300999999,-17.694191886133495],[-57.7521455999999,-17.689143186134512],[-57.75314480000001,-17.684357486135685],[-57.756010999999894,-17.677994086137065],[-57.757483500000006,-17.67115738613861],[-57.7596594,-17.666828586139527],[-57.7598338999999,-17.666491386139498],[-57.761019000000005,-17.664200786140036],[-57.76129410000001,-17.663641686140277],[-57.76150779999989,-17.663239786140224],[-57.76210929999999,-17.662031886140483],[-57.76323120000001,-17.660559386140957],[-57.76568539999991,-17.661172886140687],[-57.768718099999894,-17.66124298614079],[-57.775887899999994,-17.658017486141475],[-57.777027399999994,-17.650339286143133],[-57.7805334,-17.647394286143857],[-57.7814099,-17.64401098614463],[-57.7810593,-17.6402770861454],[-57.78145435448477,-17.63957592432877],[-57.783005100000004,-17.63682358614627],[-57.78136304655237,-17.63476391281442],[-57.7799724,-17.633019586147082],[-57.776244895547904,-17.628859407412964],[-57.77408230000001,-17.62644578614849],[-57.77339859999999,-17.620818686149843],[-57.7724694999999,-17.617102286150562],[-57.772557199999895,-17.613596286151388],[-57.7743452999999,-17.612859986151623],[-57.7763611999999,-17.613210586151467],[-57.7783246,-17.614560486151273],[-57.7796569,-17.616313486150737],[-57.78104169999991,-17.616523786150804],[-57.7823916,-17.615542086151013],[-57.7836187,-17.612702286151706],[-57.784547800000006,-17.60954688615229],[-57.7842673,-17.60770618615269],[-57.778254499999896,-17.60453328615354],[-57.775730100000004,-17.601658286154073],[-57.7746081999999,-17.59937938615467],[-57.775362,-17.597871786155014],[-57.7774481,-17.596706086155226],[-57.77981460000001,-17.59643438615536],[-57.7827771999999,-17.596697286155315],[-57.78496849999989,-17.59642558615539],[-57.7867916,-17.59581208615541],[-57.78744900000001,-17.594339486155768],[-57.7866864,-17.593620786155935],[-57.785398,-17.593892486155973],[-57.784039400000005,-17.594444686155747],[-57.7823916,-17.594190486155878],[-57.7816465,-17.593033486156056],[-57.7803317999999,-17.59046538615675],[-57.77896439999989,-17.58876498615712],[-57.7775619999999,-17.5879147861573],[-57.77669430000001,-17.58674898615746],[-57.777360400000006,-17.585767286157672],[-57.7794201999999,-17.585679686157807],[-57.782768499999996,-17.586354586157565],[-57.785494399999905,-17.586512386157533],[-57.7882114999999,-17.587879686157336],[-57.789964600000005,-17.58827408615722],[-57.7911829,-17.58731868615744],[-57.791104,-17.585364086157785],[-57.7895088,-17.583593586158266],[-57.78559080000001,-17.580779986158824],[-57.7837589,-17.580052486159122],[-57.781497499999894,-17.57955288615924],[-57.7810856,-17.577905086159628],[-57.7815237999999,-17.576730586159854],[-57.782838599999906,-17.576011786159956],[-57.784354900000004,-17.575775186160115],[-57.785336599999894,-17.573864386160402],[-57.7851964,-17.570612586161154],[-57.787475300000004,-17.5691224861615],[-57.790367699999905,-17.568316086161683],[-57.7930674,-17.567316886162033],[-57.7950132,-17.566159886162183],[-57.796187700000004,-17.565125686162514],[-57.7987997,-17.562127986163222],[-57.80037739999991,-17.55952478616384],[-57.79191039999991,-17.55952478616384],[-57.7866251,-17.56073438616344],[-57.78315409999989,-17.56161968616323],[-57.78048950000001,-17.562469886163036],[-57.7772113999999,-17.56275908616296],[-57.7736528,-17.562241986163205],[-57.770944400000005,-17.561680986163342],[-57.769208899999995,-17.561698486163312],[-57.7674034,-17.562539986163145],[-57.767193,-17.564415686162587],[-57.76770140000001,-17.565712886162306],[-57.76838500000001,-17.566414086162197],[-57.768648000000006,-17.567185386162027],[-57.767526099999905,-17.568219686161687],[-57.765058699999905,-17.56924518616156],[-57.7622802,-17.568942786161518],[-57.7606279999999,-17.56890778616164],[-57.758292099999906,-17.568359986161685],[-57.75678009999999,-17.56776828616194],[-57.75556180000001,-17.56724238616195],[-57.7547992,-17.5671021861621],[-57.7542908999999,-17.566935586162096],[-57.7540322999999,-17.566970686162097],[-57.7537265,-17.567062086161982],[-57.753574199999896,-17.567161986161977],[-57.7522946999999,-17.564463086162693],[-57.750273899999996,-17.562090386163096],[-57.7478037,-17.557519086164255],[-57.7460528,-17.551417086165703],[-57.743595099999894,-17.542851486167574],[-57.74249939999999,-17.54050638616819],[-57.742445099999905,-17.540413286168228],[-57.74005149999991,-17.53630518616919],[-57.7326280999999,-17.53071728617034],[-57.73097030000001,-17.52984828617066],[-57.72805759999989,-17.529747886170693],[-57.72503149999991,-17.53101238617041],[-57.7243564,-17.532549386169933],[-57.7188611,-17.53652358616911],[-57.7167757999999,-17.54097248616806],[-57.7140889,-17.54243438616765],[-57.71213899999999,-17.54313378616758],[-57.7119319,-17.54380898616744],[-57.711806,-17.544219486167265],[-57.71174949999989,-17.544403886167288],[-57.71250009999991,-17.55211078616554],[-57.7118341,-17.555019586164864],[-57.7121959999999,-17.55890938616386],[-57.7098035,-17.562623386163008],[-57.7099355,-17.5630217861629],[-57.7108332,-17.565730986162365],[-57.71094800000001,-17.566077386162192],[-57.710747500000004,-17.56779398616181],[-57.7094223999999,-17.571147986161044],[-57.7073306,-17.57441628616032],[-57.7061863,-17.575409986160164],[-57.7016408,-17.577751686159644],[-57.7014963999999,-17.578574886159423],[-57.7013772,-17.57925438615927],[-57.7006708,-17.58328188615834],[-57.70139909999989,-17.584566186157993],[-57.701665600000005,-17.585036086157974],[-57.70350519999991,-17.588280086157226],[-57.70388260000001,-17.589734286156883],[-57.70286404140935,-17.59021833147334],[-57.7026979,-17.590297286156794],[-57.7026832,-17.59030438615675],[-57.7023614,-17.590457286156717],[-57.7023151,-17.590711286156676],[-57.70224619999989,-17.5910890861566],[-57.7020808999999,-17.591995886156415],[-57.702443099999996,-17.593168886156104],[-57.7017792999999,-17.5946262861558],[-57.697803399999906,-17.59978788615461],[-57.6972203999999,-17.601234686154296],[-57.6982356999999,-17.601173086154276],[-57.6987440999999,-17.601142186154267],[-57.699336800000005,-17.60088288615428],[-57.7012013999999,-17.600067086154425],[-57.7020547,-17.60124358615426],[-57.70034170000001,-17.6056854861532],[-57.6998343,-17.61111768615203],[-57.6993618,-17.612486786151653],[-57.69727410000001,-17.615476186150964],[-57.69689040000001,-17.620642786149812],[-57.6944156,-17.625081786148897],[-57.6938617,-17.625710686148732],[-57.692918,-17.626782286148405],[-57.692718,-17.62700948614838],[-57.69270160000001,-17.62702808614846],[-57.69199880000001,-17.627826386148143],[-57.691398899999996,-17.628507986148115],[-57.69024350000001,-17.62897608614791],[-57.6896513,-17.628618186147982],[-57.6896032,-17.628589086147976],[-57.689025899999905,-17.628240186148094],[-57.68897589999991,-17.628240086148168],[-57.6879342999999,-17.62823838614807],[-57.6876978999999,-17.628237986148168],[-57.686756800000005,-17.629320786147925],[-57.68646649999991,-17.632379486147265],[-57.686917599999994,-17.636760186146272],[-57.6877504,-17.637943386145885],[-57.68820169999999,-17.6382055861458],[-57.689090500000006,-17.63872188614585],[-57.689163,-17.638763986145822],[-57.69050420000001,-17.638857086145705],[-57.6899099,-17.640311386145438],[-57.6866153999999,-17.642745186144925],[-57.6852723,-17.643023686144865],[-57.68413470000001,-17.64219528614504],[-57.6839452,-17.642267986144923],[-57.68336570000001,-17.64249038614486],[-57.682721599999994,-17.642737586144946],[-57.681585399999996,-17.64799938614366],[-57.68212829999991,-17.64833268614366],[-57.6829102,-17.648812686143568],[-57.68288019999989,-17.649067686143365],[-57.6827278,-17.6503593861432],[-57.6815822,-17.651083386142957],[-57.67694850000001,-17.6521547861427],[-57.6767508999999,-17.65360978614246],[-57.6772291,-17.654142686142375],[-57.67839430000001,-17.65544098614198],[-57.679113799999996,-17.656242886141786],[-57.67938759999999,-17.65770088614156],[-57.677191099999995,-17.65996068614096],[-57.6744424,-17.66158318614064],[-57.671779899999905,-17.664112386140143],[-57.6710284,-17.666561886139604],[-57.6713894,-17.668557586139052],[-57.67249799999999,-17.670737886138568],[-57.66883769999999,-17.671906486138425],[-57.668868,-17.672413386138306],[-57.6689191,-17.673266986138113],[-57.6703333,-17.67318558613816],[-57.6705939,-17.67338798613797],[-57.6718552999999,-17.674367786137864],[-57.67281089999991,-17.677273386137145],[-57.67277440000001,-17.678725486136816],[-57.67100369999999,-17.68107658613632],[-57.6712499,-17.681316086136228],[-57.67199780000001,-17.682043586136096],[-57.6720318,-17.68207668613617],[-57.6776148,-17.68263198613604],[-57.679798600000005,-17.68348248613585],[-57.6807252,-17.68491018613541],[-57.683143899999905,-17.696256386133026],[-57.68011510000001,-17.704044986131326],[-57.68047019999991,-17.705228086130965],[-57.6845284,-17.710215986129835],[-57.68547430000001,-17.713406686129275],[-57.68527739999999,-17.715304586128866],[-57.68461310000001,-17.71648148612852],[-57.6830851999999,-17.717383186128412],[-57.6767002,-17.719210886127986],[-57.676477,-17.71927468612797],[-57.6738331999999,-17.719563486127814],[-57.67239190000001,-17.71972078612776],[-57.6716895,-17.728330086125894],[-57.67111740000001,-17.728455586126003],[-57.670470899999906,-17.728597286125833],[-57.6698059,-17.72706008612629],[-57.6686276999999,-17.726068986126375],[-57.668504,-17.725964886126512],[-57.66705449999991,-17.726144386126496],[-57.66355420000001,-17.729853786125545],[-57.6605383,-17.729140286125734],[-57.66044719999999,-17.72911878612585],[-57.65306280000001,-17.726073986126522],[-57.6520323,-17.725648986126632],[-57.6513823,-17.72551098612651],[-57.6459712,-17.72436148612677],[-57.64530979999989,-17.7233643861271],[-57.64474460000001,-17.718828586127987],[-57.643639,-17.717582986128278],[-57.6435308,-17.717461086128395],[-57.64030389999989,-17.717359286128335],[-57.6382217,-17.71926508612798],[-57.6345286,-17.7242394861269],[-57.63141711414859,-17.7272677190609],[-57.6307202,-17.727945986126098],[-57.62816879999999,-17.731845686125258],[-57.62311090000001,-17.736358986124163],[-57.6186433999999,-17.747781886121718],[-57.6175805999999,-17.74886498612156],[-57.61752190000001,-17.74887038612147],[-57.614155099999905,-17.749184186121397],[-57.61286449999991,-17.749304386121494],[-57.6119988,-17.75029368612116],[-57.6115298999999,-17.75183488612084],[-57.61286499999989,-17.752568986120647],[-57.61365359999999,-17.752421986120805],[-57.6162476,-17.75193838612089],[-57.6172902,-17.752159486120746],[-57.618444,-17.75240398612079],[-57.619477199999906,-17.753131886120656],[-57.62002879999991,-17.754763486120286],[-57.6196664,-17.756394686119823],[-57.6182191,-17.75856828611949],[-57.6148858999999,-17.76681218611761],[-57.6128116,-17.769617886117075],[-57.6099441,-17.77106248611681],[-57.60342000000001,-17.77167858611666],[-57.602278899999995,-17.77258258611646],[-57.60095050000001,-17.775290686115888],[-57.60083350000001,-17.77674958611555],[-57.60272889999991,-17.77902588611506],[-57.6045338,-17.77965938611494],[-57.605807500000004,-17.77962328611496],[-57.6072859,-17.77958128611498],[-57.6073327,-17.77957998611495],[-57.60742350000001,-17.779548886114966],[-57.6115296,-17.778142486115176],[-57.61155980000001,-17.77817888611517],[-57.61258320000001,-17.779411186114984],[-57.612165299999994,-17.78812468611312],[-57.6093088,-17.797541486111143],[-57.60588380000001,-17.80233938611],[-57.6035879999999,-17.804422086109668],[-57.6025802,-17.80478818610959],[-57.6023610999999,-17.804867786109554],[-57.60079439999999,-17.804702386109497],[-57.60073510000001,-17.804696186109616],[-57.598867000000006,-17.804498986109646],[-57.59172799999989,-17.802644486109937],[-57.58741639999991,-17.80102038611041],[-57.5789119999999,-17.80025958611044],[-57.5779469999999,-17.80017318611057],[-57.5763315,-17.800528386110503],[-57.5745340999999,-17.804061286109636],[-57.5735493,-17.812774386107893],[-57.571448700000005,-17.815394486107383],[-57.5698772,-17.816506286107096],[-57.569679199999904,-17.816646386107088],[-57.5677496,-17.81682318610698],[-57.561614600000006,-17.815175786107407],[-57.5593934999999,-17.81537238610722],[-57.558665,-17.815436886107314],[-57.55763119999991,-17.816159286107162],[-57.554585200000005,-17.821409786106056],[-57.552003799999994,-17.828205286104645],[-57.5499104,-17.829741686104217],[-57.5478927999999,-17.830313586104197],[-57.5470066,-17.830564786104052],[-57.54428457880736,-17.83133650970069],[-57.54327800000001,-17.831621886103918],[-57.5411535,-17.83270208610358],[-57.53919769999991,-17.8336965861034],[-57.536524799999896,-17.836136386102872],[-57.53234900000001,-17.83839798610243],[-57.531027900000005,-17.839113486102267],[-57.5304692999999,-17.840925986101954],[-57.5305539,-17.842920786101445],[-57.53102290000001,-17.844644386101077],[-57.535249399999906,-17.852189986099624],[-57.53477689999989,-17.853633786099326],[-57.5319865,-17.855358986098945],[-57.530974199999896,-17.85598488609884],[-57.5285094,-17.856918186098532],[-57.52244029999999,-17.859216086098154],[-57.519639,-17.861270486097652],[-57.51911100000001,-17.861657686097647],[-57.518591899999905,-17.861877986097515],[-57.5163587,-17.862825886097415],[-57.51133200000001,-17.86389868609707],[-57.5112123,-17.86389798609707],[-57.5093603999999,-17.863888086097056],[-57.5038686,-17.86180338609753],[-57.50358070000001,-17.861694086097643],[-57.5,-17.86136693217793],[-57.5,-18]]]}},{"type":"Feature","properties":{"code":"SE.21-Y-B-II","name":"Lagoa Mandioré","scale":100000,"year":1991,"source":"SGB/CPRM · PLGB Geologia da região da Serra do Amolar","extent_wgs84":[-58,-18.5,-57.5,-18],"area_em_ms_km2":480.783,"regra_geometria":"extensão oficial da folha pela nomenclatura cartográfica sistemática, recortada ao limite de MS"},"geometry":{"type":"MultiPolygon","coordinates":[[[[-57.64032112282874,-18.5],[-57.636710401797856,-18.488586009028687],[-57.614019858815,-18.416858049287466],[-57.572590765676985,-18.28589492835473],[-57.55828419999991,-18.240669886024065],[-57.50164169999991,-18.236661286024937],[-57.5,-18.236546394409828],[-57.5,-18.5],[-57.64032112282874,-18.5]]],[[[-57.5,-18.196267758987837],[-57.50025240000001,-18.196171186032252],[-57.50160220000001,-18.195715486032256],[-57.5024437,-18.195592786032236],[-57.50290820000001,-18.195952086032175],[-57.50324129999999,-18.196504286032194],[-57.503451599999906,-18.197713886031885],[-57.5036181999999,-18.198099586031926],[-57.50395999999991,-18.198441386031813],[-57.50459990000001,-18.198590386031693],[-57.50513449999989,-18.19861668603173],[-57.57260817595574,-18.13308031544972],[-57.574130000000004,-18.131602186044272],[-57.5811308999999,-18.10787148604861],[-57.6003827,-18.042673586061138],[-57.62159410000001,-18.00526438606848],[-57.62459320201742,-18],[-57.5,-18],[-57.5,-18.196267758987837]]]]}},{"type":"Feature","properties":{"code":"SE.21-Y-B-III","name":"Amolar","scale":100000,"year":1991,"source":"SGB/CPRM · PLGB Geologia da região da Serra do Amolar","extent_wgs84":[-57.5,-18.5,-57,-18],"area_em_ms_km2":2913.662,"regra_geometria":"extensão oficial da folha pela nomenclatura cartográfica sistemática, recortada ao limite de MS"},"geometry":{"type":"Polygon","coordinates":[[[-57.5,-18],[-57,-18],[-57,-18.5],[-57.5,-18.5],[-57.5,-18.236546394409828],[-57.47104259631189,-18.23451985918457],[-57.45823849999991,-18.233623786025465],[-57.45479259999999,-18.233365686025515],[-57.45448579999999,-18.232515486025644],[-57.4540388,-18.231595086025717],[-57.4538196,-18.23075368602596],[-57.45394240000001,-18.230061286026],[-57.454573399999994,-18.22961418602616],[-57.4555376,-18.22949148602607],[-57.456352700000004,-18.22959668602608],[-57.45714159999991,-18.229552886026074],[-57.45763240000001,-18.22908828602618],[-57.4576236999999,-18.2284396860264],[-57.456817300000004,-18.227317786026596],[-57.456493,-18.22669548602659],[-57.4564492,-18.225818986026795],[-57.4571241,-18.225293086026852],[-57.458210900000005,-18.225538486026927],[-57.459289,-18.22585398602689],[-57.45959579999991,-18.22595918602686],[-57.4604548,-18.22603808602684],[-57.461287500000005,-18.22577518602678],[-57.4619360999999,-18.22514408602698],[-57.4625495999999,-18.22448668602703],[-57.463434899999996,-18.22401338602708],[-57.46445159999999,-18.223601386027163],[-57.46555599999989,-18.223417386027325],[-57.4665990999999,-18.223434886027306],[-57.4686326,-18.22313688602728],[-57.4692373,-18.222759986027317],[-57.4694565,-18.221471486027614],[-57.4693599999999,-18.22031448602787],[-57.46964930000001,-18.21971848602788],[-57.4702103,-18.219157586028075],[-57.470770759437954,-18.21906196191203],[-57.4713409,-18.218964686028134],[-57.4721385999999,-18.218894586028025],[-57.4738302,-18.21830728602811],[-57.474820699999995,-18.217430786028295],[-57.4752852,-18.216961886028383],[-57.4756139,-18.216475486028436],[-57.4757365999999,-18.215901286028547],[-57.47517129999991,-18.215463086028723],[-57.4743079,-18.21525708602879],[-57.47371630000001,-18.21515188602883],[-57.4730107,-18.214875786028866],[-57.4728661,-18.214262286028962],[-57.4730676999999,-18.21347338602901],[-57.47446569999989,-18.212246286029252],[-57.4749828,-18.21110688602941],[-57.47560509999991,-18.210107686029726],[-57.4764203,-18.209564186029745],[-57.47772629999999,-18.20897698602982],[-57.4803206999999,-18.208643886029957],[-57.4810395,-18.20822318603003],[-57.4812936,-18.20764468603006],[-57.4805398,-18.20690838603031],[-57.479067299999905,-18.20470838603071],[-57.47840119999999,-18.20405098603074],[-57.4778315,-18.203253386030863],[-57.4776912,-18.202446986031013],[-57.4781821,-18.201877286031202],[-57.4802680999999,-18.200869286031402],[-57.4808290999999,-18.1998349860316],[-57.48105700000001,-18.19881828603179],[-57.48137249999999,-18.1976086860319],[-57.4827048,-18.197073986032006],[-57.4838354999999,-18.197205486031976],[-57.4846769,-18.19843258603174],[-57.4853606,-18.19929158603167],[-57.4861758,-18.200185586031427],[-57.48722320000001,-18.200395986031488],[-57.488160999999906,-18.200374086031513],[-57.4892742,-18.2007290860313],[-57.4904531,-18.202284886031062],[-57.49111920000001,-18.202841386031025],[-57.49215789999991,-18.202815086031034],[-57.493218500000005,-18.202210386031147],[-57.4937224999999,-18.201027086031395],[-57.4940028999999,-18.200010286031553],[-57.49461649999991,-18.198958486031675],[-57.4957646999999,-18.19816088603183],[-57.4974213,-18.197494786032017],[-57.49894640000001,-18.196670886032205],[-57.5,-18.196267758987837],[-57.5,-18]]]}}],"atlas_metadata":{"version":"V32","date":"2026-08-13","purpose":"Coberturas detalhadas efetivamente usadas no IMC V32","baseline_not_drawn":"Mapa estadual SGB/CPRM 1:1.000.000 de 2006","pending_exact_footprints":["Projeto Rio Apa · 1:100.000 · polígono exato ainda não materializado neste corte","Projeto Bonito–Aquidauana · 1:50.000 · polígono exato ainda não materializado neste corte","PIMA Fosfato da Serra da Bodoquena · 1:50.000 · polígono exato ainda não materializado neste corte","Projeto Bodoquena · 1:250.000 · polígono exato ainda não materializado neste corte"]}}