{"type":"FeatureCollection","features":[{"type":"Feature","properties":{"id_geo":"GEO-CAND-001","nome":"Fazenda Igrejinha","municipio":"Rio Verde de Mato Grosso","latitude":-18.83676,"longitude":-54.983725,"categoria":"Local de interesse geológico candidato","validacao":"Pendente de avaliação científica","origem":"Levantamento do projeto do usuário","uso_itinerario":"Avaliar acesso, valor científico, educativo, turístico e risco de degradação","fonte":"Projeto integrado de geodiversidade de Mato Grosso do Sul","camada_origem":"geodiversidade_candidatos","estado_captura":"capturado_localmente","data_compilacao":"2026-08-05","natureza_registro":"evidencia_documentada","localizacao_status":"localizada","source_id":"SRC-e1028d96d763d870","validacao_documental":"realizada","validacao_espacial":"parcial","validacao_institucional":"nao_realizada","validacao_campo":"nao_realizada","validacao_comunitaria":"nao_realizada","validation_next":"dados_insuficientes","publicacao_status":"publico","evl_schema_version":"1.0","trace_id":"TRC-EVL-ca829cf363ad444a95f0399d"},"geometry":{"coordinates":[-54.983725,-18.83676],"type":"Point"}}],"atlas_metadata":{"evl_schema_version":"1.0","evl_materializado_em":"2026-08-09T02:36:01.585962+00:00","evl_records":1}}