{"type":"FeatureCollection","features":[{"type":"Feature","properties":{"id_decreto":"DEC12897-01","numero":1,"nome":"Baía das Garças","municipio":"Porto Murtinho / Bonito","interesse_oficial":"Geológico e ecológico","descricao_oficial_resumida":"Rochas mais antigas do território.","localizacao_oficial":"Estrada MS-382, no limite entre Porto Murtinho e Bonito","tipo_geometria_prevista":"ponto","status_geometria":"georreferenciado","fonte_coordenada":"Proposta técnica SGB/CPRM compilada no atlas","confianca_coordenada":"coordenada publicada em fonte técnica complementar","status_inventario":"Integrante do Anexo I do Decreto Estadual nº 12.897/2009","fonte_decreto":"https://aacpdappls.net.ms.gov.br/appls/legislacao/secoge/govato.nsf/fd8600de8a55c7fc04256b210079ce25/9d2a7d2cb9c27f170425769a005c3d44?OpenDocument","publicacao":"Diário Oficial de MS nº 7.610, de 23 de dezembro de 2009","data_compilacao":"2026-08-05","registro_sigep":"","numero_sigep":"","situacao_sigep":"","fonte_sigep":"","natureza_registro":"evidencia_documentada","localizacao_status":"localizada","source_id":"SRC-3024980f7582080f","validacao_documental":"realizada","validacao_espacial":"parcial","validacao_institucional":"parcial","validacao_campo":"nao_realizada","validacao_comunitaria":"nao_realizada","validation_next":"dados_insuficientes","publicacao_status":"publico","evl_schema_version":"1.0","trace_id":"TRC-EVL-70188f5c73e84ce1f4688c89"},"geometry":{"type":"Point","coordinates":[-56.87694444444445,-21.051944444444445]}},{"type":"Feature","properties":{"id_decreto":"DEC12897-02","numero":2,"nome":"Morraria do Puga","municipio":"Corumbá","interesse_oficial":"Geológico","descricao_oficial_resumida":"Registro da glaciação neoproterozoica e relação com a teoria da Terra Bola de Neve.","localizacao_oficial":"Morro do Puga, margem direita do rio Paraguai, 6 km a jusante de Porto Esperança","tipo_geometria_prevista":"ponto","status_geometria":"georreferenciado","fonte_coordenada":"Proposta técnica SGB/CPRM compilada no atlas","confianca_coordenada":"coordenada publicada em fonte técnica complementar","status_inventario":"Integrante do Anexo I do Decreto Estadual nº 12.897/2009","fonte_decreto":"https://aacpdappls.net.ms.gov.br/appls/legislacao/secoge/govato.nsf/fd8600de8a55c7fc04256b210079ce25/9d2a7d2cb9c27f170425769a005c3d44?OpenDocument","publicacao":"Diário Oficial de MS nº 7.610, de 23 de dezembro de 2009","data_compilacao":"2026-08-05","registro_sigep":"Sim","numero_sigep":"037","situacao_sigep":"Registro SIGEP identificado","fonte_sigep":"https://sigep.eco.br/sitio037/sitio037.pdf","natureza_registro":"evidencia_documentada","localizacao_status":"localizada","source_id":"SRC-3024980f7582080f","validacao_documental":"realizada","validacao_espacial":"parcial","validacao_institucional":"parcial","validacao_campo":"nao_realizada","validacao_comunitaria":"nao_realizada","validation_next":"dados_insuficientes","publicacao_status":"publico","evl_schema_version":"1.0","trace_id":"TRC-EVL-bd37d6a8ead56912ac3f5da1"},"geometry":{"type":"Point","coordinates":[-57.52777777777778,-19.622222222222224]}},{"type":"Feature","properties":{"id_decreto":"DEC12897-03","numero":3,"nome":"Anticlinal Anhumas","municipio":"Bonito","interesse_oficial":"Geológico","descricao_oficial_resumida":"Evidências de atividade glacial, incluindo seixos associados a icebergs.","localizacao_oficial":"Estrada MS-382, município de Bonito","tipo_geometria_prevista":"ponto","status_geometria":"georreferenciado","fonte_coordenada":"Proposta técnica SGB/CPRM compilada no atlas","confianca_coordenada":"coordenada publicada em fonte técnica complementar","status_inventario":"Integrante do Anexo I do Decreto Estadual nº 12.897/2009","fonte_decreto":"https://aacpdappls.net.ms.gov.br/appls/legislacao/secoge/govato.nsf/fd8600de8a55c7fc04256b210079ce25/9d2a7d2cb9c27f170425769a005c3d44?OpenDocument","publicacao":"Diário Oficial de MS nº 7.610, de 23 de dezembro de 2009","data_compilacao":"2026-08-05","registro_sigep":"","numero_sigep":"","situacao_sigep":"","fonte_sigep":"","natureza_registro":"evidencia_documentada","localizacao_status":"localizada","source_id":"SRC-3024980f7582080f","validacao_documental":"realizada","validacao_espacial":"parcial","validacao_institucional":"parcial","validacao_campo":"nao_realizada","validacao_comunitaria":"nao_realizada","validation_next":"dados_insuficientes","publicacao_status":"publico","evl_schema_version":"1.0","trace_id":"TRC-EVL-b67e77fbf734a9b780d5e084"},"geometry":{"type":"Point","coordinates":[-56.6,-21.15]}},{"type":"Feature","properties":{"id_decreto":"DEC12897-04","numero":4,"nome":"Mina Urucum-Vale","municipio":"Corumbá","interesse_oficial":"Geológico","descricao_oficial_resumida":"Sedimentação química em ambiente glácio-marinho e grandes reservas de hematita e itabirita.","localizacao_oficial":"Mina Urucum-Vale, município de Corumbá","tipo_geometria_prevista":"ponto","status_geometria":"georreferenciado","fonte_coordenada":"Proposta técnica SGB/CPRM compilada no atlas","confianca_coordenada":"coordenada publicada em fonte técnica complementar","status_inventario":"Integrante do Anexo I do Decreto Estadual nº 12.897/2009","fonte_decreto":"https://aacpdappls.net.ms.gov.br/appls/legislacao/secoge/govato.nsf/fd8600de8a55c7fc04256b210079ce25/9d2a7d2cb9c27f170425769a005c3d44?OpenDocument","publicacao":"Diário Oficial de MS nº 7.610, de 23 de dezembro de 2009","data_compilacao":"2026-08-05","registro_sigep":"","numero_sigep":"","situacao_sigep":"","fonte_sigep":"","natureza_registro":"evidencia_documentada","localizacao_status":"localizada","source_id":"SRC-3024980f7582080f","validacao_documental":"realizada","validacao_espacial":"parcial","validacao_institucional":"parcial","validacao_campo":"nao_realizada","validacao_comunitaria":"nao_realizada","validation_next":"dados_insuficientes","publicacao_status":"publico","evl_schema_version":"1.0","trace_id":"TRC-EVL-8d3a8c70206e641b9bf72d34"},"geometry":{"type":"Point","coordinates":[-57.506388888888885,-19.179722222222225]}},{"type":"Feature","properties":{"id_decreto":"DEC12897-05","numero":5,"nome":"Antiga Mina dos Belgas","municipio":"Corumbá","interesse_oficial":"Geológico e histórico","descricao_oficial_resumida":"Registro da mineração de manganês na antiga Mina dos Belgas.","localizacao_oficial":"Antiga Mina dos Belgas, atual complexo da Mina Urucum-Vale","tipo_geometria_prevista":"ponto","status_geometria":"georreferenciado","fonte_coordenada":"Proposta técnica SGB/CPRM compilada no atlas","confianca_coordenada":"coordenada publicada em fonte técnica complementar","status_inventario":"Integrante do Anexo I do Decreto Estadual nº 12.897/2009","fonte_decreto":"https://aacpdappls.net.ms.gov.br/appls/legislacao/secoge/govato.nsf/fd8600de8a55c7fc04256b210079ce25/9d2a7d2cb9c27f170425769a005c3d44?OpenDocument","publicacao":"Diário Oficial de MS nº 7.610, de 23 de dezembro de 2009","data_compilacao":"2026-08-05","registro_sigep":"","numero_sigep":"","situacao_sigep":"","fonte_sigep":"","natureza_registro":"evidencia_documentada","localizacao_status":"localizada","source_id":"SRC-3024980f7582080f","validacao_documental":"realizada","validacao_espacial":"parcial","validacao_institucional":"parcial","validacao_campo":"nao_realizada","validacao_comunitaria":"nao_realizada","validation_next":"dados_insuficientes","publicacao_status":"publico","evl_schema_version":"1.0","trace_id":"TRC-EVL-4372c0f74889428b3b6bef3f"},"geometry":{"type":"Point","coordinates":[-57.496944444444445,-19.098055555555558]}},{"type":"Feature","properties":{"id_decreto":"DEC12897-06","numero":6,"nome":"Afloramentos da Formação Cerradinho","municipio":"Bonito / Porto Murtinho","interesse_oficial":"Geológico","descricao_oficial_resumida":"Evidências da separação de Rodínia e da abertura de oceano na região.","localizacao_oficial":"Estrada MS-382, em Bonito, próximo ao limite com Porto Murtinho","tipo_geometria_prevista":"ponto","status_geometria":"georreferenciado","fonte_coordenada":"Proposta técnica SGB/CPRM compilada no atlas","confianca_coordenada":"coordenada publicada em fonte técnica complementar","status_inventario":"Integrante do Anexo I do Decreto Estadual nº 12.897/2009","fonte_decreto":"https://aacpdappls.net.ms.gov.br/appls/legislacao/secoge/govato.nsf/fd8600de8a55c7fc04256b210079ce25/9d2a7d2cb9c27f170425769a005c3d44?OpenDocument","publicacao":"Diário Oficial de MS nº 7.610, de 23 de dezembro de 2009","data_compilacao":"2026-08-05","registro_sigep":"","numero_sigep":"","situacao_sigep":"","fonte_sigep":"","natureza_registro":"evidencia_documentada","localizacao_status":"localizada","source_id":"SRC-3024980f7582080f","validacao_documental":"realizada","validacao_espacial":"parcial","validacao_institucional":"parcial","validacao_campo":"nao_realizada","validacao_comunitaria":"nao_realizada","validation_next":"dados_insuficientes","publicacao_status":"publico","evl_schema_version":"1.0","trace_id":"TRC-EVL-fd30f1648c8609773fc6fafa"},"geometry":{"type":"Point","coordinates":[-56.87694444444445,-21.051944444444445]}},{"type":"Feature","properties":{"id_decreto":"DEC12897-07","numero":7,"nome":"Paleomar do Tamengo","municipio":"Bonito","interesse_oficial":"Geológico","descricao_oficial_resumida":"Calcário formado em ambiente marinho raso de plataforma.","localizacao_oficial":"Estrada MS-382, município de Bonito","tipo_geometria_prevista":"ponto","status_geometria":"coordenada pontual pendente","fonte_coordenada":"","confianca_coordenada":"sem coordenada validada","status_inventario":"Integrante do Anexo I do Decreto Estadual nº 12.897/2009","fonte_decreto":"https://aacpdappls.net.ms.gov.br/appls/legislacao/secoge/govato.nsf/fd8600de8a55c7fc04256b210079ce25/9d2a7d2cb9c27f170425769a005c3d44?OpenDocument","publicacao":"Diário Oficial de MS nº 7.610, de 23 de dezembro de 2009","data_compilacao":"2026-08-05","registro_sigep":"","numero_sigep":"","situacao_sigep":"","fonte_sigep":"","natureza_registro":"evidencia_documentada","localizacao_status":"contextual","source_id":"SRC-3024980f7582080f","validacao_documental":"realizada","validacao_espacial":"parcial","validacao_institucional":"parcial","validacao_campo":"nao_realizada","validacao_comunitaria":"nao_realizada","validation_next":"dados_insuficientes","publicacao_status":"publico","evl_schema_version":"1.0","trace_id":"TRC-EVL-2c79570edba6905b76ba1b61"},"geometry":null},{"type":"Feature","properties":{"id_decreto":"DEC12897-08","numero":8,"nome":"Porto Morrinho","municipio":"Corumbá","interesse_oficial":"Geológico e paleontológico","descricao_oficial_resumida":"Ocorrência de estromatólitos.","localizacao_oficial":"Porto Morrinho, margem direita do rio Paraguai, próximo ao pedágio da BR-262","tipo_geometria_prevista":"ponto","status_geometria":"georreferenciado","fonte_coordenada":"Proposta técnica SGB/CPRM compilada no atlas","confianca_coordenada":"coordenada publicada em fonte técnica complementar","status_inventario":"Integrante do Anexo I do Decreto Estadual nº 12.897/2009","fonte_decreto":"https://aacpdappls.net.ms.gov.br/appls/legislacao/secoge/govato.nsf/fd8600de8a55c7fc04256b210079ce25/9d2a7d2cb9c27f170425769a005c3d44?OpenDocument","publicacao":"Diário Oficial de MS nº 7.610, de 23 de dezembro de 2009","data_compilacao":"2026-08-05","registro_sigep":"","numero_sigep":"","situacao_sigep":"","fonte_sigep":"","natureza_registro":"evidencia_documentada","localizacao_status":"localizada","source_id":"SRC-3024980f7582080f","validacao_documental":"realizada","validacao_espacial":"parcial","validacao_institucional":"parcial","validacao_campo":"nao_realizada","validacao_comunitaria":"nao_realizada","validation_next":"dados_insuficientes","publicacao_status":"publico","evl_schema_version":"1.0","trace_id":"TRC-EVL-1e2ba876958657dfdb355a0f"},"geometry":{"type":"Point","coordinates":[-57.43111111111111,-19.50638888888889]}},{"type":"Feature","properties":{"id_decreto":"DEC12897-09","numero":9,"nome":"Morraria do Sul","municipio":"Bodoquena","interesse_oficial":"Geológico, paleontológico, paisagístico e cultural","descricao_oficial_resumida":"Estromatólitos e mirante do Pantanal do Nabileque.","localizacao_oficial":"Distrito de Morraria do Sul, município de Bodoquena","tipo_geometria_prevista":"ponto","status_geometria":"georreferenciado","fonte_coordenada":"Proposta técnica SGB/CPRM compilada no atlas","confianca_coordenada":"coordenada publicada em fonte técnica complementar","status_inventario":"Integrante do Anexo I do Decreto Estadual nº 12.897/2009","fonte_decreto":"https://aacpdappls.net.ms.gov.br/appls/legislacao/secoge/govato.nsf/fd8600de8a55c7fc04256b210079ce25/9d2a7d2cb9c27f170425769a005c3d44?OpenDocument","publicacao":"Diário Oficial de MS nº 7.610, de 23 de dezembro de 2009","data_compilacao":"2026-08-05","registro_sigep":"","numero_sigep":"","situacao_sigep":"","fonte_sigep":"","natureza_registro":"evidencia_documentada","localizacao_status":"localizada","source_id":"SRC-3024980f7582080f","validacao_documental":"realizada","validacao_espacial":"parcial","validacao_institucional":"parcial","validacao_campo":"nao_realizada","validacao_comunitaria":"nao_realizada","validation_next":"dados_insuficientes","publicacao_status":"publico","evl_schema_version":"1.0","trace_id":"TRC-EVL-75fd2d06d7fb6a2dc4e5cfa4"},"geometry":{"type":"Point","coordinates":[-56.89527777777778,-20.54277777777778]}},{"type":"Feature","properties":{"id_decreto":"DEC12897-10","numero":10,"nome":"Pedreira Saladeiro, Porto Sobramil","municipio":"Corumbá","interesse_oficial":"Geológico e paleontológico","descricao_oficial_resumida":"Fósseis de Cloudina e Corumbella werneri.","localizacao_oficial":"Porto Sobramil, margem direita do rio Paraguai, município de Corumbá","tipo_geometria_prevista":"ponto","status_geometria":"georreferenciado","fonte_coordenada":"Proposta técnica SGB/CPRM compilada no atlas","confianca_coordenada":"coordenada publicada em fonte técnica complementar","status_inventario":"Integrante do Anexo I do Decreto Estadual nº 12.897/2009","fonte_decreto":"https://aacpdappls.net.ms.gov.br/appls/legislacao/secoge/govato.nsf/fd8600de8a55c7fc04256b210079ce25/9d2a7d2cb9c27f170425769a005c3d44?OpenDocument","publicacao":"Diário Oficial de MS nº 7.610, de 23 de dezembro de 2009","data_compilacao":"2026-08-05","registro_sigep":"","numero_sigep":"","situacao_sigep":"","fonte_sigep":"","natureza_registro":"evidencia_documentada","localizacao_status":"localizada","source_id":"SRC-3024980f7582080f","validacao_documental":"realizada","validacao_espacial":"parcial","validacao_institucional":"parcial","validacao_campo":"nao_realizada","validacao_comunitaria":"nao_realizada","validation_next":"dados_insuficientes","publicacao_status":"publico","evl_schema_version":"1.0","trace_id":"TRC-EVL-4f3ee37017c5641443026ce1"},"geometry":{"type":"Point","coordinates":[-57.61972222222222,-18.999166666666667]}},{"type":"Feature","properties":{"id_decreto":"DEC12897-11","numero":11,"nome":"Gruta do Lago Azul","municipio":"Bonito","interesse_oficial":"Geológico, paleontológico, ecológico, paisagístico e cultural","descricao_oficial_resumida":"Fauna troglóbia e registros de megafauna pleistocênica.","localizacao_oficial":"Município de Bonito","tipo_geometria_prevista":"ponto","status_geometria":"georreferenciado","fonte_coordenada":"GEOSSIT, registro 964","confianca_coordenada":"coordenada oficial do registro GEOSSIT","status_inventario":"Integrante do Anexo I do Decreto Estadual nº 12.897/2009","fonte_decreto":"https://aacpdappls.net.ms.gov.br/appls/legislacao/secoge/govato.nsf/fd8600de8a55c7fc04256b210079ce25/9d2a7d2cb9c27f170425769a005c3d44?OpenDocument","publicacao":"Diário Oficial de MS nº 7.610, de 23 de dezembro de 2009","data_compilacao":"2026-08-05","registro_sigep":"A confirmar","numero_sigep":"","situacao_sigep":"Relação com inventários SGB identificada. Número SIGEP não consolidado nesta versão.","fonte_sigep":"https://www.sgb.gov.br/geossit/","natureza_registro":"evidencia_documentada","localizacao_status":"localizada","source_id":"SRC-3024980f7582080f","validacao_documental":"realizada","validacao_espacial":"parcial","validacao_institucional":"parcial","validacao_campo":"nao_realizada","validacao_comunitaria":"nao_realizada","validation_next":"dados_insuficientes","publicacao_status":"publico","evl_schema_version":"1.0","trace_id":"TRC-EVL-b0b41461652a9c00d0e22968"},"geometry":{"type":"Point","coordinates":[-56.591259003,-21.144765854]}},{"type":"Feature","properties":{"id_decreto":"DEC12897-12","numero":12,"nome":"Gruta Nossa Senhora Aparecida","municipio":"Bonito","interesse_oficial":"Geológico, paleontológico, ecológico, paisagístico e cultural","descricao_oficial_resumida":"Ocorrência de fósseis pleistocênicos.","localizacao_oficial":"Município de Bonito","tipo_geometria_prevista":"ponto","status_geometria":"georreferenciado","fonte_coordenada":"Proposta técnica SGB/CPRM compilada no atlas","confianca_coordenada":"coordenada publicada em fonte técnica complementar","status_inventario":"Integrante do Anexo I do Decreto Estadual nº 12.897/2009","fonte_decreto":"https://aacpdappls.net.ms.gov.br/appls/legislacao/secoge/govato.nsf/fd8600de8a55c7fc04256b210079ce25/9d2a7d2cb9c27f170425769a005c3d44?OpenDocument","publicacao":"Diário Oficial de MS nº 7.610, de 23 de dezembro de 2009","data_compilacao":"2026-08-05","registro_sigep":"","numero_sigep":"","situacao_sigep":"","fonte_sigep":"","natureza_registro":"evidencia_documentada","localizacao_status":"localizada","source_id":"SRC-3024980f7582080f","validacao_documental":"realizada","validacao_espacial":"parcial","validacao_institucional":"parcial","validacao_campo":"nao_realizada","validacao_comunitaria":"nao_realizada","validation_next":"dados_insuficientes","publicacao_status":"publico","evl_schema_version":"1.0","trace_id":"TRC-EVL-53b2d0a893cb6f27d7ebd00e"},"geometry":{"type":"Point","coordinates":[-56.57416666666667,-21.090555555555557]}},{"type":"Feature","properties":{"id_decreto":"DEC12897-13","numero":13,"nome":"Gruta de São Miguel","municipio":"Bonito","interesse_oficial":"Geológico, ecológico e paisagístico","descricao_oficial_resumida":"Espeleotemas, incluindo estalactites e estalagmites.","localizacao_oficial":"Município de Bonito","tipo_geometria_prevista":"ponto","status_geometria":"georreferenciado","fonte_coordenada":"Proposta técnica SGB/CPRM compilada no atlas","confianca_coordenada":"coordenada publicada em fonte técnica complementar","status_inventario":"Integrante do Anexo I do Decreto Estadual nº 12.897/2009","fonte_decreto":"https://aacpdappls.net.ms.gov.br/appls/legislacao/secoge/govato.nsf/fd8600de8a55c7fc04256b210079ce25/9d2a7d2cb9c27f170425769a005c3d44?OpenDocument","publicacao":"Diário Oficial de MS nº 7.610, de 23 de dezembro de 2009","data_compilacao":"2026-08-05","registro_sigep":"","numero_sigep":"","situacao_sigep":"","fonte_sigep":"","natureza_registro":"evidencia_documentada","localizacao_status":"localizada","source_id":"SRC-3024980f7582080f","validacao_documental":"realizada","validacao_espacial":"parcial","validacao_institucional":"parcial","validacao_campo":"nao_realizada","validacao_comunitaria":"nao_realizada","validation_next":"dados_insuficientes","publicacao_status":"publico","evl_schema_version":"1.0","trace_id":"TRC-EVL-9880b563a5b92dc9b60ff89b"},"geometry":{"type":"Point","coordinates":[-56.58111111111111,-21.106944444444444]}},{"type":"Feature","properties":{"id_decreto":"DEC12897-14","numero":14,"nome":"Abismo Anhumas","municipio":"Bonito","interesse_oficial":"Geológico, ecológico e paisagístico","descricao_oficial_resumida":"Cones calcários de relevância internacional.","localizacao_oficial":"Município de Bonito","tipo_geometria_prevista":"ponto","status_geometria":"georreferenciado","fonte_coordenada":"Proposta técnica SGB/CPRM compilada no atlas","confianca_coordenada":"coordenada publicada em fonte técnica complementar","status_inventario":"Integrante do Anexo I do Decreto Estadual nº 12.897/2009","fonte_decreto":"https://aacpdappls.net.ms.gov.br/appls/legislacao/secoge/govato.nsf/fd8600de8a55c7fc04256b210079ce25/9d2a7d2cb9c27f170425769a005c3d44?OpenDocument","publicacao":"Diário Oficial de MS nº 7.610, de 23 de dezembro de 2009","data_compilacao":"2026-08-05","registro_sigep":"","numero_sigep":"","situacao_sigep":"","fonte_sigep":"","natureza_registro":"evidencia_documentada","localizacao_status":"localizada","source_id":"SRC-3024980f7582080f","validacao_documental":"realizada","validacao_espacial":"parcial","validacao_institucional":"parcial","validacao_campo":"nao_realizada","validacao_comunitaria":"nao_realizada","validation_next":"dados_insuficientes","publicacao_status":"publico","evl_schema_version":"1.0","trace_id":"TRC-EVL-b646d20e0ad1c69399f2a7d7"},"geometry":{"type":"Point","coordinates":[-56.6,-21.15]}},{"type":"Feature","properties":{"id_decreto":"DEC12897-15","numero":15,"nome":"Grutas do Mimoso","municipio":"Bonito","interesse_oficial":"Geológico, ecológico e paisagístico","descricao_oficial_resumida":"Cones calcários de relevância internacional.","localizacao_oficial":"Município de Bonito","tipo_geometria_prevista":"ponto","status_geometria":"georreferenciado","fonte_coordenada":"Proposta técnica SGB/CPRM compilada no atlas","confianca_coordenada":"coordenada publicada em fonte técnica complementar","status_inventario":"Integrante do Anexo I do Decreto Estadual nº 12.897/2009","fonte_decreto":"https://aacpdappls.net.ms.gov.br/appls/legislacao/secoge/govato.nsf/fd8600de8a55c7fc04256b210079ce25/9d2a7d2cb9c27f170425769a005c3d44?OpenDocument","publicacao":"Diário Oficial de MS nº 7.610, de 23 de dezembro de 2009","data_compilacao":"2026-08-05","registro_sigep":"","numero_sigep":"","situacao_sigep":"","fonte_sigep":"","natureza_registro":"evidencia_documentada","localizacao_status":"localizada","source_id":"SRC-3024980f7582080f","validacao_documental":"realizada","validacao_espacial":"parcial","validacao_institucional":"parcial","validacao_campo":"nao_realizada","validacao_comunitaria":"nao_realizada","validation_next":"dados_insuficientes","publicacao_status":"publico","evl_schema_version":"1.0","trace_id":"TRC-EVL-9fd5b7dd8b9663c8b65cd06d"},"geometry":{"type":"Point","coordinates":[-56.55833333333333,-20.901666666666664]}},{"type":"Feature","properties":{"id_decreto":"DEC12897-16","numero":16,"nome":"Lagoa Misteriosa","municipio":"Jardim","interesse_oficial":"Geológico, ecológico e paisagístico","descricao_oficial_resumida":"Grande dolina desenvolvida em dolomitos.","localizacao_oficial":"Município de Jardim","tipo_geometria_prevista":"ponto","status_geometria":"georreferenciado","fonte_coordenada":"Proposta técnica SGB/CPRM compilada no atlas","confianca_coordenada":"coordenada publicada em fonte técnica complementar","status_inventario":"Integrante do Anexo I do Decreto Estadual nº 12.897/2009","fonte_decreto":"https://aacpdappls.net.ms.gov.br/appls/legislacao/secoge/govato.nsf/fd8600de8a55c7fc04256b210079ce25/9d2a7d2cb9c27f170425769a005c3d44?OpenDocument","publicacao":"Diário Oficial de MS nº 7.610, de 23 de dezembro de 2009","data_compilacao":"2026-08-05","registro_sigep":"","numero_sigep":"","situacao_sigep":"","fonte_sigep":"","natureza_registro":"evidencia_documentada","localizacao_status":"localizada","source_id":"SRC-3024980f7582080f","validacao_documental":"realizada","validacao_espacial":"parcial","validacao_institucional":"parcial","validacao_campo":"nao_realizada","validacao_comunitaria":"nao_realizada","validation_next":"dados_insuficientes","publicacao_status":"publico","evl_schema_version":"1.0","trace_id":"TRC-EVL-4b7d02afd49b10331a9b0174"},"geometry":{"type":"Point","coordinates":[-56.45222222222223,-21.458055555555557]}},{"type":"Feature","properties":{"id_decreto":"DEC12897-17","numero":17,"nome":"Buraco das Araras","municipio":"Jardim","interesse_oficial":"Geológico, ecológico e paisagístico","descricao_oficial_resumida":"Dolina desenvolvida simultaneamente em arenito e calcário.","localizacao_oficial":"Município de Jardim","tipo_geometria_prevista":"ponto","status_geometria":"georreferenciado","fonte_coordenada":"Proposta técnica SGB/CPRM compilada no atlas","confianca_coordenada":"coordenada publicada em fonte técnica complementar","status_inventario":"Integrante do Anexo I do Decreto Estadual nº 12.897/2009","fonte_decreto":"https://aacpdappls.net.ms.gov.br/appls/legislacao/secoge/govato.nsf/fd8600de8a55c7fc04256b210079ce25/9d2a7d2cb9c27f170425769a005c3d44?OpenDocument","publicacao":"Diário Oficial de MS nº 7.610, de 23 de dezembro de 2009","data_compilacao":"2026-08-05","registro_sigep":"","numero_sigep":"","situacao_sigep":"","fonte_sigep":"","natureza_registro":"evidencia_documentada","localizacao_status":"localizada","source_id":"SRC-3024980f7582080f","validacao_documental":"realizada","validacao_espacial":"parcial","validacao_institucional":"parcial","validacao_campo":"nao_realizada","validacao_comunitaria":"nao_realizada","validation_next":"dados_insuficientes","publicacao_status":"publico","evl_schema_version":"1.0","trace_id":"TRC-EVL-3f5e10d4720e40d0de291874"},"geometry":{"type":"Point","coordinates":[-56.4,-21.48333333333333]}},{"type":"Feature","properties":{"id_decreto":"DEC12897-18","numero":18,"nome":"Pegadas de Dinossauros","municipio":"Nioaque","interesse_oficial":"Geológico, paleontológico e cultural","descricao_oficial_resumida":"Pegadas fósseis de dinossauros em rochas sedimentares jurássicas.","localizacao_oficial":"Margem direita do rio Nioaque, Fazenda Minuano","tipo_geometria_prevista":"ponto","status_geometria":"coordenada pontual pendente","fonte_coordenada":"","confianca_coordenada":"sem coordenada validada","status_inventario":"Integrante do Anexo I do Decreto Estadual nº 12.897/2009","fonte_decreto":"https://aacpdappls.net.ms.gov.br/appls/legislacao/secoge/govato.nsf/fd8600de8a55c7fc04256b210079ce25/9d2a7d2cb9c27f170425769a005c3d44?OpenDocument","publicacao":"Diário Oficial de MS nº 7.610, de 23 de dezembro de 2009","data_compilacao":"2026-08-05","registro_sigep":"","numero_sigep":"","situacao_sigep":"","fonte_sigep":"","natureza_registro":"evidencia_documentada","localizacao_status":"contextual","source_id":"SRC-3024980f7582080f","validacao_documental":"realizada","validacao_espacial":"parcial","validacao_institucional":"parcial","validacao_campo":"nao_realizada","validacao_comunitaria":"nao_realizada","validation_next":"dados_insuficientes","publicacao_status":"publico","evl_schema_version":"1.0","trace_id":"TRC-EVL-63758f98e7a65efbf63e3135"},"geometry":null},{"type":"Feature","properties":{"id_decreto":"DEC12897-19","numero":19,"nome":"Parque das Cachoeiras","municipio":"Bonito","interesse_oficial":"Geológico, ecológico e paisagístico","descricao_oficial_resumida":"Cachoeiras de tufas calcárias, pequenas cavernas e piscinas naturais.","localizacao_oficial":"Município de Bonito","tipo_geometria_prevista":"ponto","status_geometria":"coordenada pontual pendente","fonte_coordenada":"","confianca_coordenada":"sem coordenada validada","status_inventario":"Integrante do Anexo I do Decreto Estadual nº 12.897/2009","fonte_decreto":"https://aacpdappls.net.ms.gov.br/appls/legislacao/secoge/govato.nsf/fd8600de8a55c7fc04256b210079ce25/9d2a7d2cb9c27f170425769a005c3d44?OpenDocument","publicacao":"Diário Oficial de MS nº 7.610, de 23 de dezembro de 2009","data_compilacao":"2026-08-05","registro_sigep":"","numero_sigep":"","situacao_sigep":"","fonte_sigep":"","natureza_registro":"evidencia_documentada","localizacao_status":"contextual","source_id":"SRC-3024980f7582080f","validacao_documental":"realizada","validacao_espacial":"parcial","validacao_institucional":"parcial","validacao_campo":"nao_realizada","validacao_comunitaria":"nao_realizada","validation_next":"dados_insuficientes","publicacao_status":"publico","evl_schema_version":"1.0","trace_id":"TRC-EVL-64b5560178afebb597456cfe"},"geometry":null},{"type":"Feature","properties":{"id_decreto":"DEC12897-20","numero":20,"nome":"Cachoeira Boca da Onça","municipio":"Bodoquena","interesse_oficial":"Geológico, ecológico e paisagístico","descricao_oficial_resumida":"Tufas calcárias e cachoeira de 156 metros.","localizacao_oficial":"Município de Bodoquena","tipo_geometria_prevista":"ponto","status_geometria":"georreferenciado","fonte_coordenada":"Proposta técnica SGB/CPRM compilada no atlas","confianca_coordenada":"coordenada publicada em fonte técnica complementar","status_inventario":"Integrante do Anexo I do Decreto Estadual nº 12.897/2009","fonte_decreto":"https://aacpdappls.net.ms.gov.br/appls/legislacao/secoge/govato.nsf/fd8600de8a55c7fc04256b210079ce25/9d2a7d2cb9c27f170425769a005c3d44?OpenDocument","publicacao":"Diário Oficial de MS nº 7.610, de 23 de dezembro de 2009","data_compilacao":"2026-08-05","registro_sigep":"","numero_sigep":"","situacao_sigep":"","fonte_sigep":"","natureza_registro":"evidencia_documentada","localizacao_status":"localizada","source_id":"SRC-3024980f7582080f","validacao_documental":"realizada","validacao_espacial":"parcial","validacao_institucional":"parcial","validacao_campo":"nao_realizada","validacao_comunitaria":"nao_realizada","validation_next":"dados_insuficientes","publicacao_status":"publico","evl_schema_version":"1.0","trace_id":"TRC-EVL-9d8a85b9db6d00f3aa71bc05"},"geometry":{"type":"Point","coordinates":[-56.70611111111111,-20.766944444444444]}},{"type":"Feature","properties":{"id_decreto":"DEC12897-21","numero":21,"nome":"Nascentes do Rio Sucuri","municipio":"Bonito","interesse_oficial":"Geológico, ecológico e paisagístico","descricao_oficial_resumida":"Carbonatação e elevada transparência da água.","localizacao_oficial":"Rio Sucuri, município de Bonito","tipo_geometria_prevista":"ponto","status_geometria":"georreferenciado","fonte_coordenada":"Proposta técnica SGB/CPRM compilada no atlas","confianca_coordenada":"coordenada publicada em fonte técnica complementar","status_inventario":"Integrante do Anexo I do Decreto Estadual nº 12.897/2009","fonte_decreto":"https://aacpdappls.net.ms.gov.br/appls/legislacao/secoge/govato.nsf/fd8600de8a55c7fc04256b210079ce25/9d2a7d2cb9c27f170425769a005c3d44?OpenDocument","publicacao":"Diário Oficial de MS nº 7.610, de 23 de dezembro de 2009","data_compilacao":"2026-08-05","registro_sigep":"","numero_sigep":"","situacao_sigep":"","fonte_sigep":"","natureza_registro":"evidencia_documentada","localizacao_status":"localizada","source_id":"SRC-3024980f7582080f","validacao_documental":"realizada","validacao_espacial":"parcial","validacao_institucional":"parcial","validacao_campo":"nao_realizada","validacao_comunitaria":"nao_realizada","validation_next":"dados_insuficientes","publicacao_status":"publico","evl_schema_version":"1.0","trace_id":"TRC-EVL-08afb0beba4d61fc61ccf79d"},"geometry":{"type":"Point","coordinates":[-56.56666666666667,-21.25]}},{"type":"Feature","properties":{"id_decreto":"DEC12897-22","numero":22,"nome":"Monumento Natural do Rio Formoso, Ilha do Padre","municipio":"Bonito","interesse_oficial":"Geológico, ecológico e paisagístico","descricao_oficial_resumida":"Tufas calcárias.","localizacao_oficial":"Município de Bonito","tipo_geometria_prevista":"ponto","status_geometria":"georreferenciado","fonte_coordenada":"Proposta técnica SGB/CPRM compilada no atlas","confianca_coordenada":"coordenada publicada em fonte técnica complementar","status_inventario":"Integrante do Anexo I do Decreto Estadual nº 12.897/2009","fonte_decreto":"https://aacpdappls.net.ms.gov.br/appls/legislacao/secoge/govato.nsf/fd8600de8a55c7fc04256b210079ce25/9d2a7d2cb9c27f170425769a005c3d44?OpenDocument","publicacao":"Diário Oficial de MS nº 7.610, de 23 de dezembro de 2009","data_compilacao":"2026-08-05","registro_sigep":"","numero_sigep":"","situacao_sigep":"","fonte_sigep":"","natureza_registro":"evidencia_documentada","localizacao_status":"localizada","source_id":"SRC-3024980f7582080f","validacao_documental":"realizada","validacao_espacial":"parcial","validacao_institucional":"parcial","validacao_campo":"nao_realizada","validacao_comunitaria":"nao_realizada","validation_next":"dados_insuficientes","publicacao_status":"publico","evl_schema_version":"1.0","trace_id":"TRC-EVL-fdccc72b9858dff64f721448"},"geometry":{"type":"Point","coordinates":[-56.38805555555555,-21.119722222222222]}},{"type":"Feature","properties":{"id_decreto":"DEC12897-23","numero":23,"nome":"Recanto Ecológico Rio da Prata","municipio":"Jardim","interesse_oficial":"Geológico, ecológico e paisagístico","descricao_oficial_resumida":"Tufas calcárias.","localizacao_oficial":"Município de Jardim","tipo_geometria_prevista":"ponto","status_geometria":"georreferenciado","fonte_coordenada":"Proposta técnica SGB/CPRM compilada no atlas","confianca_coordenada":"coordenada publicada em fonte técnica complementar","status_inventario":"Integrante do Anexo I do Decreto Estadual nº 12.897/2009","fonte_decreto":"https://aacpdappls.net.ms.gov.br/appls/legislacao/secoge/govato.nsf/fd8600de8a55c7fc04256b210079ce25/9d2a7d2cb9c27f170425769a005c3d44?OpenDocument","publicacao":"Diário Oficial de MS nº 7.610, de 23 de dezembro de 2009","data_compilacao":"2026-08-05","registro_sigep":"","numero_sigep":"","situacao_sigep":"","fonte_sigep":"","natureza_registro":"evidencia_documentada","localizacao_status":"localizada","source_id":"SRC-3024980f7582080f","validacao_documental":"realizada","validacao_espacial":"parcial","validacao_institucional":"parcial","validacao_campo":"nao_realizada","validacao_comunitaria":"nao_realizada","validation_next":"dados_insuficientes","publicacao_status":"publico","evl_schema_version":"1.0","trace_id":"TRC-EVL-173587b043f1710619b952ff"},"geometry":{"type":"Point","coordinates":[-56.43333333333333,-21.45]}},{"type":"Feature","properties":{"id_decreto":"DEC12897-24","numero":24,"nome":"Estrada Parque Pantanal Sul","municipio":"Corumbá","interesse_oficial":"Geológico, arqueológico, ecológico, paisagístico e cultural","descricao_oficial_resumida":"Lentes calcárias fossilíferas, vestígios arqueológicos e paisagem da planície do rio Miranda.","localizacao_oficial":"Estrada Parque Pantanal Sul, município de Corumbá","tipo_geometria_prevista":"linha","status_geometria":"geometria de linha pendente","fonte_coordenada":"","confianca_coordenada":"geometria linear ou de área ainda não incorporada","status_inventario":"Integrante do Anexo I do Decreto Estadual nº 12.897/2009","fonte_decreto":"https://aacpdappls.net.ms.gov.br/appls/legislacao/secoge/govato.nsf/fd8600de8a55c7fc04256b210079ce25/9d2a7d2cb9c27f170425769a005c3d44?OpenDocument","publicacao":"Diário Oficial de MS nº 7.610, de 23 de dezembro de 2009","data_compilacao":"2026-08-05","registro_sigep":"","numero_sigep":"","situacao_sigep":"","fonte_sigep":"","natureza_registro":"evidencia_documentada","localizacao_status":"contextual","source_id":"SRC-3024980f7582080f","validacao_documental":"realizada","validacao_espacial":"parcial","validacao_institucional":"parcial","validacao_campo":"nao_realizada","validacao_comunitaria":"nao_realizada","validation_next":"dados_insuficientes","publicacao_status":"publico","evl_schema_version":"1.0","trace_id":"TRC-EVL-a078e27ac0b8377160a58004"},"geometry":null},{"type":"Feature","properties":{"id_decreto":"DEC12897-25","numero":25,"nome":"Fazenda Figueirinha","municipio":"Corumbá","interesse_oficial":"Geológico, arqueológico, paisagístico e cultural","descricao_oficial_resumida":"Sítio arqueológico com inscrições petroglíficas.","localizacao_oficial":"Fazenda Figueirinha, BR-262, município de Corumbá","tipo_geometria_prevista":"ponto","status_geometria":"georreferenciado","fonte_coordenada":"GEOSSIT, registro 951","confianca_coordenada":"coordenada oficial do registro GEOSSIT","status_inventario":"Integrante do Anexo I do Decreto Estadual nº 12.897/2009","fonte_decreto":"https://aacpdappls.net.ms.gov.br/appls/legislacao/secoge/govato.nsf/fd8600de8a55c7fc04256b210079ce25/9d2a7d2cb9c27f170425769a005c3d44?OpenDocument","publicacao":"Diário Oficial de MS nº 7.610, de 23 de dezembro de 2009","data_compilacao":"2026-08-05","registro_sigep":"","numero_sigep":"","situacao_sigep":"","fonte_sigep":"","natureza_registro":"evidencia_documentada","localizacao_status":"localizada","source_id":"SRC-3024980f7582080f","validacao_documental":"realizada","validacao_espacial":"parcial","validacao_institucional":"parcial","validacao_campo":"nao_realizada","validacao_comunitaria":"nao_realizada","validation_next":"dados_insuficientes","publicacao_status":"publico","evl_schema_version":"1.0","trace_id":"TRC-EVL-4b331464905a1d3a78babc49"},"geometry":{"type":"Point","coordinates":[-57.652023315,-19.236133575]}},{"type":"Feature","properties":{"id_decreto":"DEC12897-26","numero":26,"nome":"Fazenda Salesianos","municipio":"Corumbá","interesse_oficial":"Geológico, arqueológico, paisagístico e cultural","descricao_oficial_resumida":"Sítio arqueológico com inscrições petroglíficas.","localizacao_oficial":"Estrada Parque, sopé da Morraria do Urucum-Santa Cruz","tipo_geometria_prevista":"ponto","status_geometria":"georreferenciado","fonte_coordenada":"Proposta técnica SGB/CPRM compilada no atlas","confianca_coordenada":"coordenada publicada em fonte técnica complementar","status_inventario":"Integrante do Anexo I do Decreto Estadual nº 12.897/2009","fonte_decreto":"https://aacpdappls.net.ms.gov.br/appls/legislacao/secoge/govato.nsf/fd8600de8a55c7fc04256b210079ce25/9d2a7d2cb9c27f170425769a005c3d44?OpenDocument","publicacao":"Diário Oficial de MS nº 7.610, de 23 de dezembro de 2009","data_compilacao":"2026-08-05","registro_sigep":"","numero_sigep":"","situacao_sigep":"","fonte_sigep":"","natureza_registro":"evidencia_documentada","localizacao_status":"localizada","source_id":"SRC-3024980f7582080f","validacao_documental":"realizada","validacao_espacial":"parcial","validacao_institucional":"parcial","validacao_campo":"nao_realizada","validacao_comunitaria":"nao_realizada","validation_next":"dados_insuficientes","publicacao_status":"publico","evl_schema_version":"1.0","trace_id":"TRC-EVL-dac84c264cdb76622fbc0b89"},"geometry":{"type":"Point","coordinates":[-57.55888888888889,-19.16583333333333]}},{"type":"Feature","properties":{"id_decreto":"DEC12897-27","numero":27,"nome":"Proximidade ao acesso à Aldeia São João","municipio":"Porto Murtinho","interesse_oficial":"Geológico e paisagístico","descricao_oficial_resumida":"Vista da geomorfologia da borda escarpada oeste da Serra da Bodoquena.","localizacao_oficial":"Estrada MS-382, município de Porto Murtinho","tipo_geometria_prevista":"ponto","status_geometria":"georreferenciado","fonte_coordenada":"Proposta técnica SGB/CPRM compilada no atlas","confianca_coordenada":"coordenada publicada em fonte técnica complementar","status_inventario":"Integrante do Anexo I do Decreto Estadual nº 12.897/2009","fonte_decreto":"https://aacpdappls.net.ms.gov.br/appls/legislacao/secoge/govato.nsf/fd8600de8a55c7fc04256b210079ce25/9d2a7d2cb9c27f170425769a005c3d44?OpenDocument","publicacao":"Diário Oficial de MS nº 7.610, de 23 de dezembro de 2009","data_compilacao":"2026-08-05","registro_sigep":"","numero_sigep":"","situacao_sigep":"","fonte_sigep":"","natureza_registro":"evidencia_documentada","localizacao_status":"localizada","source_id":"SRC-3024980f7582080f","validacao_documental":"realizada","validacao_espacial":"parcial","validacao_institucional":"parcial","validacao_campo":"nao_realizada","validacao_comunitaria":"nao_realizada","validation_next":"dados_insuficientes","publicacao_status":"publico","evl_schema_version":"1.0","trace_id":"TRC-EVL-0a7587d2197d0000341a3dbb"},"geometry":{"type":"Point","coordinates":[-56.88361111111111,-21.067777777777778]}},{"type":"Feature","properties":{"id_decreto":"DEC12897-28","numero":28,"nome":"Borda Oeste da Serra da Bodoquena","municipio":"Porto Murtinho","interesse_oficial":"Geológico e paisagístico","descricao_oficial_resumida":"Observação da borda oeste da Serra da Bodoquena.","localizacao_oficial":"Estrada MS-382, município de Porto Murtinho","tipo_geometria_prevista":"ponto","status_geometria":"coordenada pontual pendente","fonte_coordenada":"","confianca_coordenada":"sem coordenada validada","status_inventario":"Integrante do Anexo I do Decreto Estadual nº 12.897/2009","fonte_decreto":"https://aacpdappls.net.ms.gov.br/appls/legislacao/secoge/govato.nsf/fd8600de8a55c7fc04256b210079ce25/9d2a7d2cb9c27f170425769a005c3d44?OpenDocument","publicacao":"Diário Oficial de MS nº 7.610, de 23 de dezembro de 2009","data_compilacao":"2026-08-05","registro_sigep":"","numero_sigep":"","situacao_sigep":"","fonte_sigep":"","natureza_registro":"evidencia_documentada","localizacao_status":"contextual","source_id":"SRC-3024980f7582080f","validacao_documental":"realizada","validacao_espacial":"parcial","validacao_institucional":"parcial","validacao_campo":"nao_realizada","validacao_comunitaria":"nao_realizada","validation_next":"dados_insuficientes","publicacao_status":"publico","evl_schema_version":"1.0","trace_id":"TRC-EVL-66bf5630203162bb0cc34f90"},"geometry":null},{"type":"Feature","properties":{"id_decreto":"DEC12897-29","numero":29,"nome":"Cachoeiras do Aquidaban","municipio":"Bonito","interesse_oficial":"Geológico e paisagístico","descricao_oficial_resumida":"Tufas calcárias.","localizacao_oficial":"Município de Bonito","tipo_geometria_prevista":"ponto","status_geometria":"georreferenciado","fonte_coordenada":"Proposta técnica SGB/CPRM compilada no atlas","confianca_coordenada":"coordenada publicada em fonte técnica complementar","status_inventario":"Integrante do Anexo I do Decreto Estadual nº 12.897/2009","fonte_decreto":"https://aacpdappls.net.ms.gov.br/appls/legislacao/secoge/govato.nsf/fd8600de8a55c7fc04256b210079ce25/9d2a7d2cb9c27f170425769a005c3d44?OpenDocument","publicacao":"Diário Oficial de MS nº 7.610, de 23 de dezembro de 2009","data_compilacao":"2026-08-05","registro_sigep":"","numero_sigep":"","situacao_sigep":"","fonte_sigep":"","natureza_registro":"evidencia_documentada","localizacao_status":"localizada","source_id":"SRC-3024980f7582080f","validacao_documental":"realizada","validacao_espacial":"parcial","validacao_institucional":"parcial","validacao_campo":"nao_realizada","validacao_comunitaria":"nao_realizada","validation_next":"dados_insuficientes","publicacao_status":"publico","evl_schema_version":"1.0","trace_id":"TRC-EVL-6a1fb8720e5c19066aa9ade6"},"geometry":{"type":"Point","coordinates":[-56.900277777777774,-21.06805555555556]}},{"type":"Feature","properties":{"id_decreto":"DEC12897-30","numero":30,"nome":"Morro do Azeite","municipio":"Corumbá","interesse_oficial":"Geológico, paisagístico e cultural","descricao_oficial_resumida":"Morro do Azeite e paisagem associada ao rio Miranda.","localizacao_oficial":"Margem esquerda do rio Miranda, município de Corumbá","tipo_geometria_prevista":"ponto","status_geometria":"georreferenciado","fonte_coordenada":"Proposta técnica SGB/CPRM compilada no atlas","confianca_coordenada":"coordenada publicada em fonte técnica complementar","status_inventario":"Integrante do Anexo I do Decreto Estadual nº 12.897/2009","fonte_decreto":"https://aacpdappls.net.ms.gov.br/appls/legislacao/secoge/govato.nsf/fd8600de8a55c7fc04256b210079ce25/9d2a7d2cb9c27f170425769a005c3d44?OpenDocument","publicacao":"Diário Oficial de MS nº 7.610, de 23 de dezembro de 2009","data_compilacao":"2026-08-05","registro_sigep":"","numero_sigep":"","situacao_sigep":"","fonte_sigep":"","natureza_registro":"evidencia_documentada","localizacao_status":"localizada","source_id":"SRC-3024980f7582080f","validacao_documental":"realizada","validacao_espacial":"parcial","validacao_institucional":"parcial","validacao_campo":"nao_realizada","validacao_comunitaria":"nao_realizada","validation_next":"dados_insuficientes","publicacao_status":"publico","evl_schema_version":"1.0","trace_id":"TRC-EVL-998a2f0017554ce0b269dd91"},"geometry":{"type":"Point","coordinates":[-57.00361111111111,-19.68777777777778]}},{"type":"Feature","properties":{"id_decreto":"DEC12897-31","numero":31,"nome":"Mina Laís, Morraria Urucum","municipio":"Corumbá","interesse_oficial":"Geológico","descricao_oficial_resumida":"Lavra de minério de ferro em depósito de tálus.","localizacao_oficial":"Parte sul da Morraria do Urucum, município de Corumbá","tipo_geometria_prevista":"ponto","status_geometria":"coordenada pontual pendente","fonte_coordenada":"","confianca_coordenada":"sem coordenada validada","status_inventario":"Integrante do Anexo I do Decreto Estadual nº 12.897/2009","fonte_decreto":"https://aacpdappls.net.ms.gov.br/appls/legislacao/secoge/govato.nsf/fd8600de8a55c7fc04256b210079ce25/9d2a7d2cb9c27f170425769a005c3d44?OpenDocument","publicacao":"Diário Oficial de MS nº 7.610, de 23 de dezembro de 2009","data_compilacao":"2026-08-05","registro_sigep":"","numero_sigep":"","situacao_sigep":"","fonte_sigep":"","natureza_registro":"evidencia_documentada","localizacao_status":"contextual","source_id":"SRC-3024980f7582080f","validacao_documental":"realizada","validacao_espacial":"parcial","validacao_institucional":"parcial","validacao_campo":"nao_realizada","validacao_comunitaria":"nao_realizada","validation_next":"dados_insuficientes","publicacao_status":"publico","evl_schema_version":"1.0","trace_id":"TRC-EVL-631003bf4ff731f20a2e2dc1"},"geometry":null},{"type":"Feature","properties":{"id_decreto":"DEC12897-32","numero":32,"nome":"Fazenda Esperança","municipio":"Corumbá","interesse_oficial":"Geológico e paisagístico","descricao_oficial_resumida":"Vista parcial da Morraria Tromba dos Macacos.","localizacao_oficial":"BR-262, km 740, sentido Corumbá","tipo_geometria_prevista":"ponto","status_geometria":"coordenada pontual pendente","fonte_coordenada":"","confianca_coordenada":"sem coordenada validada","status_inventario":"Integrante do Anexo I do Decreto Estadual nº 12.897/2009","fonte_decreto":"https://aacpdappls.net.ms.gov.br/appls/legislacao/secoge/govato.nsf/fd8600de8a55c7fc04256b210079ce25/9d2a7d2cb9c27f170425769a005c3d44?OpenDocument","publicacao":"Diário Oficial de MS nº 7.610, de 23 de dezembro de 2009","data_compilacao":"2026-08-05","registro_sigep":"","numero_sigep":"","situacao_sigep":"","fonte_sigep":"","natureza_registro":"evidencia_documentada","localizacao_status":"contextual","source_id":"SRC-3024980f7582080f","validacao_documental":"realizada","validacao_espacial":"parcial","validacao_institucional":"parcial","validacao_campo":"nao_realizada","validacao_comunitaria":"nao_realizada","validation_next":"dados_insuficientes","publicacao_status":"publico","evl_schema_version":"1.0","trace_id":"TRC-EVL-fa26814d2817c6014f8cd8ad"},"geometry":null},{"type":"Feature","properties":{"id_decreto":"DEC12897-33","numero":33,"nome":"Morraria Urucum-Santa Cruz, Mina de Ferro e Manganês","municipio":"Corumbá","interesse_oficial":"Geológico e paisagístico","descricao_oficial_resumida":"Sedimentação química glácio-marinha e reservas de ferro e manganês.","localizacao_oficial":"Morraria Urucum-Santa Cruz, município de Corumbá","tipo_geometria_prevista":"ponto","status_geometria":"georreferenciado","fonte_coordenada":"Proposta técnica SGB/CPRM compilada no atlas","confianca_coordenada":"coordenada publicada em fonte técnica complementar","status_inventario":"Integrante do Anexo I do Decreto Estadual nº 12.897/2009","fonte_decreto":"https://aacpdappls.net.ms.gov.br/appls/legislacao/secoge/govato.nsf/fd8600de8a55c7fc04256b210079ce25/9d2a7d2cb9c27f170425769a005c3d44?OpenDocument","publicacao":"Diário Oficial de MS nº 7.610, de 23 de dezembro de 2009","data_compilacao":"2026-08-05","registro_sigep":"","numero_sigep":"","situacao_sigep":"","fonte_sigep":"","natureza_registro":"evidencia_documentada","localizacao_status":"localizada","source_id":"SRC-3024980f7582080f","validacao_documental":"realizada","validacao_espacial":"parcial","validacao_institucional":"parcial","validacao_campo":"nao_realizada","validacao_comunitaria":"nao_realizada","validation_next":"dados_insuficientes","publicacao_status":"publico","evl_schema_version":"1.0","trace_id":"TRC-EVL-8d9d0b393bb83abe07323c7e"},"geometry":{"type":"Point","coordinates":[-57.58027777777778,-19.21527777777778]}},{"type":"Feature","properties":{"id_decreto":"DEC12897-34","numero":34,"nome":"Mina Santana, Morraria do Rabichão","municipio":"Corumbá","interesse_oficial":"Geológico e paisagístico","descricao_oficial_resumida":"Sedimentação química em ambiente glácio-marinho.","localizacao_oficial":"Mina Santana, Morraria do Rabichão, município de Corumbá","tipo_geometria_prevista":"ponto","status_geometria":"coordenada pontual pendente","fonte_coordenada":"","confianca_coordenada":"sem coordenada validada","status_inventario":"Integrante do Anexo I do Decreto Estadual nº 12.897/2009","fonte_decreto":"https://aacpdappls.net.ms.gov.br/appls/legislacao/secoge/govato.nsf/fd8600de8a55c7fc04256b210079ce25/9d2a7d2cb9c27f170425769a005c3d44?OpenDocument","publicacao":"Diário Oficial de MS nº 7.610, de 23 de dezembro de 2009","data_compilacao":"2026-08-05","registro_sigep":"","numero_sigep":"","situacao_sigep":"","fonte_sigep":"","natureza_registro":"evidencia_documentada","localizacao_status":"contextual","source_id":"SRC-3024980f7582080f","validacao_documental":"realizada","validacao_espacial":"parcial","validacao_institucional":"parcial","validacao_campo":"nao_realizada","validacao_comunitaria":"nao_realizada","validation_next":"dados_insuficientes","publicacao_status":"publico","evl_schema_version":"1.0","trace_id":"TRC-EVL-e6c65d66fd7611a589bb0b79"},"geometry":null},{"type":"Feature","properties":{"id_decreto":"DEC12897-35","numero":35,"nome":"Morro do Jacadigo","municipio":"Corumbá","interesse_oficial":"Geológico e paisagístico","descricao_oficial_resumida":"Sedimentação química glácio-marinha e reservas de ferro e manganês.","localizacao_oficial":"Município de Corumbá","tipo_geometria_prevista":"ponto","status_geometria":"coordenada pontual pendente","fonte_coordenada":"","confianca_coordenada":"sem coordenada validada","status_inventario":"Integrante do Anexo I do Decreto Estadual nº 12.897/2009","fonte_decreto":"https://aacpdappls.net.ms.gov.br/appls/legislacao/secoge/govato.nsf/fd8600de8a55c7fc04256b210079ce25/9d2a7d2cb9c27f170425769a005c3d44?OpenDocument","publicacao":"Diário Oficial de MS nº 7.610, de 23 de dezembro de 2009","data_compilacao":"2026-08-05","registro_sigep":"","numero_sigep":"","situacao_sigep":"","fonte_sigep":"","natureza_registro":"evidencia_documentada","localizacao_status":"contextual","source_id":"SRC-3024980f7582080f","validacao_documental":"realizada","validacao_espacial":"parcial","validacao_institucional":"parcial","validacao_campo":"nao_realizada","validacao_comunitaria":"nao_realizada","validation_next":"dados_insuficientes","publicacao_status":"publico","evl_schema_version":"1.0","trace_id":"TRC-EVL-49db51d5b6d616760ae52f5b"},"geometry":null},{"type":"Feature","properties":{"id_decreto":"DEC12897-36","numero":36,"nome":"Morro do Mel","municipio":"Corumbá","interesse_oficial":"Geológico","descricao_oficial_resumida":"Sedimentação química glácio-marinha e mina ativa de ferro.","localizacao_oficial":"Município de Corumbá","tipo_geometria_prevista":"ponto","status_geometria":"coordenada pontual pendente","fonte_coordenada":"","confianca_coordenada":"sem coordenada validada","status_inventario":"Integrante do Anexo I do Decreto Estadual nº 12.897/2009","fonte_decreto":"https://aacpdappls.net.ms.gov.br/appls/legislacao/secoge/govato.nsf/fd8600de8a55c7fc04256b210079ce25/9d2a7d2cb9c27f170425769a005c3d44?OpenDocument","publicacao":"Diário Oficial de MS nº 7.610, de 23 de dezembro de 2009","data_compilacao":"2026-08-05","registro_sigep":"","numero_sigep":"","situacao_sigep":"","fonte_sigep":"","natureza_registro":"evidencia_documentada","localizacao_status":"contextual","source_id":"SRC-3024980f7582080f","validacao_documental":"realizada","validacao_espacial":"parcial","validacao_institucional":"parcial","validacao_campo":"nao_realizada","validacao_comunitaria":"nao_realizada","validation_next":"dados_insuficientes","publicacao_status":"publico","evl_schema_version":"1.0","trace_id":"TRC-EVL-4b42dd690a40aa5e115e30b8"},"geometry":null},{"type":"Feature","properties":{"id_decreto":"DEC12897-37","numero":37,"nome":"Fazenda Ressaca e Primavera","municipio":"Bonito","interesse_oficial":"Geológico","descricao_oficial_resumida":"Afloramento de fosforito.","localizacao_oficial":"Fazenda Ressaca, município de Bonito","tipo_geometria_prevista":"ponto","status_geometria":"georreferenciado","fonte_coordenada":"GEOSSIT, registro 959","confianca_coordenada":"coordenada oficial do registro GEOSSIT","status_inventario":"Integrante do Anexo I do Decreto Estadual nº 12.897/2009","fonte_decreto":"https://aacpdappls.net.ms.gov.br/appls/legislacao/secoge/govato.nsf/fd8600de8a55c7fc04256b210079ce25/9d2a7d2cb9c27f170425769a005c3d44?OpenDocument","publicacao":"Diário Oficial de MS nº 7.610, de 23 de dezembro de 2009","data_compilacao":"2026-08-05","registro_sigep":"","numero_sigep":"","situacao_sigep":"","fonte_sigep":"","natureza_registro":"evidencia_documentada","localizacao_status":"localizada","source_id":"SRC-3024980f7582080f","validacao_documental":"realizada","validacao_espacial":"parcial","validacao_institucional":"parcial","validacao_campo":"nao_realizada","validacao_comunitaria":"nao_realizada","validation_next":"dados_insuficientes","publicacao_status":"publico","evl_schema_version":"1.0","trace_id":"TRC-EVL-3e2aa6284a5a7493bfc365dc"},"geometry":{"type":"Point","coordinates":[-56.588756561,-20.839170456]}},{"type":"Feature","properties":{"id_decreto":"DEC12897-38","numero":38,"nome":"Parque Ecológico das Cacimbas","municipio":"Corumbá","interesse_oficial":"Geológico, paisagístico e cultural","descricao_oficial_resumida":"Ocorrência de fósseis de Corumbella.","localizacao_oficial":"Cacimba de Pedra, cidade de Corumbá","tipo_geometria_prevista":"ponto","status_geometria":"georreferenciado","fonte_coordenada":"Proposta técnica SGB/CPRM compilada no atlas","confianca_coordenada":"coordenada publicada em fonte técnica complementar","status_inventario":"Integrante do Anexo I do Decreto Estadual nº 12.897/2009","fonte_decreto":"https://aacpdappls.net.ms.gov.br/appls/legislacao/secoge/govato.nsf/fd8600de8a55c7fc04256b210079ce25/9d2a7d2cb9c27f170425769a005c3d44?OpenDocument","publicacao":"Diário Oficial de MS nº 7.610, de 23 de dezembro de 2009","data_compilacao":"2026-08-05","registro_sigep":"","numero_sigep":"","situacao_sigep":"","fonte_sigep":"","natureza_registro":"evidencia_documentada","localizacao_status":"localizada","source_id":"SRC-3024980f7582080f","validacao_documental":"realizada","validacao_espacial":"parcial","validacao_institucional":"parcial","validacao_campo":"nao_realizada","validacao_comunitaria":"nao_realizada","validation_next":"dados_insuficientes","publicacao_status":"publico","evl_schema_version":"1.0","trace_id":"TRC-EVL-56a096ccb019906f5365674a"},"geometry":{"type":"Point","coordinates":[-57.66722222222222,-18.999166666666667]}},{"type":"Feature","properties":{"id_decreto":"DEC12897-39","numero":39,"nome":"Parque Marina Gatass","municipio":"Corumbá","interesse_oficial":"Geológico, paisagístico, histórico e cultural","descricao_oficial_resumida":"Ocorrência do fóssil Cloudina.","localizacao_oficial":"Parque Marina Gatass, cidade de Corumbá","tipo_geometria_prevista":"ponto","status_geometria":"georreferenciado","fonte_coordenada":"GEOSSIT, registro 1496","confianca_coordenada":"coordenada oficial do registro GEOSSIT","status_inventario":"Integrante do Anexo I do Decreto Estadual nº 12.897/2009","fonte_decreto":"https://aacpdappls.net.ms.gov.br/appls/legislacao/secoge/govato.nsf/fd8600de8a55c7fc04256b210079ce25/9d2a7d2cb9c27f170425769a005c3d44?OpenDocument","publicacao":"Diário Oficial de MS nº 7.610, de 23 de dezembro de 2009","data_compilacao":"2026-08-05","registro_sigep":"","numero_sigep":"","situacao_sigep":"","fonte_sigep":"","natureza_registro":"evidencia_documentada","localizacao_status":"localizada","source_id":"SRC-3024980f7582080f","validacao_documental":"realizada","validacao_espacial":"parcial","validacao_institucional":"parcial","validacao_campo":"nao_realizada","validacao_comunitaria":"nao_realizada","validation_next":"dados_insuficientes","publicacao_status":"publico","evl_schema_version":"1.0","trace_id":"TRC-EVL-bcdbb2cac1d3509fe39bf3ea"},"geometry":{"type":"Point","coordinates":[-57.688095093,-19.012443542]}},{"type":"Feature","properties":{"id_decreto":"DEC12897-40","numero":40,"nome":"Escadinha e Mirante da XV","municipio":"Corumbá","interesse_oficial":"Geológico, paisagístico, histórico e cultural","descricao_oficial_resumida":"Afloramento urbano da Formação Xaraés.","localizacao_oficial":"Centro da cidade de Corumbá","tipo_geometria_prevista":"ponto","status_geometria":"georreferenciado","fonte_coordenada":"Proposta técnica SGB/CPRM compilada no atlas","confianca_coordenada":"coordenada publicada em fonte técnica complementar","status_inventario":"Integrante do Anexo I do Decreto Estadual nº 12.897/2009","fonte_decreto":"https://aacpdappls.net.ms.gov.br/appls/legislacao/secoge/govato.nsf/fd8600de8a55c7fc04256b210079ce25/9d2a7d2cb9c27f170425769a005c3d44?OpenDocument","publicacao":"Diário Oficial de MS nº 7.610, de 23 de dezembro de 2009","data_compilacao":"2026-08-05","registro_sigep":"","numero_sigep":"","situacao_sigep":"","fonte_sigep":"","natureza_registro":"evidencia_documentada","localizacao_status":"localizada","source_id":"SRC-3024980f7582080f","validacao_documental":"realizada","validacao_espacial":"parcial","validacao_institucional":"parcial","validacao_campo":"nao_realizada","validacao_comunitaria":"nao_realizada","validation_next":"dados_insuficientes","publicacao_status":"publico","evl_schema_version":"1.0","trace_id":"TRC-EVL-6511c632a6f6637300287874"},"geometry":{"type":"Point","coordinates":[-57.655277777777776,-18.997777777777777]}},{"type":"Feature","properties":{"id_decreto":"DEC12897-41","numero":41,"nome":"Morraria Campo dos Índios","municipio":"Bodoquena / Porto Murtinho","interesse_oficial":"Geológico, paisagístico, histórico e cultural","descricao_oficial_resumida":"Afloramento de conglomerados da Formação Kadiwéu.","localizacao_oficial":"Entre Morraria do Sul e o Posto Indígena Presidente Alves de Barros","tipo_geometria_prevista":"ponto","status_geometria":"coordenada pontual pendente","fonte_coordenada":"","confianca_coordenada":"sem coordenada validada","status_inventario":"Integrante do Anexo I do Decreto Estadual nº 12.897/2009","fonte_decreto":"https://aacpdappls.net.ms.gov.br/appls/legislacao/secoge/govato.nsf/fd8600de8a55c7fc04256b210079ce25/9d2a7d2cb9c27f170425769a005c3d44?OpenDocument","publicacao":"Diário Oficial de MS nº 7.610, de 23 de dezembro de 2009","data_compilacao":"2026-08-05","registro_sigep":"","numero_sigep":"","situacao_sigep":"","fonte_sigep":"","natureza_registro":"evidencia_documentada","localizacao_status":"contextual","source_id":"SRC-3024980f7582080f","validacao_documental":"realizada","validacao_espacial":"parcial","validacao_institucional":"parcial","validacao_campo":"nao_realizada","validacao_comunitaria":"nao_realizada","validation_next":"dados_insuficientes","publicacao_status":"publico","evl_schema_version":"1.0","trace_id":"TRC-EVL-afe4999542240c98dce873b3"},"geometry":null},{"type":"Feature","properties":{"id_decreto":"DEC12897-42","numero":42,"nome":"Buraco das Abelhas","municipio":"Jardim","interesse_oficial":"Geológico e paleontológico","descricao_oficial_resumida":"Cavidade de interesse geológico e paleontológico.","localizacao_oficial":"Município de Jardim","tipo_geometria_prevista":"ponto","status_geometria":"georreferenciado","fonte_coordenada":"Proposta técnica SGB/CPRM compilada no atlas","confianca_coordenada":"coordenada publicada em fonte técnica complementar","status_inventario":"Integrante do Anexo I do Decreto Estadual nº 12.897/2009","fonte_decreto":"https://aacpdappls.net.ms.gov.br/appls/legislacao/secoge/govato.nsf/fd8600de8a55c7fc04256b210079ce25/9d2a7d2cb9c27f170425769a005c3d44?OpenDocument","publicacao":"Diário Oficial de MS nº 7.610, de 23 de dezembro de 2009","data_compilacao":"2026-08-05","registro_sigep":"","numero_sigep":"","situacao_sigep":"","fonte_sigep":"","natureza_registro":"evidencia_documentada","localizacao_status":"localizada","source_id":"SRC-3024980f7582080f","validacao_documental":"realizada","validacao_espacial":"parcial","validacao_institucional":"parcial","validacao_campo":"nao_realizada","validacao_comunitaria":"nao_realizada","validation_next":"dados_insuficientes","publicacao_status":"publico","evl_schema_version":"1.0","trace_id":"TRC-EVL-718782c07fb87262ecacd473"},"geometry":{"type":"Point","coordinates":[-56.72777777777778,-21.49055555555556]}},{"type":"Feature","properties":{"id_decreto":"DEC12897-43","numero":43,"nome":"Gruta do Urubu Rei","municipio":"Bodoquena","interesse_oficial":"Geológico","descricao_oficial_resumida":"Cavidade natural de interesse geológico.","localizacao_oficial":"Município de Bodoquena","tipo_geometria_prevista":"ponto","status_geometria":"georreferenciado","fonte_coordenada":"Proposta técnica SGB/CPRM compilada no atlas","confianca_coordenada":"coordenada publicada em fonte técnica complementar","status_inventario":"Integrante do Anexo I do Decreto Estadual nº 12.897/2009","fonte_decreto":"https://aacpdappls.net.ms.gov.br/appls/legislacao/secoge/govato.nsf/fd8600de8a55c7fc04256b210079ce25/9d2a7d2cb9c27f170425769a005c3d44?OpenDocument","publicacao":"Diário Oficial de MS nº 7.610, de 23 de dezembro de 2009","data_compilacao":"2026-08-05","registro_sigep":"","numero_sigep":"","situacao_sigep":"","fonte_sigep":"","natureza_registro":"evidencia_documentada","localizacao_status":"localizada","source_id":"SRC-3024980f7582080f","validacao_documental":"realizada","validacao_espacial":"parcial","validacao_institucional":"parcial","validacao_campo":"nao_realizada","validacao_comunitaria":"nao_realizada","validation_next":"dados_insuficientes","publicacao_status":"publico","evl_schema_version":"1.0","trace_id":"TRC-EVL-6c3b366e5b2858ceb2817cf0"},"geometry":{"type":"Point","coordinates":[-56.852222222222224,-20.49416666666667]}},{"type":"Feature","properties":{"id_decreto":"DEC12897-44","numero":44,"nome":"Balneário Municipal Presidente Corrêa","municipio":"Bodoquena","interesse_oficial":"Geológico","descricao_oficial_resumida":"Tufas calcárias.","localizacao_oficial":"Balneário Municipal Presidente Corrêa, município de Bodoquena","tipo_geometria_prevista":"ponto","status_geometria":"georreferenciado","fonte_coordenada":"Proposta técnica SGB/CPRM compilada no atlas","confianca_coordenada":"coordenada publicada em fonte técnica complementar","status_inventario":"Integrante do Anexo I do Decreto Estadual nº 12.897/2009","fonte_decreto":"https://aacpdappls.net.ms.gov.br/appls/legislacao/secoge/govato.nsf/fd8600de8a55c7fc04256b210079ce25/9d2a7d2cb9c27f170425769a005c3d44?OpenDocument","publicacao":"Diário Oficial de MS nº 7.610, de 23 de dezembro de 2009","data_compilacao":"2026-08-05","registro_sigep":"","numero_sigep":"","situacao_sigep":"","fonte_sigep":"","natureza_registro":"evidencia_documentada","localizacao_status":"localizada","source_id":"SRC-3024980f7582080f","validacao_documental":"realizada","validacao_espacial":"parcial","validacao_institucional":"parcial","validacao_campo":"nao_realizada","validacao_comunitaria":"nao_realizada","validation_next":"dados_insuficientes","publicacao_status":"publico","evl_schema_version":"1.0","trace_id":"TRC-EVL-4c35c8086d0703b2c211af0c"},"geometry":{"type":"Point","coordinates":[-56.65222222222222,-20.630277777777778]}},{"type":"Feature","properties":{"id_decreto":"DEC12897-45","numero":45,"nome":"Estância Li","municipio":"Bonito","interesse_oficial":"Geológico","descricao_oficial_resumida":"Evidência do fechamento da Bacia Corumbá e formação da Faixa Paraguai.","localizacao_oficial":"Município de Bonito","tipo_geometria_prevista":"ponto","status_geometria":"georreferenciado","fonte_coordenada":"Proposta técnica SGB/CPRM compilada no atlas","confianca_coordenada":"coordenada publicada em fonte técnica complementar","status_inventario":"Integrante do Anexo I do Decreto Estadual nº 12.897/2009","fonte_decreto":"https://aacpdappls.net.ms.gov.br/appls/legislacao/secoge/govato.nsf/fd8600de8a55c7fc04256b210079ce25/9d2a7d2cb9c27f170425769a005c3d44?OpenDocument","publicacao":"Diário Oficial de MS nº 7.610, de 23 de dezembro de 2009","data_compilacao":"2026-08-05","registro_sigep":"","numero_sigep":"","situacao_sigep":"","fonte_sigep":"","natureza_registro":"evidencia_documentada","localizacao_status":"localizada","source_id":"SRC-3024980f7582080f","validacao_documental":"realizada","validacao_espacial":"parcial","validacao_institucional":"parcial","validacao_campo":"nao_realizada","validacao_comunitaria":"nao_realizada","validation_next":"dados_insuficientes","publicacao_status":"publico","evl_schema_version":"1.0","trace_id":"TRC-EVL-5689aa4475022d0fa35fbb43"},"geometry":{"type":"Point","coordinates":[-56.53083333333333,-20.96944444444444]}},{"type":"Feature","properties":{"id_decreto":"DEC12897-46","numero":46,"nome":"Estância Mimosa","municipio":"Bonito / Bodoquena","interesse_oficial":"Geológico e paisagístico","descricao_oficial_resumida":"Tufas calcárias.","localizacao_oficial":"Estrada MS-178 entre Bonito e Bodoquena","tipo_geometria_prevista":"ponto","status_geometria":"georreferenciado","fonte_coordenada":"Proposta técnica SGB/CPRM compilada no atlas","confianca_coordenada":"coordenada publicada em fonte técnica complementar","status_inventario":"Integrante do Anexo I do Decreto Estadual nº 12.897/2009","fonte_decreto":"https://aacpdappls.net.ms.gov.br/appls/legislacao/secoge/govato.nsf/fd8600de8a55c7fc04256b210079ce25/9d2a7d2cb9c27f170425769a005c3d44?OpenDocument","publicacao":"Diário Oficial de MS nº 7.610, de 23 de dezembro de 2009","data_compilacao":"2026-08-05","registro_sigep":"","numero_sigep":"","situacao_sigep":"","fonte_sigep":"","natureza_registro":"evidencia_documentada","localizacao_status":"localizada","source_id":"SRC-3024980f7582080f","validacao_documental":"realizada","validacao_espacial":"parcial","validacao_institucional":"parcial","validacao_campo":"nao_realizada","validacao_comunitaria":"nao_realizada","validation_next":"dados_insuficientes","publicacao_status":"publico","evl_schema_version":"1.0","trace_id":"TRC-EVL-bb260b0757cef7a098bcd8dd"},"geometry":{"type":"Point","coordinates":[-56.5,-20.966666666666665]}},{"type":"Feature","properties":{"id_decreto":"DEC12897-47","numero":47,"nome":"Rio do Peixe","municipio":"Bonito / Bodoquena","interesse_oficial":"Geológico e paisagístico","descricao_oficial_resumida":"Tufas calcárias.","localizacao_oficial":"Estrada MS-178 entre Bonito e Bodoquena","tipo_geometria_prevista":"ponto","status_geometria":"coordenada pontual pendente","fonte_coordenada":"","confianca_coordenada":"sem coordenada validada","status_inventario":"Integrante do Anexo I do Decreto Estadual nº 12.897/2009","fonte_decreto":"https://aacpdappls.net.ms.gov.br/appls/legislacao/secoge/govato.nsf/fd8600de8a55c7fc04256b210079ce25/9d2a7d2cb9c27f170425769a005c3d44?OpenDocument","publicacao":"Diário Oficial de MS nº 7.610, de 23 de dezembro de 2009","data_compilacao":"2026-08-05","registro_sigep":"","numero_sigep":"","situacao_sigep":"","fonte_sigep":"","natureza_registro":"evidencia_documentada","localizacao_status":"contextual","source_id":"SRC-3024980f7582080f","validacao_documental":"realizada","validacao_espacial":"parcial","validacao_institucional":"parcial","validacao_campo":"nao_realizada","validacao_comunitaria":"nao_realizada","validation_next":"dados_insuficientes","publicacao_status":"publico","evl_schema_version":"1.0","trace_id":"TRC-EVL-3509448e252deb0319d6d975"},"geometry":null},{"type":"Feature","properties":{"id_decreto":"DEC12897-48","numero":48,"nome":"Mineração Horii","municipio":"Bonito / Bodoquena","interesse_oficial":"Geológico","descricao_oficial_resumida":"Paredões do Calcário Tamengo.","localizacao_oficial":"Estrada MS-178 entre Bonito e Bodoquena","tipo_geometria_prevista":"ponto","status_geometria":"georreferenciado","fonte_coordenada":"Proposta técnica SGB/CPRM compilada no atlas","confianca_coordenada":"coordenada publicada em fonte técnica complementar","status_inventario":"Integrante do Anexo I do Decreto Estadual nº 12.897/2009","fonte_decreto":"https://aacpdappls.net.ms.gov.br/appls/legislacao/secoge/govato.nsf/fd8600de8a55c7fc04256b210079ce25/9d2a7d2cb9c27f170425769a005c3d44?OpenDocument","publicacao":"Diário Oficial de MS nº 7.610, de 23 de dezembro de 2009","data_compilacao":"2026-08-05","registro_sigep":"","numero_sigep":"","situacao_sigep":"","fonte_sigep":"","natureza_registro":"evidencia_documentada","localizacao_status":"localizada","source_id":"SRC-3024980f7582080f","validacao_documental":"realizada","validacao_espacial":"parcial","validacao_institucional":"parcial","validacao_campo":"nao_realizada","validacao_comunitaria":"nao_realizada","validation_next":"dados_insuficientes","publicacao_status":"publico","evl_schema_version":"1.0","trace_id":"TRC-EVL-0d0e1b6a63d1285a8b9d8f38"},"geometry":{"type":"Point","coordinates":[-56.68694444444444,-20.59777777777777]}},{"type":"Feature","properties":{"id_decreto":"DEC12897-49","numero":49,"nome":"Tufas calcárias, MS-382","municipio":"Bonito","interesse_oficial":"Geológico","descricao_oficial_resumida":"Tufas calcárias fossilíferas com impressões de folhas.","localizacao_oficial":"Estrada MS-382, município de Bonito","tipo_geometria_prevista":"ponto","status_geometria":"georreferenciado","fonte_coordenada":"Proposta técnica SGB/CPRM compilada no atlas","confianca_coordenada":"coordenada publicada em fonte técnica complementar","status_inventario":"Integrante do Anexo I do Decreto Estadual nº 12.897/2009","fonte_decreto":"https://aacpdappls.net.ms.gov.br/appls/legislacao/secoge/govato.nsf/fd8600de8a55c7fc04256b210079ce25/9d2a7d2cb9c27f170425769a005c3d44?OpenDocument","publicacao":"Diário Oficial de MS nº 7.610, de 23 de dezembro de 2009","data_compilacao":"2026-08-05","registro_sigep":"Sim","numero_sigep":"034","situacao_sigep":"Registro SIGEP identificado","fonte_sigep":"https://sigep.eco.br/sitio034/sitio034.pdf","natureza_registro":"evidencia_documentada","localizacao_status":"localizada","source_id":"SRC-3024980f7582080f","validacao_documental":"realizada","validacao_espacial":"parcial","validacao_institucional":"parcial","validacao_campo":"nao_realizada","validacao_comunitaria":"nao_realizada","validation_next":"dados_insuficientes","publicacao_status":"publico","evl_schema_version":"1.0","trace_id":"TRC-EVL-1b3a435ab2a6e43eff7e8b16"},"geometry":{"type":"Point","coordinates":[-56.61972222222222,-21.02361111111111]}},{"type":"Feature","properties":{"id_decreto":"DEC12897-50","numero":50,"nome":"Nascentes e grutas Ceita Core","municipio":"Bonito","interesse_oficial":"Geológico e paisagístico","descricao_oficial_resumida":"Tufas calcárias, nascentes e grutas.","localizacao_oficial":"Município de Bonito","tipo_geometria_prevista":"ponto","status_geometria":"georreferenciado","fonte_coordenada":"Proposta técnica SGB/CPRM compilada no atlas","confianca_coordenada":"coordenada publicada em fonte técnica complementar","status_inventario":"Integrante do Anexo I do Decreto Estadual nº 12.897/2009","fonte_decreto":"https://aacpdappls.net.ms.gov.br/appls/legislacao/secoge/govato.nsf/fd8600de8a55c7fc04256b210079ce25/9d2a7d2cb9c27f170425769a005c3d44?OpenDocument","publicacao":"Diário Oficial de MS nº 7.610, de 23 de dezembro de 2009","data_compilacao":"2026-08-05","registro_sigep":"","numero_sigep":"","situacao_sigep":"","fonte_sigep":"","natureza_registro":"evidencia_documentada","localizacao_status":"localizada","source_id":"SRC-3024980f7582080f","validacao_documental":"realizada","validacao_espacial":"parcial","validacao_institucional":"parcial","validacao_campo":"nao_realizada","validacao_comunitaria":"nao_realizada","validation_next":"dados_insuficientes","publicacao_status":"publico","evl_schema_version":"1.0","trace_id":"TRC-EVL-a8041fea48473bfd8345f89d"},"geometry":{"type":"Point","coordinates":[-56.59305555555556,-20.84111111111111]}},{"type":"Feature","properties":{"id_decreto":"DEC12897-51","numero":51,"nome":"Buraco do Japonês ou dos Fósseis","municipio":"Jardim","interesse_oficial":"Geológico, paleontológico e cultural","descricao_oficial_resumida":"Ocorrência de fósseis pleistocênicos.","localizacao_oficial":"Município de Jardim","tipo_geometria_prevista":"ponto","status_geometria":"georreferenciado","fonte_coordenada":"Proposta técnica SGB/CPRM compilada no atlas","confianca_coordenada":"coordenada publicada em fonte técnica complementar","status_inventario":"Integrante do Anexo I do Decreto Estadual nº 12.897/2009","fonte_decreto":"https://aacpdappls.net.ms.gov.br/appls/legislacao/secoge/govato.nsf/fd8600de8a55c7fc04256b210079ce25/9d2a7d2cb9c27f170425769a005c3d44?OpenDocument","publicacao":"Diário Oficial de MS nº 7.610, de 23 de dezembro de 2009","data_compilacao":"2026-08-05","registro_sigep":"","numero_sigep":"","situacao_sigep":"","fonte_sigep":"","natureza_registro":"evidencia_documentada","localizacao_status":"localizada","source_id":"SRC-3024980f7582080f","validacao_documental":"realizada","validacao_espacial":"parcial","validacao_institucional":"parcial","validacao_campo":"nao_realizada","validacao_comunitaria":"nao_realizada","validation_next":"dados_insuficientes","publicacao_status":"publico","evl_schema_version":"1.0","trace_id":"TRC-EVL-efab238868dc693e78c80a3a"},"geometry":{"type":"Point","coordinates":[-56.66,-21.594166666666663]}},{"type":"Feature","properties":{"id_decreto":"DEC12897-52","numero":52,"nome":"Gruta e Nascente do Rio Formoso","municipio":"Bonito","interesse_oficial":"Geológico, paleontológico e cultural","descricao_oficial_resumida":"Ocorrência de fósseis pleistocênicos.","localizacao_oficial":"Município de Bonito","tipo_geometria_prevista":"ponto","status_geometria":"georreferenciado","fonte_coordenada":"Proposta técnica SGB/CPRM compilada no atlas","confianca_coordenada":"coordenada publicada em fonte técnica complementar","status_inventario":"Integrante do Anexo I do Decreto Estadual nº 12.897/2009","fonte_decreto":"https://aacpdappls.net.ms.gov.br/appls/legislacao/secoge/govato.nsf/fd8600de8a55c7fc04256b210079ce25/9d2a7d2cb9c27f170425769a005c3d44?OpenDocument","publicacao":"Diário Oficial de MS nº 7.610, de 23 de dezembro de 2009","data_compilacao":"2026-08-05","registro_sigep":"","numero_sigep":"","situacao_sigep":"","fonte_sigep":"","natureza_registro":"evidencia_documentada","localizacao_status":"localizada","source_id":"SRC-3024980f7582080f","validacao_documental":"realizada","validacao_espacial":"parcial","validacao_institucional":"parcial","validacao_campo":"nao_realizada","validacao_comunitaria":"nao_realizada","validation_next":"dados_insuficientes","publicacao_status":"publico","evl_schema_version":"1.0","trace_id":"TRC-EVL-8e436ba539f7369dc29b0437"},"geometry":{"type":"Point","coordinates":[-56.63666666666666,-21.256944444444443]}},{"type":"Feature","properties":{"id_decreto":"DEC12897-53","numero":53,"nome":"Lagoas Hiperalcalinas, salinas","municipio":"Parque Estadual do Pantanal do Rio Negro","interesse_oficial":"Geológico, ecológico, paisagístico e cultural","descricao_oficial_resumida":"Georroteiro com lagoas hiperalcalinas e geossítios ecológicos e culturais.","localizacao_oficial":"Parque Estadual do Pantanal do Rio Negro","tipo_geometria_prevista":"área ou georroteiro","status_geometria":"geometria de área ou georroteiro pendente","fonte_coordenada":"","confianca_coordenada":"geometria linear ou de área ainda não incorporada","status_inventario":"Integrante do Anexo I do Decreto Estadual nº 12.897/2009","fonte_decreto":"https://aacpdappls.net.ms.gov.br/appls/legislacao/secoge/govato.nsf/fd8600de8a55c7fc04256b210079ce25/9d2a7d2cb9c27f170425769a005c3d44?OpenDocument","publicacao":"Diário Oficial de MS nº 7.610, de 23 de dezembro de 2009","data_compilacao":"2026-08-05","registro_sigep":"","numero_sigep":"","situacao_sigep":"","fonte_sigep":"","natureza_registro":"evidencia_documentada","localizacao_status":"contextual","source_id":"SRC-3024980f7582080f","validacao_documental":"realizada","validacao_espacial":"parcial","validacao_institucional":"parcial","validacao_campo":"nao_realizada","validacao_comunitaria":"nao_realizada","validation_next":"dados_insuficientes","publicacao_status":"publico","evl_schema_version":"1.0","trace_id":"TRC-EVL-c13355bd352471ee20a8ca9c"},"geometry":null},{"type":"Feature","properties":{"id_decreto":"DEC12897-54","numero":54,"nome":"Roteiro Histórico da Retirada da Laguna","municipio":"Bela Vista / Guia Lopes da Laguna / Jardim / Nioaque / Anastácio / Aquidauana","interesse_oficial":"Histórico e cultural","descricao_oficial_resumida":"Georroteiro com sítios históricos e culturais associados à Retirada da Laguna.","localizacao_oficial":"Bela Vista, Guia Lopes da Laguna, Jardim, Nioaque, Anastácio e Aquidauana","tipo_geometria_prevista":"linha","status_geometria":"geometria de linha pendente","fonte_coordenada":"","confianca_coordenada":"geometria linear ou de área ainda não incorporada","status_inventario":"Integrante do Anexo I do Decreto Estadual nº 12.897/2009","fonte_decreto":"https://aacpdappls.net.ms.gov.br/appls/legislacao/secoge/govato.nsf/fd8600de8a55c7fc04256b210079ce25/9d2a7d2cb9c27f170425769a005c3d44?OpenDocument","publicacao":"Diário Oficial de MS nº 7.610, de 23 de dezembro de 2009","data_compilacao":"2026-08-05","registro_sigep":"","numero_sigep":"","situacao_sigep":"","fonte_sigep":"","natureza_registro":"evidencia_documentada","localizacao_status":"contextual","source_id":"SRC-3024980f7582080f","validacao_documental":"realizada","validacao_espacial":"parcial","validacao_institucional":"parcial","validacao_campo":"nao_realizada","validacao_comunitaria":"nao_realizada","validation_next":"dados_insuficientes","publicacao_status":"publico","evl_schema_version":"1.0","trace_id":"TRC-EVL-ede93f3d3d6402215167adef"},"geometry":null}],"atlas_metadata":{"evl_schema_version":"1.0","evl_materializado_em":"2026-08-09T02:36:01.712431+00:00","evl_records":54}}