{"type":"FeatureCollection","features":[{"type":"Feature","properties":{"id_geossit":964,"nome":"Gruta do Lago Azul","municipio":"Bonito","tematica":"Espeleologia","status_validacao":"Em análise","categoria_geossit":"Geossítio de relevância nacional","valor_cientifico":220,"valor_educativo":345,"valor_turistico":360,"risco_degradacao":135,"classe_risco":"Baixo","latitude":-21.144765854,"longitude":-56.591259003,"uf":"MS","fonte":"https://www.sgb.gov.br/geossit/geossitios/ver/964","observacao":"O GEOSSIT marca o registro como Em análise. Não equivale a validação definitiva.","data_compilacao":"2026-08-05","natureza_registro":"evidencia_documentada","localizacao_status":"localizada","source_id":"SRC-b33fd07c96bac03f","validacao_documental":"realizada","validacao_espacial":"parcial","validacao_institucional":"nao_realizada","validacao_campo":"nao_realizada","validacao_comunitaria":"nao_realizada","validation_next":"dados_insuficientes","publicacao_status":"publico","evl_schema_version":"1.0","trace_id":"TRC-EVL-04adfbc38c100aba993a6377"},"geometry":{"coordinates":[-56.591259003,-21.144765854],"type":"Point"}},{"type":"Feature","properties":{"id_geossit":963,"nome":"Porto Ladário","municipio":"Ladário","tematica":"Paleontologia","status_validacao":"Em análise","categoria_geossit":"Sítio da geodiversidade de relevância nacional","valor_cientifico":180,"valor_educativo":295,"valor_turistico":290,"risco_degradacao":370,"classe_risco":"Alto","latitude":-19.000843048,"longitude":-57.601287842,"uf":"MS","fonte":"https://www.sgb.gov.br/geossit/geossitios/ver/963","observacao":"O GEOSSIT marca o registro como Em análise. Não equivale a validação definitiva.","data_compilacao":"2026-08-05","natureza_registro":"evidencia_documentada","localizacao_status":"localizada","source_id":"SRC-b33fd07c96bac03f","validacao_documental":"realizada","validacao_espacial":"parcial","validacao_institucional":"nao_realizada","validacao_campo":"nao_realizada","validacao_comunitaria":"nao_realizada","validation_next":"dados_insuficientes","publicacao_status":"publico","evl_schema_version":"1.0","trace_id":"TRC-EVL-59a6885ac9bf38e1f87b7a88"},"geometry":{"coordinates":[-57.601287842,-19.000843048],"type":"Point"}},{"type":"Feature","properties":{"id_geossit":959,"nome":"Rochas Fosfáticas da Fazenda Ressaca e Primavera","municipio":"Bonito","tematica":"Sedimentologia","status_validacao":"Em análise","categoria_geossit":"Geossítio de relevância internacional","valor_cientifico":310,"valor_educativo":190,"valor_turistico":195,"risco_degradacao":320,"classe_risco":"Alto","latitude":-20.839170456,"longitude":-56.588756561,"uf":"MS","fonte":"https://www.sgb.gov.br/geossit/geossitios/ver/959","observacao":"O GEOSSIT marca o registro como Em análise. Não equivale a validação definitiva.","data_compilacao":"2026-08-05","natureza_registro":"evidencia_documentada","localizacao_status":"localizada","source_id":"SRC-b33fd07c96bac03f","validacao_documental":"realizada","validacao_espacial":"parcial","validacao_institucional":"nao_realizada","validacao_campo":"nao_realizada","validacao_comunitaria":"nao_realizada","validation_next":"dados_insuficientes","publicacao_status":"publico","evl_schema_version":"1.0","trace_id":"TRC-EVL-64ed520d1f93760c775fa4b8"},"geometry":{"coordinates":[-56.588756561,-20.839170456],"type":"Point"}},{"type":"Feature","properties":{"id_geossit":958,"nome":"Mineração Corcal","municipio":"Corumbá","tematica":"Paleontologia","status_validacao":"Em análise","categoria_geossit":"Geossítio de relevância nacional","valor_cientifico":200,"valor_educativo":225,"valor_turistico":155,"risco_degradacao":320,"classe_risco":"Alto","latitude":-19.017427444,"longitude":-57.679813385,"uf":"MS","fonte":"https://www.sgb.gov.br/geossit/geossitios/ver/958","observacao":"O GEOSSIT marca o registro como Em análise. Não equivale a validação definitiva.","data_compilacao":"2026-08-05","natureza_registro":"evidencia_documentada","localizacao_status":"localizada","source_id":"SRC-b33fd07c96bac03f","validacao_documental":"realizada","validacao_espacial":"parcial","validacao_institucional":"nao_realizada","validacao_campo":"nao_realizada","validacao_comunitaria":"nao_realizada","validation_next":"dados_insuficientes","publicacao_status":"publico","evl_schema_version":"1.0","trace_id":"TRC-EVL-7db2ab6cd30076fdf62c5d15"},"geometry":{"coordinates":[-57.679813385,-19.017427444],"type":"Point"}},{"type":"Feature","properties":{"id_geossit":955,"nome":"Formação Urucum","municipio":"Corumbá","tematica":"Sedimentologia","status_validacao":"Em análise","categoria_geossit":"Sítio da geodiversidade de relevância regional ou local","valor_cientifico":190,"valor_educativo":190,"valor_turistico":170,"risco_degradacao":245,"classe_risco":"Médio","latitude":-19.062187195,"longitude":-57.677654266,"uf":"MS","fonte":"https://www.sgb.gov.br/geossit/geossitios/ver/955","observacao":"O GEOSSIT marca o registro como Em análise. Não equivale a validação definitiva.","data_compilacao":"2026-08-05","natureza_registro":"evidencia_documentada","localizacao_status":"localizada","source_id":"SRC-b33fd07c96bac03f","validacao_documental":"realizada","validacao_espacial":"parcial","validacao_institucional":"nao_realizada","validacao_campo":"nao_realizada","validacao_comunitaria":"nao_realizada","validation_next":"dados_insuficientes","publicacao_status":"publico","evl_schema_version":"1.0","trace_id":"TRC-EVL-19e4b7eb3e37f1c57db13bf1"},"geometry":{"coordinates":[-57.677654266,-19.062187195],"type":"Point"}},{"type":"Feature","properties":{"id_geossit":953,"nome":"Porto Limoeiro","municipio":"Corumbá","tematica":"Paleontologia","status_validacao":"Em análise","categoria_geossit":"Sítio da geodiversidade de relevância nacional","valor_cientifico":180,"valor_educativo":260,"valor_turistico":235,"risco_degradacao":340,"classe_risco":"Alto","latitude":-18.998399734,"longitude":-57.632316589,"uf":"MS","fonte":"https://www.sgb.gov.br/geossit/geossitios/ver/953","observacao":"O GEOSSIT marca o registro como Em análise. Não equivale a validação definitiva.","data_compilacao":"2026-08-05","natureza_registro":"evidencia_documentada","localizacao_status":"localizada","source_id":"SRC-b33fd07c96bac03f","validacao_documental":"realizada","validacao_espacial":"parcial","validacao_institucional":"nao_realizada","validacao_campo":"nao_realizada","validacao_comunitaria":"nao_realizada","validation_next":"dados_insuficientes","publicacao_status":"publico","evl_schema_version":"1.0","trace_id":"TRC-EVL-d4e57503e911a105bf4948ed"},"geometry":{"coordinates":[-57.632316589,-18.998399734],"type":"Point"}},{"type":"Feature","properties":{"id_geossit":951,"nome":"Crosta Laterítica com Inscrições Rupestres, Fazenda Figueirinha","municipio":"Corumbá","tematica":"Formações superficiais","status_validacao":"Em análise","categoria_geossit":"Sítio da geodiversidade de relevância nacional","valor_cientifico":175,"valor_educativo":230,"valor_turistico":250,"risco_degradacao":170,"classe_risco":"Baixo","latitude":-19.236133575,"longitude":-57.652023315,"uf":"MS","fonte":"https://www.sgb.gov.br/geossit/geossitios/ver/951","observacao":"O GEOSSIT marca o registro como Em análise. Não equivale a validação definitiva.","data_compilacao":"2026-08-05","natureza_registro":"evidencia_documentada","localizacao_status":"localizada","source_id":"SRC-b33fd07c96bac03f","validacao_documental":"realizada","validacao_espacial":"parcial","validacao_institucional":"nao_realizada","validacao_campo":"nao_realizada","validacao_comunitaria":"nao_realizada","validation_next":"dados_insuficientes","publicacao_status":"publico","evl_schema_version":"1.0","trace_id":"TRC-EVL-75a0d9dcd6d1461c6fa94955"},"geometry":{"coordinates":[-57.652023315,-19.236133575],"type":"Point"}},{"type":"Feature","properties":{"id_geossit":1496,"nome":"Parque Municipal Marina Gatass","municipio":"Corumbá","tematica":"Paleontologia","status_validacao":"Em análise","categoria_geossit":"Sítio da geodiversidade de relevância nacional","valor_cientifico":175,"valor_educativo":340,"valor_turistico":325,"risco_degradacao":165,"classe_risco":"Baixo","latitude":-19.012443542,"longitude":-57.688095093,"uf":"MS","fonte":"https://www.sgb.gov.br/geossit/geossitios/ver/1496","observacao":"O GEOSSIT marca o registro como Em análise. Não equivale a validação definitiva.","data_compilacao":"2026-08-05","natureza_registro":"evidencia_documentada","localizacao_status":"localizada","source_id":"SRC-b33fd07c96bac03f","validacao_documental":"realizada","validacao_espacial":"parcial","validacao_institucional":"nao_realizada","validacao_campo":"nao_realizada","validacao_comunitaria":"nao_realizada","validation_next":"dados_insuficientes","publicacao_status":"publico","evl_schema_version":"1.0","trace_id":"TRC-EVL-2d286026c6ee71e3a87e0930"},"geometry":{"coordinates":[-57.688095093,-19.012443542],"type":"Point"}}],"atlas_metadata":{"evl_schema_version":"1.0","evl_materializado_em":"2026-08-09T02:36:01.625652+00:00","evl_records":8}}