{"type":"FeatureCollection","name":"localidades_indigenas_sem_vinculo_ti_ibge","features":[{"type":"Feature","properties":{"CD_UF":50,"NM_UF":"Mato Grosso do Sul","CD_MUNIC":5000609,"NM_MUNIC":"Amambai","ID_LI":5000098,"CD_LI":5010038,"OCORRENCIA":1,"NM_LI":"Aldeia Indígena Jaguary","CD_SETOR":500060905000022,"SITUACAO":"Urbana","CD_SIT":1,"CD_TIPO":null,"CD_AGLOM":null,"NM_AGLOM":null,"CD_TI":null,"TI_FUNAI":null,"NM_TI":null,"FASE":null,"C_CR_FUNAI":null,"N_CR_FUNAI":null,"ALD_FUNAI":3104.0,"VAL_FUNAI":1.0,"ALD_SIASI":51019.0,"VAL_SIASI":1.0,"AMZ_LEG":null,"LAT":-23.08643780445541,"LONG":-55.23966228396932,"fonte":"IBGE, Censo Demográfico 2022, Localidades Indígenas, arquivo atualizado em 19/09/2025","url_fonte":"https://geoftp.ibge.gov.br/organizacao_do_territorio/estrutura_territorial/localidades/localidades_indigenas_2022/"},"geometry":{"coordinates":[-55.23966228396932,-23.08643780445541],"type":"Point"}},{"type":"Feature","properties":{"CD_UF":50,"NM_UF":"Mato Grosso do Sul","CD_MUNIC":5007208,"NM_MUNIC":"Rio Brilhante","ID_LI":5000467,"CD_LI":5010107,"OCORRENCIA":1,"NM_LI":"Aldeia Indígena Laranjeira Nhanderu","CD_SETOR":500720805000067,"SITUACAO":"Rural","CD_SIT":8,"CD_TIPO":5.0,"CD_AGLOM":500720800014.0,"NM_AGLOM":"Aldeia Indígena Laranjeira Nhanderu","CD_TI":null,"TI_FUNAI":null,"NM_TI":null,"FASE":null,"C_CR_FUNAI":null,"N_CR_FUNAI":null,"ALD_FUNAI":3176.0,"VAL_FUNAI":1.0,"ALD_SIASI":null,"VAL_SIASI":null,"AMZ_LEG":null,"LAT":-21.879892770740778,"LONG":-54.52929497064327,"fonte":"IBGE, Censo Demográfico 2022, Localidades Indígenas, arquivo atualizado em 19/09/2025","url_fonte":"https://geoftp.ibge.gov.br/organizacao_do_territorio/estrutura_territorial/localidades/localidades_indigenas_2022/"},"geometry":{"coordinates":[-54.52929497064327,-21.879892770740778],"type":"Point"}},{"type":"Feature","properties":{"CD_UF":50,"NM_UF":"Mato Grosso do Sul","CD_MUNIC":5005608,"NM_MUNIC":"Miranda","ID_LI":5000008,"CD_LI":5010031,"OCORRENCIA":1,"NM_LI":"Comunidade Indígena Boa Esperança","CD_SETOR":500560805000066,"SITUACAO":"Rural","CD_SIT":8,"CD_TIPO":5.0,"CD_AGLOM":500560800014.0,"NM_AGLOM":"Aldeia Indígena Boa Esperança","CD_TI":null,"TI_FUNAI":null,"NM_TI":null,"FASE":null,"C_CR_FUNAI":null,"N_CR_FUNAI":null,"ALD_FUNAI":null,"VAL_FUNAI":null,"ALD_SIASI":null,"VAL_SIASI":null,"AMZ_LEG":null,"LAT":-20.25738713892135,"LONG":-56.35487372222222,"fonte":"IBGE, Censo Demográfico 2022, Localidades Indígenas, arquivo atualizado em 19/09/2025","url_fonte":"https://geoftp.ibge.gov.br/organizacao_do_territorio/estrutura_territorial/localidades/localidades_indigenas_2022/"},"geometry":{"coordinates":[-56.35487372222222,-20.25738713892135],"type":"Point"}},{"type":"Feature","properties":{"CD_UF":50,"NM_UF":"Mato Grosso do Sul","CD_MUNIC":5002704,"NM_MUNIC":"Campo Grande","ID_LI":5000011,"CD_LI":5010098,"OCORRENCIA":1,"NM_LI":"Aldeia Indígena Água Bonita","CD_SETOR":500270405000015,"SITUACAO":"Rural","CD_SIT":5,"CD_TIPO":5.0,"CD_AGLOM":500270400004.0,"NM_AGLOM":"Aldeia Indígena Água Bonita","CD_TI":null,"TI_FUNAI":null,"NM_TI":null,"FASE":null,"C_CR_FUNAI":null,"N_CR_FUNAI":null,"ALD_FUNAI":null,"VAL_FUNAI":null,"ALD_SIASI":null,"VAL_SIASI":null,"AMZ_LEG":null,"LAT":-20.371685972254884,"LONG":-54.57630513888889,"fonte":"IBGE, Censo Demográfico 2022, Localidades Indígenas, arquivo atualizado em 19/09/2025","url_fonte":"https://geoftp.ibge.gov.br/organizacao_do_territorio/estrutura_territorial/localidades/localidades_indigenas_2022/"},"geometry":{"coordinates":[-54.57630513888889,-20.371685972254884],"type":"Point"}},{"type":"Feature","properties":{"CD_UF":50,"NM_UF":"Mato Grosso do Sul","CD_MUNIC":5001102,"NM_MUNIC":"Aquidauana","ID_LI":5000038,"CD_LI":5010122,"OCORRENCIA":1,"NM_LI":"Aldeia Indígena Tico Lipu","CD_SETOR":500110205000068,"SITUACAO":"Rural","CD_SIT":5,"CD_TIPO":5.0,"CD_AGLOM":500110200006.0,"NM_AGLOM":"Aldeia Indígena Tico Lipu","CD_TI":null,"TI_FUNAI":null,"NM_TI":null,"FASE":null,"C_CR_FUNAI":null,"N_CR_FUNAI":null,"ALD_FUNAI":null,"VAL_FUNAI":null,"ALD_SIASI":null,"VAL_SIASI":null,"AMZ_LEG":null,"LAT":-20.44409163892168,"LONG":-55.75855,"fonte":"IBGE, Censo Demográfico 2022, Localidades Indígenas, arquivo atualizado em 19/09/2025","url_fonte":"https://geoftp.ibge.gov.br/organizacao_do_territorio/estrutura_territorial/localidades/localidades_indigenas_2022/"},"geometry":{"coordinates":[-55.75855,-20.44409163892168],"type":"Point"}},{"type":"Feature","properties":{"CD_UF":50,"NM_UF":"Mato Grosso do Sul","CD_MUNIC":5003504,"NM_MUNIC":"Douradina","ID_LI":5000039,"CD_LI":5010049,"OCORRENCIA":1,"NM_LI":"Aldeia Indígena Panambi Lagoa Rica","CD_SETOR":500350410000004,"SITUACAO":"Rural","CD_SIT":8,"CD_TIPO":5.0,"CD_AGLOM":500350400002.0,"NM_AGLOM":"Aldeia Indígena Panambi / Lagoa Rica","CD_TI":null,"TI_FUNAI":null,"NM_TI":null,"FASE":null,"C_CR_FUNAI":null,"N_CR_FUNAI":null,"ALD_FUNAI":33.0,"VAL_FUNAI":1.0,"ALD_SIASI":null,"VAL_SIASI":null,"AMZ_LEG":null,"LAT":-21.987788694480003,"LONG":-54.64074213888889,"fonte":"IBGE, Censo Demográfico 2022, Localidades Indígenas, arquivo atualizado em 19/09/2025","url_fonte":"https://geoftp.ibge.gov.br/organizacao_do_territorio/estrutura_territorial/localidades/localidades_indigenas_2022/"},"geometry":{"coordinates":[-54.64074213888889,-21.987788694480003],"type":"Point"}},{"type":"Feature","properties":{"CD_UF":50,"NM_UF":"Mato Grosso do Sul","CD_MUNIC":5004304,"NM_MUNIC":"Iguatemi","ID_LI":5000064,"CD_LI":5010121,"OCORRENCIA":1,"NM_LI":"Aldeia Indígena Pyelito / Mbarakay","CD_SETOR":500430405000039,"SITUACAO":"Rural","CD_SIT":8,"CD_TIPO":5.0,"CD_AGLOM":500430400005.0,"NM_AGLOM":"Aldeia Indígena Pyelito","CD_TI":null,"TI_FUNAI":null,"NM_TI":null,"FASE":null,"C_CR_FUNAI":null,"N_CR_FUNAI":null,"ALD_FUNAI":null,"VAL_FUNAI":null,"ALD_SIASI":null,"VAL_SIASI":null,"AMZ_LEG":null,"LAT":-23.57339033337181,"LONG":-54.73775861111111,"fonte":"IBGE, Censo Demográfico 2022, Localidades Indígenas, arquivo atualizado em 19/09/2025","url_fonte":"https://geoftp.ibge.gov.br/organizacao_do_territorio/estrutura_territorial/localidades/localidades_indigenas_2022/"},"geometry":{"coordinates":[-54.73775861111111,-23.57339033337181],"type":"Point"}},{"type":"Feature","properties":{"CD_UF":50,"NM_UF":"Mato Grosso do Sul","CD_MUNIC":5004304,"NM_MUNIC":"Iguatemi","ID_LI":5000084,"CD_LI":5010121,"OCORRENCIA":2,"NM_LI":"Aldeia Indígena Pyelito / Mbarakay","CD_SETOR":500430405000039,"SITUACAO":"Rural","CD_SIT":8,"CD_TIPO":5.0,"CD_AGLOM":500430400005.0,"NM_AGLOM":"Aldeia Indígena Pyelito","CD_TI":null,"TI_FUNAI":null,"NM_TI":null,"FASE":null,"C_CR_FUNAI":null,"N_CR_FUNAI":null,"ALD_FUNAI":null,"VAL_FUNAI":null,"ALD_SIASI":null,"VAL_SIASI":null,"AMZ_LEG":null,"LAT":-23.570663888927356,"LONG":-54.73778194444444,"fonte":"IBGE, Censo Demográfico 2022, Localidades Indígenas, arquivo atualizado em 19/09/2025","url_fonte":"https://geoftp.ibge.gov.br/organizacao_do_territorio/estrutura_territorial/localidades/localidades_indigenas_2022/"},"geometry":{"coordinates":[-54.73778194444444,-23.570663888927356],"type":"Point"}},{"type":"Feature","properties":{"CD_UF":50,"NM_UF":"Mato Grosso do Sul","CD_MUNIC":5001243,"NM_MUNIC":"Aral Moreira","ID_LI":5000088,"CD_LI":5010050,"OCORRENCIA":1,"NM_LI":"Aldeia Indígena Cristino Potrero","CD_SETOR":500124305000033,"SITUACAO":"Rural","CD_SIT":8,"CD_TIPO":5.0,"CD_AGLOM":500124300011.0,"NM_AGLOM":"Aldeia Indígena Cristino Potrero","CD_TI":null,"TI_FUNAI":null,"NM_TI":null,"FASE":null,"C_CR_FUNAI":null,"N_CR_FUNAI":null,"ALD_FUNAI":null,"VAL_FUNAI":null,"ALD_SIASI":null,"VAL_SIASI":null,"AMZ_LEG":null,"LAT":-23.21648672226004,"LONG":-55.53330258333333,"fonte":"IBGE, Censo Demográfico 2022, Localidades Indígenas, arquivo atualizado em 19/09/2025","url_fonte":"https://geoftp.ibge.gov.br/organizacao_do_territorio/estrutura_territorial/localidades/localidades_indigenas_2022/"},"geometry":{"coordinates":[-55.53330258333333,-23.21648672226004],"type":"Point"}},{"type":"Feature","properties":{"CD_UF":50,"NM_UF":"Mato Grosso do Sul","CD_MUNIC":5000609,"NM_MUNIC":"Amambai","ID_LI":5000116,"CD_LI":5010111,"OCORRENCIA":1,"NM_LI":"Aldeia Indígena Guapo'y Mirim Tujury","CD_SETOR":500060905000105,"SITUACAO":"Rural","CD_SIT":8,"CD_TIPO":5.0,"CD_AGLOM":500060900009.0,"NM_AGLOM":"Aldeia Indígena Retomada Guapoy Mirim","CD_TI":null,"TI_FUNAI":null,"NM_TI":null,"FASE":null,"C_CR_FUNAI":null,"N_CR_FUNAI":null,"ALD_FUNAI":null,"VAL_FUNAI":null,"ALD_SIASI":null,"VAL_SIASI":null,"AMZ_LEG":null,"LAT":-23.051991694481952,"LONG":-55.17358402777778,"fonte":"IBGE, Censo Demográfico 2022, Localidades Indígenas, arquivo atualizado em 19/09/2025","url_fonte":"https://geoftp.ibge.gov.br/organizacao_do_territorio/estrutura_territorial/localidades/localidades_indigenas_2022/"},"geometry":{"coordinates":[-55.17358402777778,-23.051991694481952],"type":"Point"}},{"type":"Feature","properties":{"CD_UF":50,"NM_UF":"Mato Grosso do Sul","CD_MUNIC":5003504,"NM_MUNIC":"Douradina","ID_LI":5000118,"CD_LI":5010161,"OCORRENCIA":1,"NM_LI":"Aldeia Indígena Guyra Kamby","CD_SETOR":500350410000004,"SITUACAO":"Rural","CD_SIT":8,"CD_TIPO":5.0,"CD_AGLOM":500350400002.0,"NM_AGLOM":"Aldeia Indígena Panambi / Lagoa Rica","CD_TI":null,"TI_FUNAI":null,"NM_TI":null,"FASE":null,"C_CR_FUNAI":null,"N_CR_FUNAI":null,"ALD_FUNAI":null,"VAL_FUNAI":null,"ALD_SIASI":null,"VAL_SIASI":null,"AMZ_LEG":null,"LAT":-21.98282845976945,"LONG":-54.62326176751149,"fonte":"IBGE, Censo Demográfico 2022, Localidades Indígenas, arquivo atualizado em 19/09/2025","url_fonte":"https://geoftp.ibge.gov.br/organizacao_do_territorio/estrutura_territorial/localidades/localidades_indigenas_2022/"},"geometry":{"coordinates":[-54.62326176751149,-21.98282845976945],"type":"Point"}},{"type":"Feature","properties":{"CD_UF":50,"NM_UF":"Mato Grosso do Sul","CD_MUNIC":5003504,"NM_MUNIC":"Douradina","ID_LI":5000123,"CD_LI":5010049,"OCORRENCIA":2,"NM_LI":"Aldeia Indígena Panambi Lagoa Rica","CD_SETOR":500350410000004,"SITUACAO":"Rural","CD_SIT":8,"CD_TIPO":5.0,"CD_AGLOM":500350400002.0,"NM_AGLOM":"Aldeia Indígena Panambi / Lagoa Rica","CD_TI":null,"TI_FUNAI":null,"NM_TI":null,"FASE":null,"C_CR_FUNAI":null,"N_CR_FUNAI":null,"ALD_FUNAI":33.0,"VAL_FUNAI":1.0,"ALD_SIASI":null,"VAL_SIASI":null,"AMZ_LEG":null,"LAT":-21.98076233336888,"LONG":-54.641963833333335,"fonte":"IBGE, Censo Demográfico 2022, Localidades Indígenas, arquivo atualizado em 19/09/2025","url_fonte":"https://geoftp.ibge.gov.br/organizacao_do_territorio/estrutura_territorial/localidades/localidades_indigenas_2022/"},"geometry":{"coordinates":[-54.641963833333335,-21.98076233336888],"type":"Point"}},{"type":"Feature","properties":{"CD_UF":50,"NM_UF":"Mato Grosso do Sul","CD_MUNIC":5003504,"NM_MUNIC":"Douradina","ID_LI":5000130,"CD_LI":5010160,"OCORRENCIA":1,"NM_LI":"Aldeia Indígena Guaaroka","CD_SETOR":500350410000004,"SITUACAO":"Rural","CD_SIT":8,"CD_TIPO":5.0,"CD_AGLOM":500350400002.0,"NM_AGLOM":"Aldeia Indígena Panambi / Lagoa Rica","CD_TI":null,"TI_FUNAI":null,"NM_TI":null,"FASE":null,"C_CR_FUNAI":null,"N_CR_FUNAI":null,"ALD_FUNAI":null,"VAL_FUNAI":null,"ALD_SIASI":null,"VAL_SIASI":null,"AMZ_LEG":null,"LAT":-21.98997878137816,"LONG":-54.63125203466922,"fonte":"IBGE, Censo Demográfico 2022, Localidades Indígenas, arquivo atualizado em 19/09/2025","url_fonte":"https://geoftp.ibge.gov.br/organizacao_do_territorio/estrutura_territorial/localidades/localidades_indigenas_2022/"},"geometry":{"coordinates":[-54.63125203466922,-21.98997878137816],"type":"Point"}},{"type":"Feature","properties":{"CD_UF":50,"NM_UF":"Mato Grosso do Sul","CD_MUNIC":5004908,"NM_MUNIC":"Jaraguari","ID_LI":5000163,"CD_LI":5010155,"OCORRENCIA":1,"NM_LI":"Aldeia Indígena Bálsamo","CD_SETOR":500490810000008,"SITUACAO":"Rural","CD_SIT":8,"CD_TIPO":5.0,"CD_AGLOM":500490800003.0,"NM_AGLOM":"Aldeia Indígena Bálsamo","CD_TI":null,"TI_FUNAI":null,"NM_TI":null,"FASE":null,"C_CR_FUNAI":null,"N_CR_FUNAI":null,"ALD_FUNAI":null,"VAL_FUNAI":null,"ALD_SIASI":50262.0,"VAL_SIASI":2.0,"AMZ_LEG":null,"LAT":-20.058893722254336,"LONG":-54.70035277777778,"fonte":"IBGE, Censo Demográfico 2022, Localidades Indígenas, arquivo atualizado em 19/09/2025","url_fonte":"https://geoftp.ibge.gov.br/organizacao_do_territorio/estrutura_territorial/localidades/localidades_indigenas_2022/"},"geometry":{"coordinates":[-54.70035277777778,-20.058893722254336],"type":"Point"}},{"type":"Feature","properties":{"CD_UF":50,"NM_UF":"Mato Grosso do Sul","CD_MUNIC":5001243,"NM_MUNIC":"Aral Moreira","ID_LI":5000175,"CD_LI":5010150,"OCORRENCIA":1,"NM_LI":"Aldeia Indígena Tekoha Guaiviry","CD_SETOR":500124305000031,"SITUACAO":"Rural","CD_SIT":8,"CD_TIPO":5.0,"CD_AGLOM":500124300009.0,"NM_AGLOM":"Aldeia Indígena Tekoha Guaiviri","CD_TI":null,"TI_FUNAI":null,"NM_TI":null,"FASE":null,"C_CR_FUNAI":null,"N_CR_FUNAI":null,"ALD_FUNAI":null,"VAL_FUNAI":null,"ALD_SIASI":null,"VAL_SIASI":null,"AMZ_LEG":null,"LAT":-22.79175452781481,"LONG":-55.38763297222222,"fonte":"IBGE, Censo Demográfico 2022, Localidades Indígenas, arquivo atualizado em 19/09/2025","url_fonte":"https://geoftp.ibge.gov.br/organizacao_do_territorio/estrutura_territorial/localidades/localidades_indigenas_2022/"},"geometry":{"coordinates":[-55.38763297222222,-22.79175452781481],"type":"Point"}},{"type":"Feature","properties":{"CD_UF":50,"NM_UF":"Mato Grosso do Sul","CD_MUNIC":5004502,"NM_MUNIC":"Itaporã","ID_LI":5000179,"CD_LI":5010081,"OCORRENCIA":1,"NM_LI":"Comunidade Indígena Ñuvera Guassú 3","CD_SETOR":500450205000034,"SITUACAO":"Rural","CD_SIT":8,"CD_TIPO":5.0,"CD_AGLOM":500450200003.0,"NM_AGLOM":"Aldeia Indígena Ñu Vera II","CD_TI":null,"TI_FUNAI":null,"NM_TI":null,"FASE":null,"C_CR_FUNAI":null,"N_CR_FUNAI":null,"ALD_FUNAI":null,"VAL_FUNAI":null,"ALD_SIASI":null,"VAL_SIASI":null,"AMZ_LEG":null,"LAT":-22.193725083369277,"LONG":-54.860543972222224,"fonte":"IBGE, Censo Demográfico 2022, Localidades Indígenas, arquivo atualizado em 19/09/2025","url_fonte":"https://geoftp.ibge.gov.br/organizacao_do_territorio/estrutura_territorial/localidades/localidades_indigenas_2022/"},"geometry":{"coordinates":[-54.860543972222224,-22.193725083369277],"type":"Point"}},{"type":"Feature","properties":{"CD_UF":50,"NM_UF":"Mato Grosso do Sul","CD_MUNIC":5007208,"NM_MUNIC":"Rio Brilhante","ID_LI":5000235,"CD_LI":5010131,"OCORRENCIA":1,"NM_LI":"Aldeia Indígena Sete Placas","CD_SETOR":500720805000069,"SITUACAO":"Rural","CD_SIT":8,"CD_TIPO":5.0,"CD_AGLOM":500720800015.0,"NM_AGLOM":"Aldeia Indígena Sete Placas","CD_TI":null,"TI_FUNAI":null,"NM_TI":null,"FASE":null,"C_CR_FUNAI":null,"N_CR_FUNAI":null,"ALD_FUNAI":3178.0,"VAL_FUNAI":1.0,"ALD_SIASI":null,"VAL_SIASI":null,"AMZ_LEG":null,"LAT":-21.58597033336816,"LONG":-54.866145583333335,"fonte":"IBGE, Censo Demográfico 2022, Localidades Indígenas, arquivo atualizado em 19/09/2025","url_fonte":"https://geoftp.ibge.gov.br/organizacao_do_territorio/estrutura_territorial/localidades/localidades_indigenas_2022/"},"geometry":{"coordinates":[-54.866145583333335,-21.58597033336816],"type":"Point"}},{"type":"Feature","properties":{"CD_UF":50,"NM_UF":"Mato Grosso do Sul","CD_MUNIC":5004304,"NM_MUNIC":"Iguatemi","ID_LI":5000298,"CD_LI":5010121,"OCORRENCIA":3,"NM_LI":"Aldeia Indígena Pyelito / Mbarakay","CD_SETOR":500430405000039,"SITUACAO":"Rural","CD_SIT":8,"CD_TIPO":5.0,"CD_AGLOM":500430400005.0,"NM_AGLOM":"Aldeia Indígena Pyelito","CD_TI":null,"TI_FUNAI":null,"NM_TI":null,"FASE":null,"C_CR_FUNAI":null,"N_CR_FUNAI":null,"ALD_FUNAI":null,"VAL_FUNAI":null,"ALD_SIASI":null,"VAL_SIASI":null,"AMZ_LEG":null,"LAT":-23.578549361149594,"LONG":-54.73938944444445,"fonte":"IBGE, Censo Demográfico 2022, Localidades Indígenas, arquivo atualizado em 19/09/2025","url_fonte":"https://geoftp.ibge.gov.br/organizacao_do_territorio/estrutura_territorial/localidades/localidades_indigenas_2022/"},"geometry":{"coordinates":[-54.73938944444445,-23.578549361149594],"type":"Point"}},{"type":"Feature","properties":{"CD_UF":50,"NM_UF":"Mato Grosso do Sul","CD_MUNIC":5006606,"NM_MUNIC":"Ponta Porã","ID_LI":5000305,"CD_LI":5010033,"OCORRENCIA":1,"NM_LI":"Aldeia Indígena Kokwei","CD_SETOR":500660615000007,"SITUACAO":"Rural","CD_SIT":8,"CD_TIPO":5.0,"CD_AGLOM":500660600010.0,"NM_AGLOM":"Aldeia Indígena Kokwei","CD_TI":null,"TI_FUNAI":null,"NM_TI":null,"FASE":null,"C_CR_FUNAI":null,"N_CR_FUNAI":null,"ALD_FUNAI":null,"VAL_FUNAI":null,"ALD_SIASI":null,"VAL_SIASI":null,"AMZ_LEG":null,"LAT":-22.05234927781346,"LONG":-55.95793427777778,"fonte":"IBGE, Censo Demográfico 2022, Localidades Indígenas, arquivo atualizado em 19/09/2025","url_fonte":"https://geoftp.ibge.gov.br/organizacao_do_territorio/estrutura_territorial/localidades/localidades_indigenas_2022/"},"geometry":{"coordinates":[-55.95793427777778,-22.05234927781346],"type":"Point"}},{"type":"Feature","properties":{"CD_UF":50,"NM_UF":"Mato Grosso do Sul","CD_MUNIC":5005707,"NM_MUNIC":"Naviraí","ID_LI":5000311,"CD_LI":5010078,"OCORRENCIA":1,"NM_LI":"Aldeia Indígena Kurupy","CD_SETOR":500570705000144,"SITUACAO":"Rural","CD_SIT":8,"CD_TIPO":5.0,"CD_AGLOM":500570700004.0,"NM_AGLOM":"Aldeia Indígena Kurupy","CD_TI":null,"TI_FUNAI":null,"NM_TI":null,"FASE":null,"C_CR_FUNAI":null,"N_CR_FUNAI":null,"ALD_FUNAI":5036.0,"VAL_FUNAI":1.0,"ALD_SIASI":null,"VAL_SIASI":null,"AMZ_LEG":null,"LAT":-23.015007888926327,"LONG":-54.30428066666666,"fonte":"IBGE, Censo Demográfico 2022, Localidades Indígenas, arquivo atualizado em 19/09/2025","url_fonte":"https://geoftp.ibge.gov.br/organizacao_do_territorio/estrutura_territorial/localidades/localidades_indigenas_2022/"},"geometry":{"coordinates":[-54.30428066666666,-23.015007888926327],"type":"Point"}},{"type":"Feature","properties":{"CD_UF":50,"NM_UF":"Mato Grosso do Sul","CD_MUNIC":5006358,"NM_MUNIC":"Paranhos","ID_LI":5000312,"CD_LI":5010147,"OCORRENCIA":1,"NM_LI":"Aldeia Indígena Ypo'í Triunfo","CD_SETOR":500635805000028,"SITUACAO":"Rural","CD_SIT":8,"CD_TIPO":5.0,"CD_AGLOM":500635800008.0,"NM_AGLOM":"Aldeia Indígena Ypoy Triunfo","CD_TI":null,"TI_FUNAI":null,"NM_TI":null,"FASE":null,"C_CR_FUNAI":null,"N_CR_FUNAI":null,"ALD_FUNAI":null,"VAL_FUNAI":null,"ALD_SIASI":null,"VAL_SIASI":null,"AMZ_LEG":null,"LAT":-23.753048416705475,"LONG":-55.39320244444444,"fonte":"IBGE, Censo Demográfico 2022, Localidades Indígenas, arquivo atualizado em 19/09/2025","url_fonte":"https://geoftp.ibge.gov.br/organizacao_do_territorio/estrutura_territorial/localidades/localidades_indigenas_2022/"},"geometry":{"coordinates":[-55.39320244444444,-23.753048416705475],"type":"Point"}},{"type":"Feature","properties":{"CD_UF":50,"NM_UF":"Mato Grosso do Sul","CD_MUNIC":5003504,"NM_MUNIC":"Douradina","ID_LI":5000330,"CD_LI":5010049,"OCORRENCIA":3,"NM_LI":"Aldeia Indígena Panambi Lagoa Rica","CD_SETOR":500350410000004,"SITUACAO":"Rural","CD_SIT":8,"CD_TIPO":5.0,"CD_AGLOM":500350400002.0,"NM_AGLOM":"Aldeia Indígena Panambi / Lagoa Rica","CD_TI":null,"TI_FUNAI":null,"NM_TI":null,"FASE":null,"C_CR_FUNAI":null,"N_CR_FUNAI":null,"ALD_FUNAI":33.0,"VAL_FUNAI":1.0,"ALD_SIASI":null,"VAL_SIASI":null,"AMZ_LEG":null,"LAT":-21.988732166702228,"LONG":-54.64466433333333,"fonte":"IBGE, Censo Demográfico 2022, Localidades Indígenas, arquivo atualizado em 19/09/2025","url_fonte":"https://geoftp.ibge.gov.br/organizacao_do_territorio/estrutura_territorial/localidades/localidades_indigenas_2022/"},"geometry":{"coordinates":[-54.64466433333333,-21.988732166702228],"type":"Point"}},{"type":"Feature","properties":{"CD_UF":50,"NM_UF":"Mato Grosso do Sul","CD_MUNIC":5001243,"NM_MUNIC":"Aral Moreira","ID_LI":5000340,"CD_LI":5010150,"OCORRENCIA":2,"NM_LI":"Aldeia Indígena Tekoha Guaiviry","CD_SETOR":500124305000031,"SITUACAO":"Rural","CD_SIT":8,"CD_TIPO":5.0,"CD_AGLOM":500124300009.0,"NM_AGLOM":"Aldeia Indígena Tekoha Guaiviri","CD_TI":null,"TI_FUNAI":null,"NM_TI":null,"FASE":null,"C_CR_FUNAI":null,"N_CR_FUNAI":null,"ALD_FUNAI":null,"VAL_FUNAI":null,"ALD_SIASI":null,"VAL_SIASI":null,"AMZ_LEG":null,"LAT":-22.794715277814813,"LONG":-55.38264458333333,"fonte":"IBGE, Censo Demográfico 2022, Localidades Indígenas, arquivo atualizado em 19/09/2025","url_fonte":"https://geoftp.ibge.gov.br/organizacao_do_territorio/estrutura_territorial/localidades/localidades_indigenas_2022/"},"geometry":{"coordinates":[-55.38264458333333,-22.794715277814813],"type":"Point"}},{"type":"Feature","properties":{"CD_UF":50,"NM_UF":"Mato Grosso do Sul","CD_MUNIC":5003157,"NM_MUNIC":"Coronel Sapucaia","ID_LI":5000341,"CD_LI":5010115,"OCORRENCIA":1,"NM_LI":"Aldeia Indígena Kurussu Ambá 1","CD_SETOR":500315705000028,"SITUACAO":"Rural","CD_SIT":8,"CD_TIPO":5.0,"CD_AGLOM":500315700001.0,"NM_AGLOM":"Aldeia Indígena Kurussu Amba","CD_TI":null,"TI_FUNAI":null,"NM_TI":null,"FASE":null,"C_CR_FUNAI":null,"N_CR_FUNAI":null,"ALD_FUNAI":null,"VAL_FUNAI":null,"ALD_SIASI":null,"VAL_SIASI":null,"AMZ_LEG":null,"LAT":-23.261563305593448,"LONG":-55.346784972222224,"fonte":"IBGE, Censo Demográfico 2022, Localidades Indígenas, arquivo atualizado em 19/09/2025","url_fonte":"https://geoftp.ibge.gov.br/organizacao_do_territorio/estrutura_territorial/localidades/localidades_indigenas_2022/"},"geometry":{"coordinates":[-55.346784972222224,-23.261563305593448],"type":"Point"}},{"type":"Feature","properties":{"CD_UF":50,"NM_UF":"Mato Grosso do Sul","CD_MUNIC":5006358,"NM_MUNIC":"Paranhos","ID_LI":5000357,"CD_LI":5010147,"OCORRENCIA":2,"NM_LI":"Aldeia Indígena Ypo'í Triunfo","CD_SETOR":500635805000028,"SITUACAO":"Rural","CD_SIT":8,"CD_TIPO":5.0,"CD_AGLOM":500635800008.0,"NM_AGLOM":"Aldeia Indígena Ypoy Triunfo","CD_TI":null,"TI_FUNAI":null,"NM_TI":null,"FASE":null,"C_CR_FUNAI":null,"N_CR_FUNAI":null,"ALD_FUNAI":null,"VAL_FUNAI":null,"ALD_SIASI":null,"VAL_SIASI":null,"AMZ_LEG":null,"LAT":-23.75637866670548,"LONG":-55.392744388888886,"fonte":"IBGE, Censo Demográfico 2022, Localidades Indígenas, arquivo atualizado em 19/09/2025","url_fonte":"https://geoftp.ibge.gov.br/organizacao_do_territorio/estrutura_territorial/localidades/localidades_indigenas_2022/"},"geometry":{"coordinates":[-55.392744388888886,-23.75637866670548],"type":"Point"}},{"type":"Feature","properties":{"CD_UF":50,"NM_UF":"Mato Grosso do Sul","CD_MUNIC":5003504,"NM_MUNIC":"Douradina","ID_LI":5000376,"CD_LI":5010049,"OCORRENCIA":4,"NM_LI":"Aldeia Indígena Panambi Lagoa Rica","CD_SETOR":500350410000004,"SITUACAO":"Rural","CD_SIT":8,"CD_TIPO":5.0,"CD_AGLOM":500350400002.0,"NM_AGLOM":"Aldeia Indígena Panambi / Lagoa Rica","CD_TI":null,"TI_FUNAI":null,"NM_TI":null,"FASE":null,"C_CR_FUNAI":null,"N_CR_FUNAI":null,"ALD_FUNAI":33.0,"VAL_FUNAI":1.0,"ALD_SIASI":null,"VAL_SIASI":null,"AMZ_LEG":null,"LAT":-21.9673146058739,"LONG":-54.6343105803041,"fonte":"IBGE, Censo Demográfico 2022, Localidades Indígenas, arquivo atualizado em 19/09/2025","url_fonte":"https://geoftp.ibge.gov.br/organizacao_do_territorio/estrutura_territorial/localidades/localidades_indigenas_2022/"},"geometry":{"coordinates":[-54.6343105803041,-21.9673146058739],"type":"Point"}},{"type":"Feature","properties":{"CD_UF":50,"NM_UF":"Mato Grosso do Sul","CD_MUNIC":5003702,"NM_MUNIC":"Dourados","ID_LI":5000382,"CD_LI":5010063,"OCORRENCIA":1,"NM_LI":"Comunidade Indígena Nhuvera Aratycuty","CD_SETOR":500370205000486,"SITUACAO":"Rural","CD_SIT":8,"CD_TIPO":5.0,"CD_AGLOM":500370200011.0,"NM_AGLOM":"Aldeia Índigena Aratycuty","CD_TI":null,"TI_FUNAI":null,"NM_TI":null,"FASE":null,"C_CR_FUNAI":null,"N_CR_FUNAI":null,"ALD_FUNAI":null,"VAL_FUNAI":null,"ALD_SIASI":null,"VAL_SIASI":null,"AMZ_LEG":null,"LAT":-22.198739750035944,"LONG":-54.86251244444444,"fonte":"IBGE, Censo Demográfico 2022, Localidades Indígenas, arquivo atualizado em 19/09/2025","url_fonte":"https://geoftp.ibge.gov.br/organizacao_do_territorio/estrutura_territorial/localidades/localidades_indigenas_2022/"},"geometry":{"coordinates":[-54.86251244444444,-22.198739750035944],"type":"Point"}},{"type":"Feature","properties":{"CD_UF":50,"NM_UF":"Mato Grosso do Sul","CD_MUNIC":5003157,"NM_MUNIC":"Coronel Sapucaia","ID_LI":5000384,"CD_LI":5010051,"OCORRENCIA":1,"NM_LI":"Aldeia Indígena Tekoha Jopara","CD_SETOR":500315705000033,"SITUACAO":"Rural","CD_SIT":8,"CD_TIPO":5.0,"CD_AGLOM":500315700005.0,"NM_AGLOM":"Aldeia Indígena Retomada Tekoha Japara","CD_TI":null,"TI_FUNAI":null,"NM_TI":null,"FASE":null,"C_CR_FUNAI":null,"N_CR_FUNAI":null,"ALD_FUNAI":null,"VAL_FUNAI":null,"ALD_SIASI":null,"VAL_SIASI":null,"AMZ_LEG":null,"LAT":-23.21260663892669,"LONG":-55.45410333333334,"fonte":"IBGE, Censo Demográfico 2022, Localidades Indígenas, arquivo atualizado em 19/09/2025","url_fonte":"https://geoftp.ibge.gov.br/organizacao_do_territorio/estrutura_territorial/localidades/localidades_indigenas_2022/"},"geometry":{"coordinates":[-55.45410333333334,-23.21260663892669],"type":"Point"}},{"type":"Feature","properties":{"CD_UF":50,"NM_UF":"Mato Grosso do Sul","CD_MUNIC":5005400,"NM_MUNIC":"Maracaju","ID_LI":5000396,"CD_LI":5010003,"OCORRENCIA":1,"NM_LI":"Aldeia Indígena Serroy","CD_SETOR":500540005000055,"SITUACAO":"Rural","CD_SIT":8,"CD_TIPO":5.0,"CD_AGLOM":500540000006.0,"NM_AGLOM":"Aldeia Indígena Cerroy","CD_TI":null,"TI_FUNAI":null,"NM_TI":null,"FASE":null,"C_CR_FUNAI":null,"N_CR_FUNAI":null,"ALD_FUNAI":3179.0,"VAL_FUNAI":1.0,"ALD_SIASI":null,"VAL_SIASI":null,"AMZ_LEG":null,"LAT":-21.476293305590197,"LONG":-55.80555497222223,"fonte":"IBGE, Censo Demográfico 2022, Localidades Indígenas, arquivo atualizado em 19/09/2025","url_fonte":"https://geoftp.ibge.gov.br/organizacao_do_territorio/estrutura_territorial/localidades/localidades_indigenas_2022/"},"geometry":{"coordinates":[-55.80555497222223,-21.476293305590197],"type":"Point"}},{"type":"Feature","properties":{"CD_UF":50,"NM_UF":"Mato Grosso do Sul","CD_MUNIC":5005400,"NM_MUNIC":"Maracaju","ID_LI":5000397,"CD_LI":5010003,"OCORRENCIA":2,"NM_LI":"Aldeia Indígena Serroy","CD_SETOR":500540005000055,"SITUACAO":"Rural","CD_SIT":8,"CD_TIPO":5.0,"CD_AGLOM":500540000006.0,"NM_AGLOM":"Aldeia Indígena Cerroy","CD_TI":null,"TI_FUNAI":null,"NM_TI":null,"FASE":null,"C_CR_FUNAI":null,"N_CR_FUNAI":null,"ALD_FUNAI":3179.0,"VAL_FUNAI":1.0,"ALD_SIASI":null,"VAL_SIASI":null,"AMZ_LEG":null,"LAT":-21.4811983055902,"LONG":-55.808205,"fonte":"IBGE, Censo Demográfico 2022, Localidades Indígenas, arquivo atualizado em 19/09/2025","url_fonte":"https://geoftp.ibge.gov.br/organizacao_do_territorio/estrutura_territorial/localidades/localidades_indigenas_2022/"},"geometry":{"coordinates":[-55.808205,-21.4811983055902],"type":"Point"}},{"type":"Feature","properties":{"CD_UF":50,"NM_UF":"Mato Grosso do Sul","CD_MUNIC":5001243,"NM_MUNIC":"Aral Moreira","ID_LI":5000398,"CD_LI":5010150,"OCORRENCIA":3,"NM_LI":"Aldeia Indígena Tekoha Guaiviry","CD_SETOR":500124305000031,"SITUACAO":"Rural","CD_SIT":8,"CD_TIPO":5.0,"CD_AGLOM":500124300009.0,"NM_AGLOM":"Aldeia Indígena Tekoha Guaiviri","CD_TI":null,"TI_FUNAI":null,"NM_TI":null,"FASE":null,"C_CR_FUNAI":null,"N_CR_FUNAI":null,"ALD_FUNAI":null,"VAL_FUNAI":null,"ALD_SIASI":null,"VAL_SIASI":null,"AMZ_LEG":null,"LAT":-22.78930216670369,"LONG":-55.38933711111112,"fonte":"IBGE, Censo Demográfico 2022, Localidades Indígenas, arquivo atualizado em 19/09/2025","url_fonte":"https://geoftp.ibge.gov.br/organizacao_do_territorio/estrutura_territorial/localidades/localidades_indigenas_2022/"},"geometry":{"coordinates":[-55.38933711111112,-22.78930216670369],"type":"Point"}},{"type":"Feature","properties":{"CD_UF":50,"NM_UF":"Mato Grosso do Sul","CD_MUNIC":5004502,"NM_MUNIC":"Itaporã","ID_LI":5000409,"CD_LI":5010132,"OCORRENCIA":1,"NM_LI":"Comunidade Indígena Ñuvera Guassú 2","CD_SETOR":500450205000034,"SITUACAO":"Rural","CD_SIT":8,"CD_TIPO":5.0,"CD_AGLOM":500450200003.0,"NM_AGLOM":"Aldeia Indígena Ñu Vera II","CD_TI":null,"TI_FUNAI":null,"NM_TI":null,"FASE":null,"C_CR_FUNAI":null,"N_CR_FUNAI":null,"ALD_FUNAI":null,"VAL_FUNAI":null,"ALD_SIASI":null,"VAL_SIASI":null,"AMZ_LEG":null,"LAT":-22.177788777813685,"LONG":-54.8658145,"fonte":"IBGE, Censo Demográfico 2022, Localidades Indígenas, arquivo atualizado em 19/09/2025","url_fonte":"https://geoftp.ibge.gov.br/organizacao_do_territorio/estrutura_territorial/localidades/localidades_indigenas_2022/"},"geometry":{"coordinates":[-54.8658145,-22.177788777813685],"type":"Point"}},{"type":"Feature","properties":{"CD_UF":50,"NM_UF":"Mato Grosso do Sul","CD_MUNIC":5001243,"NM_MUNIC":"Aral Moreira","ID_LI":5000417,"CD_LI":5010050,"OCORRENCIA":2,"NM_LI":"Aldeia Indígena Cristino Potrero","CD_SETOR":500124305000033,"SITUACAO":"Rural","CD_SIT":8,"CD_TIPO":5.0,"CD_AGLOM":500124300011.0,"NM_AGLOM":"Aldeia Indígena Cristino Potrero","CD_TI":null,"TI_FUNAI":null,"NM_TI":null,"FASE":null,"C_CR_FUNAI":null,"N_CR_FUNAI":null,"ALD_FUNAI":null,"VAL_FUNAI":null,"ALD_SIASI":null,"VAL_SIASI":null,"AMZ_LEG":null,"LAT":-23.2216112778156,"LONG":-55.53880186111111,"fonte":"IBGE, Censo Demográfico 2022, Localidades Indígenas, arquivo atualizado em 19/09/2025","url_fonte":"https://geoftp.ibge.gov.br/organizacao_do_territorio/estrutura_territorial/localidades/localidades_indigenas_2022/"},"geometry":{"coordinates":[-55.53880186111111,-23.2216112778156],"type":"Point"}},{"type":"Feature","properties":{"CD_UF":50,"NM_UF":"Mato Grosso do Sul","CD_MUNIC":5003157,"NM_MUNIC":"Coronel Sapucaia","ID_LI":5000418,"CD_LI":5010051,"OCORRENCIA":2,"NM_LI":"Aldeia Indígena Tekoha Jopara","CD_SETOR":500315705000033,"SITUACAO":"Rural","CD_SIT":8,"CD_TIPO":5.0,"CD_AGLOM":500315700005.0,"NM_AGLOM":"Aldeia Indígena Retomada Tekoha Japara","CD_TI":null,"TI_FUNAI":null,"NM_TI":null,"FASE":null,"C_CR_FUNAI":null,"N_CR_FUNAI":null,"ALD_FUNAI":null,"VAL_FUNAI":null,"ALD_SIASI":null,"VAL_SIASI":null,"AMZ_LEG":null,"LAT":-23.21133833337113,"LONG":-55.46003663888889,"fonte":"IBGE, Censo Demográfico 2022, Localidades Indígenas, arquivo atualizado em 19/09/2025","url_fonte":"https://geoftp.ibge.gov.br/organizacao_do_territorio/estrutura_territorial/localidades/localidades_indigenas_2022/"},"geometry":{"coordinates":[-55.46003663888889,-23.21133833337113],"type":"Point"}},{"type":"Feature","properties":{"CD_UF":50,"NM_UF":"Mato Grosso do Sul","CD_MUNIC":5005806,"NM_MUNIC":"Nioaque","ID_LI":5000420,"CD_LI":5010061,"OCORRENCIA":1,"NM_LI":"Assentamento Colonia Conceicao","CD_SETOR":500580605000030,"SITUACAO":"Rural","CD_SIT":8,"CD_TIPO":null,"CD_AGLOM":null,"NM_AGLOM":null,"CD_TI":null,"TI_FUNAI":null,"NM_TI":null,"FASE":null,"C_CR_FUNAI":null,"N_CR_FUNAI":null,"ALD_FUNAI":null,"VAL_FUNAI":null,"ALD_SIASI":null,"VAL_SIASI":null,"AMZ_LEG":null,"LAT":-20.917543415513755,"LONG":-55.815945546084805,"fonte":"IBGE, Censo Demográfico 2022, Localidades Indígenas, arquivo atualizado em 19/09/2025","url_fonte":"https://geoftp.ibge.gov.br/organizacao_do_territorio/estrutura_territorial/localidades/localidades_indigenas_2022/"},"geometry":{"coordinates":[-55.815945546084805,-20.917543415513755],"type":"Point"}},{"type":"Feature","properties":{"CD_UF":50,"NM_UF":"Mato Grosso do Sul","CD_MUNIC":5002407,"NM_MUNIC":"Caarapó","ID_LI":5000421,"CD_LI":5010072,"OCORRENCIA":1,"NM_LI":"Aldeia Indígena Guapo'y","CD_SETOR":500240705000071,"SITUACAO":"Rural","CD_SIT":8,"CD_TIPO":5.0,"CD_AGLOM":500240700008.0,"NM_AGLOM":"Aldeia Indígena Tekoha Guapoy","CD_TI":null,"TI_FUNAI":null,"NM_TI":null,"FASE":null,"C_CR_FUNAI":null,"N_CR_FUNAI":null,"ALD_FUNAI":null,"VAL_FUNAI":null,"ALD_SIASI":null,"VAL_SIASI":null,"AMZ_LEG":null,"LAT":-22.58851617949949,"LONG":-55.01214540847041,"fonte":"IBGE, Censo Demográfico 2022, Localidades Indígenas, arquivo atualizado em 19/09/2025","url_fonte":"https://geoftp.ibge.gov.br/organizacao_do_territorio/estrutura_territorial/localidades/localidades_indigenas_2022/"},"geometry":{"coordinates":[-55.01214540847041,-22.58851617949949],"type":"Point"}},{"type":"Feature","properties":{"CD_UF":50,"NM_UF":"Mato Grosso do Sul","CD_MUNIC":5004106,"NM_MUNIC":"Guia Lopes da Laguna","ID_LI":5000423,"CD_LI":5010059,"OCORRENCIA":1,"NM_LI":"Aldeia Indígena Santa Teresa","CD_SETOR":500410605000018,"SITUACAO":"Rural","CD_SIT":8,"CD_TIPO":null,"CD_AGLOM":null,"NM_AGLOM":null,"CD_TI":null,"TI_FUNAI":null,"NM_TI":null,"FASE":null,"C_CR_FUNAI":null,"N_CR_FUNAI":null,"ALD_FUNAI":null,"VAL_FUNAI":null,"ALD_SIASI":null,"VAL_SIASI":null,"AMZ_LEG":null,"LAT":-21.660280414986417,"LONG":-56.02227468055555,"fonte":"IBGE, Censo Demográfico 2022, Localidades Indígenas, arquivo atualizado em 19/09/2025","url_fonte":"https://geoftp.ibge.gov.br/organizacao_do_territorio/estrutura_territorial/localidades/localidades_indigenas_2022/"},"geometry":{"coordinates":[-56.02227468055555,-21.660280414986417],"type":"Point"}},{"type":"Feature","properties":{"CD_UF":50,"NM_UF":"Mato Grosso do Sul","CD_MUNIC":5004304,"NM_MUNIC":"Iguatemi","ID_LI":5000424,"CD_LI":5010080,"OCORRENCIA":1,"NM_LI":"Acampamento Sem Denominação","CD_SETOR":500430405000021,"SITUACAO":"Rural","CD_SIT":8,"CD_TIPO":null,"CD_AGLOM":null,"NM_AGLOM":null,"CD_TI":null,"TI_FUNAI":null,"NM_TI":null,"FASE":null,"C_CR_FUNAI":null,"N_CR_FUNAI":null,"ALD_FUNAI":null,"VAL_FUNAI":null,"ALD_SIASI":null,"VAL_SIASI":null,"AMZ_LEG":null,"LAT":-23.65460005475719,"LONG":-54.57112590290743,"fonte":"IBGE, Censo Demográfico 2022, Localidades Indígenas, arquivo atualizado em 19/09/2025","url_fonte":"https://geoftp.ibge.gov.br/organizacao_do_territorio/estrutura_territorial/localidades/localidades_indigenas_2022/"},"geometry":{"coordinates":[-54.57112590290743,-23.65460005475719],"type":"Point"}},{"type":"Feature","properties":{"CD_UF":50,"NM_UF":"Mato Grosso do Sul","CD_MUNIC":5005707,"NM_MUNIC":"Naviraí","ID_LI":5000426,"CD_LI":5010078,"OCORRENCIA":2,"NM_LI":"Aldeia Indígena Kurupy","CD_SETOR":500570705000144,"SITUACAO":"Rural","CD_SIT":8,"CD_TIPO":5.0,"CD_AGLOM":500570700004.0,"NM_AGLOM":"Aldeia Indígena Kurupy","CD_TI":null,"TI_FUNAI":null,"NM_TI":null,"FASE":null,"C_CR_FUNAI":null,"N_CR_FUNAI":null,"ALD_FUNAI":5036.0,"VAL_FUNAI":1.0,"ALD_SIASI":null,"VAL_SIASI":null,"AMZ_LEG":null,"LAT":-23.02139198479305,"LONG":-54.29840458429816,"fonte":"IBGE, Censo Demográfico 2022, Localidades Indígenas, arquivo atualizado em 19/09/2025","url_fonte":"https://geoftp.ibge.gov.br/organizacao_do_territorio/estrutura_territorial/localidades/localidades_indigenas_2022/"},"geometry":{"coordinates":[-54.29840458429816,-23.02139198479305],"type":"Point"}},{"type":"Feature","properties":{"CD_UF":50,"NM_UF":"Mato Grosso do Sul","CD_MUNIC":5002407,"NM_MUNIC":"Caarapó","ID_LI":5000429,"CD_LI":5010012,"OCORRENCIA":1,"NM_LI":"Aldeia Indígena Kunumi Verá","CD_SETOR":500240705000061,"SITUACAO":"Rural","CD_SIT":8,"CD_TIPO":5.0,"CD_AGLOM":500240700006.0,"NM_AGLOM":"Aldeia Indígena Kunumi Verá","CD_TI":null,"TI_FUNAI":null,"NM_TI":null,"FASE":null,"C_CR_FUNAI":null,"N_CR_FUNAI":null,"ALD_FUNAI":null,"VAL_FUNAI":null,"ALD_SIASI":null,"VAL_SIASI":null,"AMZ_LEG":null,"LAT":-22.617678457310276,"LONG":-54.98541733649955,"fonte":"IBGE, Censo Demográfico 2022, Localidades Indígenas, arquivo atualizado em 19/09/2025","url_fonte":"https://geoftp.ibge.gov.br/organizacao_do_territorio/estrutura_territorial/localidades/localidades_indigenas_2022/"},"geometry":{"coordinates":[-54.98541733649955,-22.617678457310276],"type":"Point"}},{"type":"Feature","properties":{"CD_UF":50,"NM_UF":"Mato Grosso do Sul","CD_MUNIC":5002407,"NM_MUNIC":"Caarapó","ID_LI":5000430,"CD_LI":5010011,"OCORRENCIA":1,"NM_LI":"Aldeia Indígena Pindoroky","CD_SETOR":500240705000075,"SITUACAO":"Rural","CD_SIT":8,"CD_TIPO":5.0,"CD_AGLOM":500240700010.0,"NM_AGLOM":"Aldeia Indígena Paï Pavyterã","CD_TI":null,"TI_FUNAI":null,"NM_TI":null,"FASE":null,"C_CR_FUNAI":null,"N_CR_FUNAI":null,"ALD_FUNAI":419.0,"VAL_FUNAI":1.0,"ALD_SIASI":null,"VAL_SIASI":null,"AMZ_LEG":null,"LAT":-22.5630143604729,"LONG":-54.91888997222223,"fonte":"IBGE, Censo Demográfico 2022, Localidades Indígenas, arquivo atualizado em 19/09/2025","url_fonte":"https://geoftp.ibge.gov.br/organizacao_do_territorio/estrutura_territorial/localidades/localidades_indigenas_2022/"},"geometry":{"coordinates":[-54.91888997222223,-22.5630143604729],"type":"Point"}},{"type":"Feature","properties":{"CD_UF":50,"NM_UF":"Mato Grosso do Sul","CD_MUNIC":5002407,"NM_MUNIC":"Caarapó","ID_LI":5000431,"CD_LI":5010058,"OCORRENCIA":1,"NM_LI":"Aldeia Indígena Tekoha Ñandeva","CD_SETOR":500240705000073,"SITUACAO":"Rural","CD_SIT":8,"CD_TIPO":5.0,"CD_AGLOM":500240700009.0,"NM_AGLOM":"Aldeia Indígena Ñandéva","CD_TI":null,"TI_FUNAI":null,"NM_TI":null,"FASE":null,"C_CR_FUNAI":null,"N_CR_FUNAI":null,"ALD_FUNAI":null,"VAL_FUNAI":null,"ALD_SIASI":null,"VAL_SIASI":null,"AMZ_LEG":null,"LAT":-22.61244627713848,"LONG":-54.91398513888888,"fonte":"IBGE, Censo Demográfico 2022, Localidades Indígenas, arquivo atualizado em 19/09/2025","url_fonte":"https://geoftp.ibge.gov.br/organizacao_do_territorio/estrutura_territorial/localidades/localidades_indigenas_2022/"},"geometry":{"coordinates":[-54.91398513888888,-22.61244627713848],"type":"Point"}},{"type":"Feature","properties":{"CD_UF":50,"NM_UF":"Mato Grosso do Sul","CD_MUNIC":5003504,"NM_MUNIC":"Douradina","ID_LI":5000432,"CD_LI":5010076,"OCORRENCIA":1,"NM_LI":"Aldeia Indígena Tajassu Ygua","CD_SETOR":500350410000006,"SITUACAO":"Rural","CD_SIT":8,"CD_TIPO":5.0,"CD_AGLOM":500350400003.0,"NM_AGLOM":"Aldeia Indígena Tayasu Ygua","CD_TI":null,"TI_FUNAI":null,"NM_TI":null,"FASE":null,"C_CR_FUNAI":null,"N_CR_FUNAI":null,"ALD_FUNAI":null,"VAL_FUNAI":null,"ALD_SIASI":null,"VAL_SIASI":null,"AMZ_LEG":null,"LAT":-21.94083029098189,"LONG":-54.53561795836941,"fonte":"IBGE, Censo Demográfico 2022, Localidades Indígenas, arquivo atualizado em 19/09/2025","url_fonte":"https://geoftp.ibge.gov.br/organizacao_do_territorio/estrutura_territorial/localidades/localidades_indigenas_2022/"},"geometry":{"coordinates":[-54.53561795836941,-21.94083029098189],"type":"Point"}},{"type":"Feature","properties":{"CD_UF":50,"NM_UF":"Mato Grosso do Sul","CD_MUNIC":5002407,"NM_MUNIC":"Caarapó","ID_LI":5000433,"CD_LI":5010047,"OCORRENCIA":1,"NM_LI":"Aldeia Indígena Itaguá","CD_SETOR":500240705000075,"SITUACAO":"Rural","CD_SIT":8,"CD_TIPO":5.0,"CD_AGLOM":500240700010.0,"NM_AGLOM":"Aldeia Indígena Paï Pavyterã","CD_TI":null,"TI_FUNAI":null,"NM_TI":null,"FASE":null,"C_CR_FUNAI":null,"N_CR_FUNAI":null,"ALD_FUNAI":null,"VAL_FUNAI":null,"ALD_SIASI":null,"VAL_SIASI":null,"AMZ_LEG":null,"LAT":-22.58628155491683,"LONG":-54.900756,"fonte":"IBGE, Censo Demográfico 2022, Localidades Indígenas, arquivo atualizado em 19/09/2025","url_fonte":"https://geoftp.ibge.gov.br/organizacao_do_territorio/estrutura_territorial/localidades/localidades_indigenas_2022/"},"geometry":{"coordinates":[-54.900756,-22.58628155491683],"type":"Point"}},{"type":"Feature","properties":{"CD_UF":50,"NM_UF":"Mato Grosso do Sul","CD_MUNIC":5005608,"NM_MUNIC":"Miranda","ID_LI":5000435,"CD_LI":5010045,"OCORRENCIA":1,"NM_LI":"Fazenda Figueira","CD_SETOR":500560805000049,"SITUACAO":"Rural","CD_SIT":8,"CD_TIPO":null,"CD_AGLOM":null,"NM_AGLOM":null,"CD_TI":null,"TI_FUNAI":null,"NM_TI":null,"FASE":null,"C_CR_FUNAI":null,"N_CR_FUNAI":null,"ALD_FUNAI":null,"VAL_FUNAI":null,"ALD_SIASI":null,"VAL_SIASI":null,"AMZ_LEG":null,"LAT":-20.37766727718944,"LONG":-56.17334913888889,"fonte":"IBGE, Censo Demográfico 2022, Localidades Indígenas, arquivo atualizado em 19/09/2025","url_fonte":"https://geoftp.ibge.gov.br/organizacao_do_territorio/estrutura_territorial/localidades/localidades_indigenas_2022/"},"geometry":{"coordinates":[-56.17334913888889,-20.37766727718944],"type":"Point"}},{"type":"Feature","properties":{"CD_UF":50,"NM_UF":"Mato Grosso do Sul","CD_MUNIC":5002407,"NM_MUNIC":"Caarapó","ID_LI":5000436,"CD_LI":5010102,"OCORRENCIA":1,"NM_LI":"Aldeia Indígena Te'ýi Jusu","CD_SETOR":500240705000063,"SITUACAO":"Rural","CD_SIT":8,"CD_TIPO":5.0,"CD_AGLOM":500240700007.0,"NM_AGLOM":"Aldeia Indígena Teykue","CD_TI":null,"TI_FUNAI":null,"NM_TI":null,"FASE":null,"C_CR_FUNAI":null,"N_CR_FUNAI":null,"ALD_FUNAI":null,"VAL_FUNAI":null,"ALD_SIASI":null,"VAL_SIASI":null,"AMZ_LEG":null,"LAT":-22.61656686002237,"LONG":-54.96002097177266,"fonte":"IBGE, Censo Demográfico 2022, Localidades Indígenas, arquivo atualizado em 19/09/2025","url_fonte":"https://geoftp.ibge.gov.br/organizacao_do_territorio/estrutura_territorial/localidades/localidades_indigenas_2022/"},"geometry":{"coordinates":[-54.96002097177266,-22.61656686002237],"type":"Point"}},{"type":"Feature","properties":{"CD_UF":50,"NM_UF":"Mato Grosso do Sul","CD_MUNIC":5002159,"NM_MUNIC":"Bodoquena","ID_LI":5000439,"CD_LI":5010090,"OCORRENCIA":1,"NM_LI":"Região da Sumatra","CD_SETOR":500215910000004,"SITUACAO":"Rural","CD_SIT":8,"CD_TIPO":null,"CD_AGLOM":null,"NM_AGLOM":null,"CD_TI":null,"TI_FUNAI":null,"NM_TI":null,"FASE":null,"C_CR_FUNAI":null,"N_CR_FUNAI":null,"ALD_FUNAI":null,"VAL_FUNAI":null,"ALD_SIASI":null,"VAL_SIASI":null,"AMZ_LEG":null,"LAT":-20.4638412771874,"LONG":-56.81441511111111,"fonte":"IBGE, Censo Demográfico 2022, Localidades Indígenas, arquivo atualizado em 19/09/2025","url_fonte":"https://geoftp.ibge.gov.br/organizacao_do_territorio/estrutura_territorial/localidades/localidades_indigenas_2022/"},"geometry":{"coordinates":[-56.81441511111111,-20.4638412771874],"type":"Point"}},{"type":"Feature","properties":{"CD_UF":50,"NM_UF":"Mato Grosso do Sul","CD_MUNIC":5005608,"NM_MUNIC":"Miranda","ID_LI":5000440,"CD_LI":5010056,"OCORRENCIA":1,"NM_LI":"Fazenda Morrinho","CD_SETOR":500560805000029,"SITUACAO":"Rural","CD_SIT":8,"CD_TIPO":null,"CD_AGLOM":null,"NM_AGLOM":null,"CD_TI":null,"TI_FUNAI":null,"NM_TI":null,"FASE":null,"C_CR_FUNAI":null,"N_CR_FUNAI":null,"ALD_FUNAI":null,"VAL_FUNAI":null,"ALD_SIASI":null,"VAL_SIASI":null,"AMZ_LEG":null,"LAT":-20.29542802714794,"LONG":-56.54384991669943,"fonte":"IBGE, Censo Demográfico 2022, Localidades Indígenas, arquivo atualizado em 19/09/2025","url_fonte":"https://geoftp.ibge.gov.br/organizacao_do_territorio/estrutura_territorial/localidades/localidades_indigenas_2022/"},"geometry":{"coordinates":[-56.54384991669943,-20.29542802714794],"type":"Point"}},{"type":"Feature","properties":{"CD_UF":50,"NM_UF":"Mato Grosso do Sul","CD_MUNIC":5002159,"NM_MUNIC":"Bodoquena","ID_LI":5000441,"CD_LI":5010023,"OCORRENCIA":1,"NM_LI":"Região da Pedra Branca","CD_SETOR":500215910000004,"SITUACAO":"Rural","CD_SIT":8,"CD_TIPO":null,"CD_AGLOM":null,"NM_AGLOM":null,"CD_TI":null,"TI_FUNAI":null,"NM_TI":null,"FASE":null,"C_CR_FUNAI":null,"N_CR_FUNAI":null,"ALD_FUNAI":null,"VAL_FUNAI":null,"ALD_SIASI":null,"VAL_SIASI":null,"AMZ_LEG":null,"LAT":-20.476155416076,"LONG":-56.89968083333333,"fonte":"IBGE, Censo Demográfico 2022, Localidades Indígenas, arquivo atualizado em 19/09/2025","url_fonte":"https://geoftp.ibge.gov.br/organizacao_do_territorio/estrutura_territorial/localidades/localidades_indigenas_2022/"},"geometry":{"coordinates":[-56.89968083333333,-20.476155416076],"type":"Point"}},{"type":"Feature","properties":{"CD_UF":50,"NM_UF":"Mato Grosso do Sul","CD_MUNIC":5002407,"NM_MUNIC":"Caarapó","ID_LI":5000445,"CD_LI":5010096,"OCORRENCIA":1,"NM_LI":"Aldeia Indígena Pay Tevy Terá","CD_SETOR":500240705000074,"SITUACAO":"Rural","CD_SIT":8,"CD_TIPO":null,"CD_AGLOM":null,"NM_AGLOM":null,"CD_TI":null,"TI_FUNAI":null,"NM_TI":null,"FASE":null,"C_CR_FUNAI":null,"N_CR_FUNAI":null,"ALD_FUNAI":null,"VAL_FUNAI":null,"ALD_SIASI":null,"VAL_SIASI":null,"AMZ_LEG":null,"LAT":-22.574704,"LONG":-54.90623803333333,"fonte":"IBGE, Censo Demográfico 2022, Localidades Indígenas, arquivo atualizado em 19/09/2025","url_fonte":"https://geoftp.ibge.gov.br/organizacao_do_territorio/estrutura_territorial/localidades/localidades_indigenas_2022/"},"geometry":{"coordinates":[-54.90623803333333,-22.574704],"type":"Point"}},{"type":"Feature","properties":{"CD_UF":50,"NM_UF":"Mato Grosso do Sul","CD_MUNIC":5001904,"NM_MUNIC":"Bataguassu","ID_LI":5000457,"CD_LI":5010046,"OCORRENCIA":1,"NM_LI":"Assentamento Santa Paula","CD_SETOR":500190405000050,"SITUACAO":"Rural","CD_SIT":8,"CD_TIPO":5.0,"CD_AGLOM":500190400011.0,"NM_AGLOM":"Aldeia Indígena Sem Denominação","CD_TI":null,"TI_FUNAI":null,"NM_TI":null,"FASE":null,"C_CR_FUNAI":null,"N_CR_FUNAI":null,"ALD_FUNAI":null,"VAL_FUNAI":null,"ALD_SIASI":null,"VAL_SIASI":null,"AMZ_LEG":null,"LAT":-21.7369360229682,"LONG":-52.456772526156,"fonte":"IBGE, Censo Demográfico 2022, Localidades Indígenas, arquivo atualizado em 19/09/2025","url_fonte":"https://geoftp.ibge.gov.br/organizacao_do_territorio/estrutura_territorial/localidades/localidades_indigenas_2022/"},"geometry":{"coordinates":[-52.456772526156,-21.7369360229682],"type":"Point"}},{"type":"Feature","properties":{"CD_UF":50,"NM_UF":"Mato Grosso do Sul","CD_MUNIC":5003702,"NM_MUNIC":"Dourados","ID_LI":5000458,"CD_LI":5010079,"OCORRENCIA":1,"NM_LI":"Aldeia Indígena Passo Piraju","CD_SETOR":500370205000295,"SITUACAO":"Rural","CD_SIT":8,"CD_TIPO":5.0,"CD_AGLOM":500370200009.0,"NM_AGLOM":"Aldeia Indígena Porto Cambira/Passo Piraju","CD_TI":null,"TI_FUNAI":null,"NM_TI":null,"FASE":null,"C_CR_FUNAI":null,"N_CR_FUNAI":null,"ALD_FUNAI":3172.0,"VAL_FUNAI":1.0,"ALD_SIASI":null,"VAL_SIASI":null,"AMZ_LEG":null,"LAT":-22.422504166666663,"LONG":-54.69418048333333,"fonte":"IBGE, Censo Demográfico 2022, Localidades Indígenas, arquivo atualizado em 19/09/2025","url_fonte":"https://geoftp.ibge.gov.br/organizacao_do_territorio/estrutura_territorial/localidades/localidades_indigenas_2022/"},"geometry":{"coordinates":[-54.69418048333333,-22.422504166666663],"type":"Point"}},{"type":"Feature","properties":{"CD_UF":50,"NM_UF":"Mato Grosso do Sul","CD_MUNIC":5005707,"NM_MUNIC":"Naviraí","ID_LI":5000462,"CD_LI":5010118,"OCORRENCIA":1,"NM_LI":"Comunidade Indígena Araguaia Juncal","CD_SETOR":500570705000146,"SITUACAO":"Rural","CD_SIT":8,"CD_TIPO":5.0,"CD_AGLOM":500570700005.0,"NM_AGLOM":"Aldeia Indígena Araguai Juncal","CD_TI":null,"TI_FUNAI":null,"NM_TI":null,"FASE":null,"C_CR_FUNAI":null,"N_CR_FUNAI":null,"ALD_FUNAI":3183.0,"VAL_FUNAI":1.0,"ALD_SIASI":null,"VAL_SIASI":null,"AMZ_LEG":null,"LAT":-22.90050535,"LONG":-54.283648024909205,"fonte":"IBGE, Censo Demográfico 2022, Localidades Indígenas, arquivo atualizado em 19/09/2025","url_fonte":"https://geoftp.ibge.gov.br/organizacao_do_territorio/estrutura_territorial/localidades/localidades_indigenas_2022/"},"geometry":{"coordinates":[-54.283648024909205,-22.90050535],"type":"Point"}},{"type":"Feature","properties":{"CD_UF":50,"NM_UF":"Mato Grosso do Sul","CD_MUNIC":5003504,"NM_MUNIC":"Douradina","ID_LI":5000463,"CD_LI":5010158,"OCORRENCIA":1,"NM_LI":"Aldeia Indígena Itay Ka'aguruyusu","CD_SETOR":500350410000004,"SITUACAO":"Rural","CD_SIT":8,"CD_TIPO":5.0,"CD_AGLOM":500350400002.0,"NM_AGLOM":"Aldeia Indígena Panambi / Lagoa Rica","CD_TI":null,"TI_FUNAI":null,"NM_TI":null,"FASE":null,"C_CR_FUNAI":null,"N_CR_FUNAI":null,"ALD_FUNAI":null,"VAL_FUNAI":null,"ALD_SIASI":null,"VAL_SIASI":null,"AMZ_LEG":null,"LAT":-21.98286081497726,"LONG":-54.630903114706,"fonte":"IBGE, Censo Demográfico 2022, Localidades Indígenas, arquivo atualizado em 19/09/2025","url_fonte":"https://geoftp.ibge.gov.br/organizacao_do_territorio/estrutura_territorial/localidades/localidades_indigenas_2022/"},"geometry":{"coordinates":[-54.630903114706,-21.98286081497726],"type":"Point"}},{"type":"Feature","properties":{"CD_UF":50,"NM_UF":"Mato Grosso do Sul","CD_MUNIC":5003702,"NM_MUNIC":"Dourados","ID_LI":5000464,"CD_LI":5010016,"OCORRENCIA":1,"NM_LI":"Comunidade Indígena Ñuvera Guassú","CD_SETOR":500370205000429,"SITUACAO":"Rural","CD_SIT":8,"CD_TIPO":5.0,"CD_AGLOM":500370200004.0,"NM_AGLOM":"Aldeia Indígena Nhuvera","CD_TI":null,"TI_FUNAI":null,"NM_TI":null,"FASE":null,"C_CR_FUNAI":null,"N_CR_FUNAI":null,"ALD_FUNAI":3167.0,"VAL_FUNAI":1.0,"ALD_SIASI":null,"VAL_SIASI":null,"AMZ_LEG":null,"LAT":-22.19483115,"LONG":-54.85741989360028,"fonte":"IBGE, Censo Demográfico 2022, Localidades Indígenas, arquivo atualizado em 19/09/2025","url_fonte":"https://geoftp.ibge.gov.br/organizacao_do_territorio/estrutura_territorial/localidades/localidades_indigenas_2022/"},"geometry":{"coordinates":[-54.85741989360028,-22.19483115],"type":"Point"}},{"type":"Feature","properties":{"CD_UF":50,"NM_UF":"Mato Grosso do Sul","CD_MUNIC":5003702,"NM_MUNIC":"Dourados","ID_LI":5000468,"CD_LI":5010159,"OCORRENCIA":1,"NM_LI":"Aldeia Indígena Apyka'i","CD_SETOR":500370205000327,"SITUACAO":"Rural","CD_SIT":8,"CD_TIPO":null,"CD_AGLOM":null,"NM_AGLOM":null,"CD_TI":null,"TI_FUNAI":null,"NM_TI":null,"FASE":null,"C_CR_FUNAI":null,"N_CR_FUNAI":null,"ALD_FUNAI":null,"VAL_FUNAI":null,"ALD_SIASI":null,"VAL_SIASI":null,"AMZ_LEG":null,"LAT":-22.254744442229168,"LONG":-54.87136045359812,"fonte":"IBGE, Censo Demográfico 2022, Localidades Indígenas, arquivo atualizado em 19/09/2025","url_fonte":"https://geoftp.ibge.gov.br/organizacao_do_territorio/estrutura_territorial/localidades/localidades_indigenas_2022/"},"geometry":{"coordinates":[-54.87136045359812,-22.254744442229168],"type":"Point"}},{"type":"Feature","properties":{"CD_UF":50,"NM_UF":"Mato Grosso do Sul","CD_MUNIC":5003504,"NM_MUNIC":"Douradina","ID_LI":5000470,"CD_LI":5010049,"OCORRENCIA":5,"NM_LI":"Aldeia Indígena Panambi Lagoa Rica","CD_SETOR":500350410000004,"SITUACAO":"Rural","CD_SIT":8,"CD_TIPO":5.0,"CD_AGLOM":500350400002.0,"NM_AGLOM":"Aldeia Indígena Panambi / Lagoa Rica","CD_TI":null,"TI_FUNAI":null,"NM_TI":null,"FASE":null,"C_CR_FUNAI":null,"N_CR_FUNAI":null,"ALD_FUNAI":33.0,"VAL_FUNAI":1.0,"ALD_SIASI":null,"VAL_SIASI":null,"AMZ_LEG":null,"LAT":-21.993888888889,"LONG":-54.645,"fonte":"IBGE, Censo Demográfico 2022, Localidades Indígenas, arquivo atualizado em 19/09/2025","url_fonte":"https://geoftp.ibge.gov.br/organizacao_do_territorio/estrutura_territorial/localidades/localidades_indigenas_2022/"},"geometry":{"coordinates":[-54.645,-21.993888888889],"type":"Point"}},{"type":"Feature","properties":{"CD_UF":50,"NM_UF":"Mato Grosso do Sul","CD_MUNIC":5004502,"NM_MUNIC":"Itaporã","ID_LI":5000472,"CD_LI":5010128,"OCORRENCIA":1,"NM_LI":"Itapotã","CD_SETOR":500450205000042,"SITUACAO":"Rural","CD_SIT":8,"CD_TIPO":null,"CD_AGLOM":null,"NM_AGLOM":null,"CD_TI":null,"TI_FUNAI":null,"NM_TI":null,"FASE":null,"C_CR_FUNAI":null,"N_CR_FUNAI":null,"ALD_FUNAI":null,"VAL_FUNAI":null,"ALD_SIASI":null,"VAL_SIASI":null,"AMZ_LEG":null,"LAT":-22.12800198854029,"LONG":-54.85879011078561,"fonte":"IBGE, Censo Demográfico 2022, Localidades Indígenas, arquivo atualizado em 19/09/2025","url_fonte":"https://geoftp.ibge.gov.br/organizacao_do_territorio/estrutura_territorial/localidades/localidades_indigenas_2022/"},"geometry":{"coordinates":[-54.85879011078561,-22.12800198854029],"type":"Point"}},{"type":"Feature","properties":{"CD_UF":50,"NM_UF":"Mato Grosso do Sul","CD_MUNIC":5003157,"NM_MUNIC":"Coronel Sapucaia","ID_LI":5000473,"CD_LI":5010103,"OCORRENCIA":1,"NM_LI":"Aldeia Indígena Kurussu Ambá 3","CD_SETOR":500315705000030,"SITUACAO":"Rural","CD_SIT":8,"CD_TIPO":5.0,"CD_AGLOM":500315700004.0,"NM_AGLOM":"Aldeia Indígena Kurussu Amba 3","CD_TI":null,"TI_FUNAI":null,"NM_TI":null,"FASE":null,"C_CR_FUNAI":null,"N_CR_FUNAI":null,"ALD_FUNAI":null,"VAL_FUNAI":null,"ALD_SIASI":null,"VAL_SIASI":null,"AMZ_LEG":null,"LAT":-23.299391310557976,"LONG":-55.30533097868671,"fonte":"IBGE, Censo Demográfico 2022, Localidades Indígenas, arquivo atualizado em 19/09/2025","url_fonte":"https://geoftp.ibge.gov.br/organizacao_do_territorio/estrutura_territorial/localidades/localidades_indigenas_2022/"},"geometry":{"coordinates":[-55.30533097868671,-23.299391310557976],"type":"Point"}},{"type":"Feature","properties":{"CD_UF":50,"NM_UF":"Mato Grosso do Sul","CD_MUNIC":5005004,"NM_MUNIC":"Jardim","ID_LI":5000474,"CD_LI":5010114,"OCORRENCIA":1,"NM_LI":"Aldeia Indígena Laranjal","CD_SETOR":500500405000054,"SITUACAO":"Rural","CD_SIT":8,"CD_TIPO":5.0,"CD_AGLOM":500500400003.0,"NM_AGLOM":"Aldeia Indígena Laranjal","CD_TI":null,"TI_FUNAI":null,"NM_TI":null,"FASE":null,"C_CR_FUNAI":null,"N_CR_FUNAI":null,"ALD_FUNAI":3180.0,"VAL_FUNAI":1.0,"ALD_SIASI":null,"VAL_SIASI":null,"AMZ_LEG":null,"LAT":-21.570324019862543,"LONG":-56.1679716,"fonte":"IBGE, Censo Demográfico 2022, Localidades Indígenas, arquivo atualizado em 19/09/2025","url_fonte":"https://geoftp.ibge.gov.br/organizacao_do_territorio/estrutura_territorial/localidades/localidades_indigenas_2022/"},"geometry":{"coordinates":[-56.1679716,-21.570324019862543],"type":"Point"}},{"type":"Feature","properties":{"CD_UF":50,"NM_UF":"Mato Grosso do Sul","CD_MUNIC":5003157,"NM_MUNIC":"Coronel Sapucaia","ID_LI":5000477,"CD_LI":5010148,"OCORRENCIA":1,"NM_LI":"Aldeia Indígena Kurussu Ambá 2","CD_SETOR":500315705000031,"SITUACAO":"Rural","CD_SIT":8,"CD_TIPO":5.0,"CD_AGLOM":500315700003.0,"NM_AGLOM":"Aldeia Indígena Kurussu Amba 2","CD_TI":null,"TI_FUNAI":null,"NM_TI":null,"FASE":null,"C_CR_FUNAI":null,"N_CR_FUNAI":null,"ALD_FUNAI":null,"VAL_FUNAI":null,"ALD_SIASI":null,"VAL_SIASI":null,"AMZ_LEG":null,"LAT":-23.27800486433963,"LONG":-55.31956190164977,"fonte":"IBGE, Censo Demográfico 2022, Localidades Indígenas, arquivo atualizado em 19/09/2025","url_fonte":"https://geoftp.ibge.gov.br/organizacao_do_territorio/estrutura_territorial/localidades/localidades_indigenas_2022/"},"geometry":{"coordinates":[-55.31956190164977,-23.27800486433963],"type":"Point"}},{"type":"Feature","properties":{"CD_UF":50,"NM_UF":"Mato Grosso do Sul","CD_MUNIC":5007901,"NM_MUNIC":"Sidrolândia","ID_LI":5000478,"CD_LI":5010144,"OCORRENCIA":1,"NM_LI":"Aldeia Indígena Tereré","CD_SETOR":500790105000055,"SITUACAO":"Urbana","CD_SIT":1,"CD_TIPO":null,"CD_AGLOM":null,"NM_AGLOM":null,"CD_TI":null,"TI_FUNAI":null,"NM_TI":null,"FASE":null,"C_CR_FUNAI":null,"N_CR_FUNAI":null,"ALD_FUNAI":null,"VAL_FUNAI":null,"ALD_SIASI":null,"VAL_SIASI":null,"AMZ_LEG":null,"LAT":-20.93835669447812,"LONG":-54.97621822222222,"fonte":"IBGE, Censo Demográfico 2022, Localidades Indígenas, arquivo atualizado em 19/09/2025","url_fonte":"https://geoftp.ibge.gov.br/organizacao_do_territorio/estrutura_territorial/localidades/localidades_indigenas_2022/"},"geometry":{"coordinates":[-54.97621822222222,-20.93835669447812],"type":"Point"}},{"type":"Feature","properties":{"CD_UF":50,"NM_UF":"Mato Grosso do Sul","CD_MUNIC":5007901,"NM_MUNIC":"Sidrolândia","ID_LI":5000480,"CD_LI":5010095,"OCORRENCIA":1,"NM_LI":"Aldeia Indígena Oliveira","CD_SETOR":500790105000055,"SITUACAO":"Urbana","CD_SIT":1,"CD_TIPO":null,"CD_AGLOM":null,"NM_AGLOM":null,"CD_TI":null,"TI_FUNAI":null,"NM_TI":null,"FASE":null,"C_CR_FUNAI":null,"N_CR_FUNAI":null,"ALD_FUNAI":null,"VAL_FUNAI":null,"ALD_SIASI":null,"VAL_SIASI":null,"AMZ_LEG":null,"LAT":-20.938838611144785,"LONG":-54.97910344444445,"fonte":"IBGE, Censo Demográfico 2022, Localidades Indígenas, arquivo atualizado em 19/09/2025","url_fonte":"https://geoftp.ibge.gov.br/organizacao_do_territorio/estrutura_territorial/localidades/localidades_indigenas_2022/"},"geometry":{"coordinates":[-54.97910344444445,-20.938838611144785],"type":"Point"}},{"type":"Feature","properties":{"CD_UF":50,"NM_UF":"Mato Grosso do Sul","CD_MUNIC":5002704,"NM_MUNIC":"Campo Grande","ID_LI":5000481,"CD_LI":5010092,"OCORRENCIA":1,"NM_LI":"Aldeia Indígena Professor Darcy Ribeiro","CD_SETOR":500270405070170,"SITUACAO":"Urbana","CD_SIT":1,"CD_TIPO":5.0,"CD_AGLOM":500270400002.0,"NM_AGLOM":"Aldeia Indígena Professor Darcy Ribeiro","CD_TI":null,"TI_FUNAI":null,"NM_TI":null,"FASE":null,"C_CR_FUNAI":null,"N_CR_FUNAI":null,"ALD_FUNAI":null,"VAL_FUNAI":null,"ALD_SIASI":null,"VAL_SIASI":null,"AMZ_LEG":null,"LAT":-20.465655305588385,"LONG":-54.53143602777778,"fonte":"IBGE, Censo Demográfico 2022, Localidades Indígenas, arquivo atualizado em 19/09/2025","url_fonte":"https://geoftp.ibge.gov.br/organizacao_do_territorio/estrutura_territorial/localidades/localidades_indigenas_2022/"},"geometry":{"coordinates":[-54.53143602777778,-20.465655305588385],"type":"Point"}},{"type":"Feature","properties":{"CD_UF":50,"NM_UF":"Mato Grosso do Sul","CD_MUNIC":5002704,"NM_MUNIC":"Campo Grande","ID_LI":5000482,"CD_LI":5010105,"OCORRENCIA":1,"NM_LI":"Aldeia Indígena Estrela do Amanhã","CD_SETOR":500270405070171,"SITUACAO":"Urbana","CD_SIT":1,"CD_TIPO":5.0,"CD_AGLOM":500270400016.0,"NM_AGLOM":"Aldeia Indígena Estrela do Amanhã","CD_TI":null,"TI_FUNAI":null,"NM_TI":null,"FASE":null,"C_CR_FUNAI":null,"N_CR_FUNAI":null,"ALD_FUNAI":null,"VAL_FUNAI":null,"ALD_SIASI":null,"VAL_SIASI":null,"AMZ_LEG":null,"LAT":-20.4668486,"LONG":-54.531877638022905,"fonte":"IBGE, Censo Demográfico 2022, Localidades Indígenas, arquivo atualizado em 19/09/2025","url_fonte":"https://geoftp.ibge.gov.br/organizacao_do_territorio/estrutura_territorial/localidades/localidades_indigenas_2022/"},"geometry":{"coordinates":[-54.531877638022905,-20.4668486],"type":"Point"}},{"type":"Feature","properties":{"CD_UF":50,"NM_UF":"Mato Grosso do Sul","CD_MUNIC":5002704,"NM_MUNIC":"Campo Grande","ID_LI":5000483,"CD_LI":5010152,"OCORRENCIA":1,"NM_LI":"Aldeia Indígena Marçal de Souza","CD_SETOR":500270405120023,"SITUACAO":"Urbana","CD_SIT":1,"CD_TIPO":5.0,"CD_AGLOM":500270400001.0,"NM_AGLOM":"Aldeia Indígena Marçal de Souza","CD_TI":null,"TI_FUNAI":null,"NM_TI":null,"FASE":null,"C_CR_FUNAI":null,"N_CR_FUNAI":null,"ALD_FUNAI":null,"VAL_FUNAI":null,"ALD_SIASI":null,"VAL_SIASI":null,"AMZ_LEG":null,"LAT":-20.469033333366166,"LONG":-54.57012747222223,"fonte":"IBGE, Censo Demográfico 2022, Localidades Indígenas, arquivo atualizado em 19/09/2025","url_fonte":"https://geoftp.ibge.gov.br/organizacao_do_territorio/estrutura_territorial/localidades/localidades_indigenas_2022/"},"geometry":{"coordinates":[-54.57012747222223,-20.469033333366166],"type":"Point"}},{"type":"Feature","properties":{"CD_UF":50,"NM_UF":"Mato Grosso do Sul","CD_MUNIC":5007901,"NM_MUNIC":"Sidrolândia","ID_LI":5000486,"CD_LI":5010088,"OCORRENCIA":1,"NM_LI":"Aldeia Indígena Tereré 2","CD_SETOR":500790105000056,"SITUACAO":"Urbana","CD_SIT":1,"CD_TIPO":5.0,"CD_AGLOM":500790100020.0,"NM_AGLOM":"Aldeia Indígena Nova Tereré","CD_TI":null,"TI_FUNAI":null,"NM_TI":null,"FASE":null,"C_CR_FUNAI":null,"N_CR_FUNAI":null,"ALD_FUNAI":null,"VAL_FUNAI":null,"ALD_SIASI":null,"VAL_SIASI":null,"AMZ_LEG":null,"LAT":-20.940499611144787,"LONG":-54.98039961111111,"fonte":"IBGE, Censo Demográfico 2022, Localidades Indígenas, arquivo atualizado em 19/09/2025","url_fonte":"https://geoftp.ibge.gov.br/organizacao_do_territorio/estrutura_territorial/localidades/localidades_indigenas_2022/"},"geometry":{"coordinates":[-54.98039961111111,-20.940499611144787],"type":"Point"}},{"type":"Feature","properties":{"CD_UF":50,"NM_UF":"Mato Grosso do Sul","CD_MUNIC":5000708,"NM_MUNIC":"Anastácio","ID_LI":5000487,"CD_LI":5010024,"OCORRENCIA":1,"NM_LI":"Aldeia Indígena Aldeinha","CD_SETOR":500070805000007,"SITUACAO":"Urbana","CD_SIT":1,"CD_TIPO":5.0,"CD_AGLOM":500070800001.0,"NM_AGLOM":"Aldeia Indígena Aldeinha","CD_TI":null,"TI_FUNAI":null,"NM_TI":null,"FASE":null,"C_CR_FUNAI":null,"N_CR_FUNAI":null,"ALD_FUNAI":null,"VAL_FUNAI":null,"ALD_SIASI":null,"VAL_SIASI":null,"AMZ_LEG":null,"LAT":-20.49013038892176,"LONG":-55.79741858333334,"fonte":"IBGE, Censo Demográfico 2022, Localidades Indígenas, arquivo atualizado em 19/09/2025","url_fonte":"https://geoftp.ibge.gov.br/organizacao_do_territorio/estrutura_territorial/localidades/localidades_indigenas_2022/"},"geometry":{"coordinates":[-55.79741858333334,-20.49013038892176],"type":"Point"}},{"type":"Feature","properties":{"CD_UF":50,"NM_UF":"Mato Grosso do Sul","CD_MUNIC":5007901,"NM_MUNIC":"Sidrolândia","ID_LI":5000488,"CD_LI":5010138,"OCORRENCIA":1,"NM_LI":"Aldeia Indígena Nova Nascente","CD_SETOR":500790105000071,"SITUACAO":"Urbana","CD_SIT":1,"CD_TIPO":5.0,"CD_AGLOM":500790100021.0,"NM_AGLOM":"Aldeia Indígena Nova Nascente","CD_TI":null,"TI_FUNAI":null,"NM_TI":null,"FASE":null,"C_CR_FUNAI":null,"N_CR_FUNAI":null,"ALD_FUNAI":null,"VAL_FUNAI":null,"ALD_SIASI":null,"VAL_SIASI":null,"AMZ_LEG":null,"LAT":-20.938012916700337,"LONG":-54.97987591666666,"fonte":"IBGE, Censo Demográfico 2022, Localidades Indígenas, arquivo atualizado em 19/09/2025","url_fonte":"https://geoftp.ibge.gov.br/organizacao_do_territorio/estrutura_territorial/localidades/localidades_indigenas_2022/"},"geometry":{"coordinates":[-54.97987591666666,-20.938012916700337],"type":"Point"}},{"type":"Feature","properties":{"CD_UF":50,"NM_UF":"Mato Grosso do Sul","CD_MUNIC":5002704,"NM_MUNIC":"Campo Grande","ID_LI":5000489,"CD_LI":5010124,"OCORRENCIA":1,"NM_LI":"Comunidade Indígena Tarsila do Amaral","CD_SETOR":500270405080224,"SITUACAO":"Urbana","CD_SIT":1,"CD_TIPO":5.0,"CD_AGLOM":500270400015.0,"NM_AGLOM":"Aldeia Indígena Vida Nova II","CD_TI":null,"TI_FUNAI":null,"NM_TI":null,"FASE":null,"C_CR_FUNAI":null,"N_CR_FUNAI":null,"ALD_FUNAI":null,"VAL_FUNAI":null,"ALD_SIASI":null,"VAL_SIASI":null,"AMZ_LEG":null,"LAT":-20.375255694477115,"LONG":-54.57493630555555,"fonte":"IBGE, Censo Demográfico 2022, Localidades Indígenas, arquivo atualizado em 19/09/2025","url_fonte":"https://geoftp.ibge.gov.br/organizacao_do_territorio/estrutura_territorial/localidades/localidades_indigenas_2022/"},"geometry":{"coordinates":[-54.57493630555555,-20.375255694477115],"type":"Point"}},{"type":"Feature","properties":{"CD_UF":50,"NM_UF":"Mato Grosso do Sul","CD_MUNIC":5002704,"NM_MUNIC":"Campo Grande","ID_LI":5000490,"CD_LI":5010123,"OCORRENCIA":1,"NM_LI":"Aldeia Indígena Terena Água Funda","CD_SETOR":500270405070157,"SITUACAO":"Urbana","CD_SIT":1,"CD_TIPO":5.0,"CD_AGLOM":500270400009.0,"NM_AGLOM":"Aldeia Indígena Terena Água Funda","CD_TI":null,"TI_FUNAI":null,"NM_TI":null,"FASE":null,"C_CR_FUNAI":null,"N_CR_FUNAI":null,"ALD_FUNAI":null,"VAL_FUNAI":null,"ALD_SIASI":null,"VAL_SIASI":null,"AMZ_LEG":null,"LAT":-20.44798055558836,"LONG":-54.52113419444444,"fonte":"IBGE, Censo Demográfico 2022, Localidades Indígenas, arquivo atualizado em 19/09/2025","url_fonte":"https://geoftp.ibge.gov.br/organizacao_do_territorio/estrutura_territorial/localidades/localidades_indigenas_2022/"},"geometry":{"coordinates":[-54.52113419444444,-20.44798055558836],"type":"Point"}},{"type":"Feature","properties":{"CD_UF":50,"NM_UF":"Mato Grosso do Sul","CD_MUNIC":5003702,"NM_MUNIC":"Dourados","ID_LI":5000491,"CD_LI":5010016,"OCORRENCIA":2,"NM_LI":"Comunidade Indígena Ñuvera Guassú","CD_SETOR":500370205000386,"SITUACAO":"Urbana","CD_SIT":2,"CD_TIPO":5.0,"CD_AGLOM":500370200004.0,"NM_AGLOM":"Aldeia Indígena Nhuvera","CD_TI":null,"TI_FUNAI":null,"NM_TI":null,"FASE":null,"C_CR_FUNAI":null,"N_CR_FUNAI":null,"ALD_FUNAI":3167.0,"VAL_FUNAI":1.0,"ALD_SIASI":null,"VAL_SIASI":null,"AMZ_LEG":null,"LAT":-22.20062052781372,"LONG":-54.85187144444444,"fonte":"IBGE, Censo Demográfico 2022, Localidades Indígenas, arquivo atualizado em 19/09/2025","url_fonte":"https://geoftp.ibge.gov.br/organizacao_do_territorio/estrutura_territorial/localidades/localidades_indigenas_2022/"},"geometry":{"coordinates":[-54.85187144444444,-22.20062052781372],"type":"Point"}},{"type":"Feature","properties":{"CD_UF":50,"NM_UF":"Mato Grosso do Sul","CD_MUNIC":5002704,"NM_MUNIC":"Campo Grande","ID_LI":5000492,"CD_LI":5010077,"OCORRENCIA":1,"NM_LI":"Comunidade Indígena Vida Nova","CD_SETOR":500270405090165,"SITUACAO":"Urbana","CD_SIT":1,"CD_TIPO":5.0,"CD_AGLOM":500270400010.0,"NM_AGLOM":"Aldeia Indígena Futuro das Crianças","CD_TI":null,"TI_FUNAI":null,"NM_TI":null,"FASE":null,"C_CR_FUNAI":null,"N_CR_FUNAI":null,"ALD_FUNAI":null,"VAL_FUNAI":null,"ALD_SIASI":null,"VAL_SIASI":null,"AMZ_LEG":null,"LAT":-20.460502611143934,"LONG":-54.71383344444445,"fonte":"IBGE, Censo Demográfico 2022, Localidades Indígenas, arquivo atualizado em 19/09/2025","url_fonte":"https://geoftp.ibge.gov.br/organizacao_do_territorio/estrutura_territorial/localidades/localidades_indigenas_2022/"},"geometry":{"coordinates":[-54.71383344444445,-20.460502611143934],"type":"Point"}},{"type":"Feature","properties":{"CD_UF":50,"NM_UF":"Mato Grosso do Sul","CD_MUNIC":5002704,"NM_MUNIC":"Campo Grande","ID_LI":5000493,"CD_LI":5010157,"OCORRENCIA":1,"NM_LI":"Comunidade Indígena Paravá","CD_SETOR":500270405090167,"SITUACAO":"Urbana","CD_SIT":1,"CD_TIPO":5.0,"CD_AGLOM":500270400011.0,"NM_AGLOM":"Aldeia Indígena Parava","CD_TI":null,"TI_FUNAI":null,"NM_TI":null,"FASE":null,"C_CR_FUNAI":null,"N_CR_FUNAI":null,"ALD_FUNAI":null,"VAL_FUNAI":null,"ALD_SIASI":null,"VAL_SIASI":null,"AMZ_LEG":null,"LAT":-20.45977141669949,"LONG":-54.70940086111112,"fonte":"IBGE, Censo Demográfico 2022, Localidades Indígenas, arquivo atualizado em 19/09/2025","url_fonte":"https://geoftp.ibge.gov.br/organizacao_do_territorio/estrutura_territorial/localidades/localidades_indigenas_2022/"},"geometry":{"coordinates":[-54.70940086111112,-20.45977141669949],"type":"Point"}},{"type":"Feature","properties":{"CD_UF":50,"NM_UF":"Mato Grosso do Sul","CD_MUNIC":5002704,"NM_MUNIC":"Campo Grande","ID_LI":5000496,"CD_LI":5010009,"OCORRENCIA":1,"NM_LI":"Aldeia Indígena Jardim Inápolis","CD_SETOR":500270405090115,"SITUACAO":"Urbana","CD_SIT":1,"CD_TIPO":5.0,"CD_AGLOM":500270400006.0,"NM_AGLOM":"Aldeia Indígena Jardim Inápolis","CD_TI":null,"TI_FUNAI":null,"NM_TI":null,"FASE":null,"C_CR_FUNAI":null,"N_CR_FUNAI":null,"ALD_FUNAI":null,"VAL_FUNAI":null,"ALD_SIASI":null,"VAL_SIASI":null,"AMZ_LEG":null,"LAT":-20.48327936114397,"LONG":-54.73403719444445,"fonte":"IBGE, Censo Demográfico 2022, Localidades Indígenas, arquivo atualizado em 19/09/2025","url_fonte":"https://geoftp.ibge.gov.br/organizacao_do_territorio/estrutura_territorial/localidades/localidades_indigenas_2022/"},"geometry":{"coordinates":[-54.73403719444445,-20.48327936114397],"type":"Point"}},{"type":"Feature","properties":{"CD_UF":50,"NM_UF":"Mato Grosso do Sul","CD_MUNIC":5005608,"NM_MUNIC":"Miranda","ID_LI":5000498,"CD_LI":5010151,"OCORRENCIA":1,"NM_LI":"Aldeia Indígena Imbiruçú","CD_SETOR":500560805000018,"SITUACAO":"Urbana","CD_SIT":1,"CD_TIPO":null,"CD_AGLOM":null,"NM_AGLOM":null,"CD_TI":null,"TI_FUNAI":null,"NM_TI":null,"FASE":null,"C_CR_FUNAI":null,"N_CR_FUNAI":null,"ALD_FUNAI":null,"VAL_FUNAI":null,"ALD_SIASI":null,"VAL_SIASI":null,"AMZ_LEG":null,"LAT":-20.26533875003248,"LONG":-56.373980805555554,"fonte":"IBGE, Censo Demográfico 2022, Localidades Indígenas, arquivo atualizado em 19/09/2025","url_fonte":"https://geoftp.ibge.gov.br/organizacao_do_territorio/estrutura_territorial/localidades/localidades_indigenas_2022/"},"geometry":{"coordinates":[-56.373980805555554,-20.26533875003248],"type":"Point"}},{"type":"Feature","properties":{"CD_UF":50,"NM_UF":"Mato Grosso do Sul","CD_MUNIC":5003702,"NM_MUNIC":"Dourados","ID_LI":5000500,"CD_LI":5010106,"OCORRENCIA":1,"NM_LI":"Comunidade Indígena Boqueirão","CD_SETOR":500370205000386,"SITUACAO":"Urbana","CD_SIT":2,"CD_TIPO":5.0,"CD_AGLOM":500370200004.0,"NM_AGLOM":"Aldeia Indígena Nhuvera","CD_TI":null,"TI_FUNAI":null,"NM_TI":null,"FASE":null,"C_CR_FUNAI":null,"N_CR_FUNAI":null,"ALD_FUNAI":3166.0,"VAL_FUNAI":1.0,"ALD_SIASI":52570.0,"VAL_SIASI":2.0,"AMZ_LEG":null,"LAT":-22.201243916702616,"LONG":-54.84908322222222,"fonte":"IBGE, Censo Demográfico 2022, Localidades Indígenas, arquivo atualizado em 19/09/2025","url_fonte":"https://geoftp.ibge.gov.br/organizacao_do_territorio/estrutura_territorial/localidades/localidades_indigenas_2022/"},"geometry":{"coordinates":[-54.84908322222222,-22.201243916702616],"type":"Point"}},{"type":"Feature","properties":{"CD_UF":50,"NM_UF":"Mato Grosso do Sul","CD_MUNIC":5003702,"NM_MUNIC":"Dourados","ID_LI":5000505,"CD_LI":5010067,"OCORRENCIA":1,"NM_LI":"Aldeia Indígena Nu Porã","CD_SETOR":500370205000447,"SITUACAO":"Urbana","CD_SIT":2,"CD_TIPO":5.0,"CD_AGLOM":500370200010.0,"NM_AGLOM":"Aldeia Indígena Nu Porã / N Porã","CD_TI":null,"TI_FUNAI":null,"NM_TI":null,"FASE":null,"C_CR_FUNAI":null,"N_CR_FUNAI":null,"ALD_FUNAI":null,"VAL_FUNAI":null,"ALD_SIASI":null,"VAL_SIASI":null,"AMZ_LEG":null,"LAT":-22.25004444448048,"LONG":-54.76907725,"fonte":"IBGE, Censo Demográfico 2022, Localidades Indígenas, arquivo atualizado em 19/09/2025","url_fonte":"https://geoftp.ibge.gov.br/organizacao_do_territorio/estrutura_territorial/localidades/localidades_indigenas_2022/"},"geometry":{"coordinates":[-54.76907725,-22.25004444448048],"type":"Point"}},{"type":"Feature","properties":{"CD_UF":50,"NM_UF":"Mato Grosso do Sul","CD_MUNIC":5002704,"NM_MUNIC":"Campo Grande","ID_LI":5000506,"CD_LI":5010042,"OCORRENCIA":1,"NM_LI":"Aldeia Indígena Nova Canaã","CD_SETOR":500270405070173,"SITUACAO":"Urbana","CD_SIT":1,"CD_TIPO":5.0,"CD_AGLOM":500270400017.0,"NM_AGLOM":"Aldeia Indígena Serraville","CD_TI":null,"TI_FUNAI":null,"NM_TI":null,"FASE":null,"C_CR_FUNAI":null,"N_CR_FUNAI":null,"ALD_FUNAI":null,"VAL_FUNAI":null,"ALD_SIASI":null,"VAL_SIASI":null,"AMZ_LEG":null,"LAT":-20.461977000032828,"LONG":-54.52092136111112,"fonte":"IBGE, Censo Demográfico 2022, Localidades Indígenas, arquivo atualizado em 19/09/2025","url_fonte":"https://geoftp.ibge.gov.br/organizacao_do_territorio/estrutura_territorial/localidades/localidades_indigenas_2022/"},"geometry":{"coordinates":[-54.52092136111112,-20.461977000032828],"type":"Point"}},{"type":"Feature","properties":{"CD_UF":50,"NM_UF":"Mato Grosso do Sul","CD_MUNIC":5003702,"NM_MUNIC":"Dourados","ID_LI":5000511,"CD_LI":5010075,"OCORRENCIA":2,"NM_LI":"Aldeia Indígena Yvy Vera","CD_SETOR":500370205000441,"SITUACAO":"Urbana","CD_SIT":2,"CD_TIPO":5.0,"CD_AGLOM":500370200005.0,"NM_AGLOM":"Aldeia Indígena Yvy Vera","CD_TI":null,"TI_FUNAI":null,"NM_TI":null,"FASE":null,"C_CR_FUNAI":null,"N_CR_FUNAI":null,"ALD_FUNAI":null,"VAL_FUNAI":null,"ALD_SIASI":null,"VAL_SIASI":null,"AMZ_LEG":null,"LAT":-22.185411638924805,"LONG":-54.83501019444444,"fonte":"IBGE, Censo Demográfico 2022, Localidades Indígenas, arquivo atualizado em 19/09/2025","url_fonte":"https://geoftp.ibge.gov.br/organizacao_do_territorio/estrutura_territorial/localidades/localidades_indigenas_2022/"},"geometry":{"coordinates":[-54.83501019444444,-22.185411638924805],"type":"Point"}},{"type":"Feature","properties":{"CD_UF":50,"NM_UF":"Mato Grosso do Sul","CD_MUNIC":5002704,"NM_MUNIC":"Campo Grande","ID_LI":5000515,"CD_LI":5010039,"OCORRENCIA":1,"NM_LI":"Comunidade Roda Velha","CD_SETOR":500270405090215,"SITUACAO":"Urbana","CD_SIT":1,"CD_TIPO":null,"CD_AGLOM":null,"NM_AGLOM":null,"CD_TI":null,"TI_FUNAI":null,"NM_TI":null,"FASE":null,"C_CR_FUNAI":null,"N_CR_FUNAI":null,"ALD_FUNAI":null,"VAL_FUNAI":null,"ALD_SIASI":null,"VAL_SIASI":null,"AMZ_LEG":null,"LAT":-20.47952133333333,"LONG":-54.74758601666667,"fonte":"IBGE, Censo Demográfico 2022, Localidades Indígenas, arquivo atualizado em 19/09/2025","url_fonte":"https://geoftp.ibge.gov.br/organizacao_do_territorio/estrutura_territorial/localidades/localidades_indigenas_2022/"},"geometry":{"coordinates":[-54.74758601666667,-20.47952133333333],"type":"Point"}},{"type":"Feature","properties":{"CD_UF":50,"NM_UF":"Mato Grosso do Sul","CD_MUNIC":5002704,"NM_MUNIC":"Campo Grande","ID_LI":5000517,"CD_LI":5010137,"OCORRENCIA":1,"NM_LI":"Comunidade Indígena Urbana Jardim Aeroporto","CD_SETOR":500270405090127,"SITUACAO":"Urbana","CD_SIT":1,"CD_TIPO":null,"CD_AGLOM":null,"NM_AGLOM":null,"CD_TI":null,"TI_FUNAI":null,"NM_TI":null,"FASE":null,"C_CR_FUNAI":null,"N_CR_FUNAI":null,"ALD_FUNAI":null,"VAL_FUNAI":null,"ALD_SIASI":null,"VAL_SIASI":null,"AMZ_LEG":null,"LAT":-20.444447972255013,"LONG":-54.68866444444444,"fonte":"IBGE, Censo Demográfico 2022, Localidades Indígenas, arquivo atualizado em 19/09/2025","url_fonte":"https://geoftp.ibge.gov.br/organizacao_do_territorio/estrutura_territorial/localidades/localidades_indigenas_2022/"},"geometry":{"coordinates":[-54.68866444444444,-20.444447972255013],"type":"Point"}},{"type":"Feature","properties":{"CD_UF":50,"NM_UF":"Mato Grosso do Sul","CD_MUNIC":5005707,"NM_MUNIC":"Naviraí","ID_LI":5000518,"CD_LI":5010109,"OCORRENCIA":1,"NM_LI":"Comunidade Indígena Mboveriy","CD_SETOR":500570705000156,"SITUACAO":"Urbana","CD_SIT":1,"CD_TIPO":5.0,"CD_AGLOM":500570700006.0,"NM_AGLOM":"Aldeia Indígena Sem Denominação","CD_TI":null,"TI_FUNAI":null,"NM_TI":null,"FASE":null,"C_CR_FUNAI":null,"N_CR_FUNAI":null,"ALD_FUNAI":null,"VAL_FUNAI":null,"ALD_SIASI":null,"VAL_SIASI":null,"AMZ_LEG":null,"LAT":-23.056373333370846,"LONG":-54.21270166666666,"fonte":"IBGE, Censo Demográfico 2022, Localidades Indígenas, arquivo atualizado em 19/09/2025","url_fonte":"https://geoftp.ibge.gov.br/organizacao_do_territorio/estrutura_territorial/localidades/localidades_indigenas_2022/"},"geometry":{"coordinates":[-54.21270166666666,-23.056373333370846],"type":"Point"}},{"type":"Feature","properties":{"CD_UF":50,"NM_UF":"Mato Grosso do Sul","CD_MUNIC":5003702,"NM_MUNIC":"Dourados","ID_LI":5000525,"CD_LI":5010075,"OCORRENCIA":3,"NM_LI":"Aldeia Indígena Yvy Vera","CD_SETOR":500370205000441,"SITUACAO":"Urbana","CD_SIT":2,"CD_TIPO":5.0,"CD_AGLOM":500370200005.0,"NM_AGLOM":"Aldeia Indígena Yvy Vera","CD_TI":null,"TI_FUNAI":null,"NM_TI":null,"FASE":null,"C_CR_FUNAI":null,"N_CR_FUNAI":null,"ALD_FUNAI":null,"VAL_FUNAI":null,"ALD_SIASI":null,"VAL_SIASI":null,"AMZ_LEG":null,"LAT":-22.188649944480368,"LONG":-54.82751786111111,"fonte":"IBGE, Censo Demográfico 2022, Localidades Indígenas, arquivo atualizado em 19/09/2025","url_fonte":"https://geoftp.ibge.gov.br/organizacao_do_territorio/estrutura_territorial/localidades/localidades_indigenas_2022/"},"geometry":{"coordinates":[-54.82751786111111,-22.188649944480368],"type":"Point"}},{"type":"Feature","properties":{"CD_UF":50,"NM_UF":"Mato Grosso do Sul","CD_MUNIC":5005707,"NM_MUNIC":"Naviraí","ID_LI":5000530,"CD_LI":5010109,"OCORRENCIA":2,"NM_LI":"Comunidade Indígena Mboveriy","CD_SETOR":500570705000156,"SITUACAO":"Urbana","CD_SIT":1,"CD_TIPO":5.0,"CD_AGLOM":500570700006.0,"NM_AGLOM":"Aldeia Indígena Sem Denominação","CD_TI":null,"TI_FUNAI":null,"NM_TI":null,"FASE":null,"C_CR_FUNAI":null,"N_CR_FUNAI":null,"ALD_FUNAI":null,"VAL_FUNAI":null,"ALD_SIASI":null,"VAL_SIASI":null,"AMZ_LEG":null,"LAT":-23.05440830559307,"LONG":-54.211043333333336,"fonte":"IBGE, Censo Demográfico 2022, Localidades Indígenas, arquivo atualizado em 19/09/2025","url_fonte":"https://geoftp.ibge.gov.br/organizacao_do_territorio/estrutura_territorial/localidades/localidades_indigenas_2022/"},"geometry":{"coordinates":[-54.211043333333336,-23.05440830559307],"type":"Point"}},{"type":"Feature","properties":{"CD_UF":50,"NM_UF":"Mato Grosso do Sul","CD_MUNIC":5001243,"NM_MUNIC":"Aral Moreira","ID_LI":5000537,"CD_LI":5010113,"OCORRENCIA":1,"NM_LI":"Aldeia Indígena Guarani Kaiowá","CD_SETOR":500124305000029,"SITUACAO":"Urbana","CD_SIT":1,"CD_TIPO":5.0,"CD_AGLOM":500124300007.0,"NM_AGLOM":"Aldeia Indígena Guarani Kaiowá","CD_TI":null,"TI_FUNAI":null,"NM_TI":null,"FASE":null,"C_CR_FUNAI":null,"N_CR_FUNAI":null,"ALD_FUNAI":null,"VAL_FUNAI":null,"ALD_SIASI":null,"VAL_SIASI":null,"AMZ_LEG":null,"LAT":-22.939637916703965,"LONG":-55.62595833333333,"fonte":"IBGE, Censo Demográfico 2022, Localidades Indígenas, arquivo atualizado em 19/09/2025","url_fonte":"https://geoftp.ibge.gov.br/organizacao_do_territorio/estrutura_territorial/localidades/localidades_indigenas_2022/"},"geometry":{"coordinates":[-55.62595833333333,-22.939637916703965],"type":"Point"}},{"type":"Feature","properties":{"CD_UF":50,"NM_UF":"Mato Grosso do Sul","CD_MUNIC":5005707,"NM_MUNIC":"Naviraí","ID_LI":5000542,"CD_LI":5010100,"OCORRENCIA":1,"NM_LI":"Comunidade Indígena Romero Benites","CD_SETOR":500570705000152,"SITUACAO":"Urbana","CD_SIT":1,"CD_TIPO":5.0,"CD_AGLOM":500570700006.0,"NM_AGLOM":"Aldeia Indígena Sem Denominação","CD_TI":null,"TI_FUNAI":null,"NM_TI":null,"FASE":null,"C_CR_FUNAI":null,"N_CR_FUNAI":null,"ALD_FUNAI":null,"VAL_FUNAI":null,"ALD_SIASI":null,"VAL_SIASI":null,"AMZ_LEG":null,"LAT":-23.05355500003751,"LONG":-54.213031666666666,"fonte":"IBGE, Censo Demográfico 2022, Localidades Indígenas, arquivo atualizado em 19/09/2025","url_fonte":"https://geoftp.ibge.gov.br/organizacao_do_territorio/estrutura_territorial/localidades/localidades_indigenas_2022/"},"geometry":{"coordinates":[-54.213031666666666,-23.05355500003751],"type":"Point"}},{"type":"Feature","properties":{"CD_UF":50,"NM_UF":"Mato Grosso do Sul","CD_MUNIC":5000708,"NM_MUNIC":"Anastácio","ID_LI":5000544,"CD_LI":5010071,"OCORRENCIA":1,"NM_LI":"Vila Umbelina","CD_SETOR":500070805000005,"SITUACAO":"Urbana","CD_SIT":1,"CD_TIPO":null,"CD_AGLOM":null,"NM_AGLOM":null,"CD_TI":null,"TI_FUNAI":null,"NM_TI":null,"FASE":null,"C_CR_FUNAI":null,"N_CR_FUNAI":null,"ALD_FUNAI":null,"VAL_FUNAI":null,"ALD_SIASI":null,"VAL_SIASI":null,"AMZ_LEG":null,"LAT":-20.489462361143985,"LONG":-55.7993511111111,"fonte":"IBGE, Censo Demográfico 2022, Localidades Indígenas, arquivo atualizado em 19/09/2025","url_fonte":"https://geoftp.ibge.gov.br/organizacao_do_territorio/estrutura_territorial/localidades/localidades_indigenas_2022/"},"geometry":{"coordinates":[-55.7993511111111,-20.489462361143985],"type":"Point"}},{"type":"Feature","properties":{"CD_UF":50,"NM_UF":"Mato Grosso do Sul","CD_MUNIC":5002704,"NM_MUNIC":"Campo Grande","ID_LI":5000549,"CD_LI":5010124,"OCORRENCIA":2,"NM_LI":"Comunidade Indígena Tarsila do Amaral","CD_SETOR":500270405080222,"SITUACAO":"Urbana","CD_SIT":1,"CD_TIPO":5.0,"CD_AGLOM":500270400015.0,"NM_AGLOM":"Aldeia Indígena Vida Nova II","CD_TI":null,"TI_FUNAI":null,"NM_TI":null,"FASE":null,"C_CR_FUNAI":null,"N_CR_FUNAI":null,"ALD_FUNAI":null,"VAL_FUNAI":null,"ALD_SIASI":null,"VAL_SIASI":null,"AMZ_LEG":null,"LAT":-20.37728033336601,"LONG":-54.57593913888889,"fonte":"IBGE, Censo Demográfico 2022, Localidades Indígenas, arquivo atualizado em 19/09/2025","url_fonte":"https://geoftp.ibge.gov.br/organizacao_do_territorio/estrutura_territorial/localidades/localidades_indigenas_2022/"},"geometry":{"coordinates":[-54.57593913888889,-20.37728033336601],"type":"Point"}},{"type":"Feature","properties":{"CD_UF":50,"NM_UF":"Mato Grosso do Sul","CD_MUNIC":5007901,"NM_MUNIC":"Sidrolândia","ID_LI":5000553,"CD_LI":5010144,"OCORRENCIA":3,"NM_LI":"Aldeia Indígena Tereré","CD_SETOR":500790105000084,"SITUACAO":"Urbana","CD_SIT":1,"CD_TIPO":5.0,"CD_AGLOM":500790100024.0,"NM_AGLOM":"Aldeia Indígena Tereré","CD_TI":null,"TI_FUNAI":null,"NM_TI":null,"FASE":null,"C_CR_FUNAI":null,"N_CR_FUNAI":null,"ALD_FUNAI":null,"VAL_FUNAI":null,"ALD_SIASI":null,"VAL_SIASI":null,"AMZ_LEG":null,"LAT":-20.941266611144787,"LONG":-54.97940825,"fonte":"IBGE, Censo Demográfico 2022, Localidades Indígenas, arquivo atualizado em 19/09/2025","url_fonte":"https://geoftp.ibge.gov.br/organizacao_do_territorio/estrutura_territorial/localidades/localidades_indigenas_2022/"},"geometry":{"coordinates":[-54.97940825,-20.941266611144787],"type":"Point"}},{"type":"Feature","properties":{"CD_UF":50,"NM_UF":"Mato Grosso do Sul","CD_MUNIC":5003702,"NM_MUNIC":"Dourados","ID_LI":5000567,"CD_LI":5010075,"OCORRENCIA":4,"NM_LI":"Aldeia Indígena Yvy Vera","CD_SETOR":500370205000441,"SITUACAO":"Urbana","CD_SIT":2,"CD_TIPO":5.0,"CD_AGLOM":500370200005.0,"NM_AGLOM":"Aldeia Indígena Yvy Vera","CD_TI":null,"TI_FUNAI":null,"NM_TI":null,"FASE":null,"C_CR_FUNAI":null,"N_CR_FUNAI":null,"ALD_FUNAI":null,"VAL_FUNAI":null,"ALD_SIASI":null,"VAL_SIASI":null,"AMZ_LEG":null,"LAT":-22.18415330559148,"LONG":-54.82897580555556,"fonte":"IBGE, Censo Demográfico 2022, Localidades Indígenas, arquivo atualizado em 19/09/2025","url_fonte":"https://geoftp.ibge.gov.br/organizacao_do_territorio/estrutura_territorial/localidades/localidades_indigenas_2022/"},"geometry":{"coordinates":[-54.82897580555556,-22.18415330559148],"type":"Point"}},{"type":"Feature","properties":{"CD_UF":50,"NM_UF":"Mato Grosso do Sul","CD_MUNIC":5003702,"NM_MUNIC":"Dourados","ID_LI":5000575,"CD_LI":5010075,"OCORRENCIA":5,"NM_LI":"Aldeia Indígena Yvy Vera","CD_SETOR":500370205000441,"SITUACAO":"Urbana","CD_SIT":2,"CD_TIPO":5.0,"CD_AGLOM":500370200005.0,"NM_AGLOM":"Aldeia Indígena Yvy Vera","CD_TI":null,"TI_FUNAI":null,"NM_TI":null,"FASE":null,"C_CR_FUNAI":null,"N_CR_FUNAI":null,"ALD_FUNAI":null,"VAL_FUNAI":null,"ALD_SIASI":null,"VAL_SIASI":null,"AMZ_LEG":null,"LAT":-22.184301777813697,"LONG":-54.83188022222223,"fonte":"IBGE, Censo Demográfico 2022, Localidades Indígenas, arquivo atualizado em 19/09/2025","url_fonte":"https://geoftp.ibge.gov.br/organizacao_do_territorio/estrutura_territorial/localidades/localidades_indigenas_2022/"},"geometry":{"coordinates":[-54.83188022222223,-22.184301777813697],"type":"Point"}},{"type":"Feature","properties":{"CD_UF":50,"NM_UF":"Mato Grosso do Sul","CD_MUNIC":5002704,"NM_MUNIC":"Campo Grande","ID_LI":5000596,"CD_LI":5010137,"OCORRENCIA":2,"NM_LI":"Comunidade Indígena Urbana Jardim Aeroporto","CD_SETOR":500270405090127,"SITUACAO":"Urbana","CD_SIT":1,"CD_TIPO":null,"CD_AGLOM":null,"NM_AGLOM":null,"CD_TI":null,"TI_FUNAI":null,"NM_TI":null,"FASE":null,"C_CR_FUNAI":null,"N_CR_FUNAI":null,"ALD_FUNAI":null,"VAL_FUNAI":null,"ALD_SIASI":null,"VAL_SIASI":null,"AMZ_LEG":null,"LAT":-20.44441066669946,"LONG":-54.69093608333333,"fonte":"IBGE, Censo Demográfico 2022, Localidades Indígenas, arquivo atualizado em 19/09/2025","url_fonte":"https://geoftp.ibge.gov.br/organizacao_do_territorio/estrutura_territorial/localidades/localidades_indigenas_2022/"},"geometry":{"coordinates":[-54.69093608333333,-20.44441066669946],"type":"Point"}},{"type":"Feature","properties":{"CD_UF":50,"NM_UF":"Mato Grosso do Sul","CD_MUNIC":5002704,"NM_MUNIC":"Campo Grande","ID_LI":5000597,"CD_LI":5010124,"OCORRENCIA":3,"NM_LI":"Comunidade Indígena Tarsila do Amaral","CD_SETOR":500270405080306,"SITUACAO":"Urbana","CD_SIT":1,"CD_TIPO":null,"CD_AGLOM":null,"NM_AGLOM":null,"CD_TI":null,"TI_FUNAI":null,"NM_TI":null,"FASE":null,"C_CR_FUNAI":null,"N_CR_FUNAI":null,"ALD_FUNAI":null,"VAL_FUNAI":null,"ALD_SIASI":null,"VAL_SIASI":null,"AMZ_LEG":null,"LAT":-20.37847461114379,"LONG":-54.57405441666667,"fonte":"IBGE, Censo Demográfico 2022, Localidades Indígenas, arquivo atualizado em 19/09/2025","url_fonte":"https://geoftp.ibge.gov.br/organizacao_do_territorio/estrutura_territorial/localidades/localidades_indigenas_2022/"},"geometry":{"coordinates":[-54.57405441666667,-20.37847461114379],"type":"Point"}},{"type":"Feature","properties":{"CD_UF":50,"NM_UF":"Mato Grosso do Sul","CD_MUNIC":5003702,"NM_MUNIC":"Dourados","ID_LI":5000599,"CD_LI":5010032,"OCORRENCIA":5,"NM_LI":"Aldeia Indígena Bororó","CD_SETOR":500370205000386,"SITUACAO":"Urbana","CD_SIT":2,"CD_TIPO":5.0,"CD_AGLOM":500370200004.0,"NM_AGLOM":"Aldeia Indígena Nhuvera","CD_TI":null,"TI_FUNAI":null,"NM_TI":null,"FASE":null,"C_CR_FUNAI":null,"N_CR_FUNAI":null,"ALD_FUNAI":null,"VAL_FUNAI":null,"ALD_SIASI":49930.0,"VAL_SIASI":2.0,"AMZ_LEG":null,"LAT":-22.20170133336928,"LONG":-54.85092341666667,"fonte":"IBGE, Censo Demográfico 2022, Localidades Indígenas, arquivo atualizado em 19/09/2025","url_fonte":"https://geoftp.ibge.gov.br/organizacao_do_territorio/estrutura_territorial/localidades/localidades_indigenas_2022/"},"geometry":{"coordinates":[-54.85092341666667,-22.20170133336928],"type":"Point"}},{"type":"Feature","properties":{"CD_UF":50,"NM_UF":"Mato Grosso do Sul","CD_MUNIC":5003702,"NM_MUNIC":"Dourados","ID_LI":5000605,"CD_LI":5010075,"OCORRENCIA":6,"NM_LI":"Aldeia Indígena Yvy Vera","CD_SETOR":500370205000441,"SITUACAO":"Urbana","CD_SIT":2,"CD_TIPO":5.0,"CD_AGLOM":500370200005.0,"NM_AGLOM":"Aldeia Indígena Yvy Vera","CD_TI":null,"TI_FUNAI":null,"NM_TI":null,"FASE":null,"C_CR_FUNAI":null,"N_CR_FUNAI":null,"ALD_FUNAI":null,"VAL_FUNAI":null,"ALD_SIASI":null,"VAL_SIASI":null,"AMZ_LEG":null,"LAT":-22.186560638924814,"LONG":-54.8318573888889,"fonte":"IBGE, Censo Demográfico 2022, Localidades Indígenas, arquivo atualizado em 19/09/2025","url_fonte":"https://geoftp.ibge.gov.br/organizacao_do_territorio/estrutura_territorial/localidades/localidades_indigenas_2022/"},"geometry":{"coordinates":[-54.8318573888889,-22.186560638924814],"type":"Point"}},{"type":"Feature","properties":{"CD_UF":50,"NM_UF":"Mato Grosso do Sul","CD_MUNIC":5002704,"NM_MUNIC":"Campo Grande","ID_LI":5000614,"CD_LI":5010137,"OCORRENCIA":3,"NM_LI":"Comunidade Indígena Urbana Jardim Aeroporto","CD_SETOR":500270405090229,"SITUACAO":"Urbana","CD_SIT":1,"CD_TIPO":null,"CD_AGLOM":null,"NM_AGLOM":null,"CD_TI":null,"TI_FUNAI":null,"NM_TI":null,"FASE":null,"C_CR_FUNAI":null,"N_CR_FUNAI":null,"ALD_FUNAI":null,"VAL_FUNAI":null,"ALD_SIASI":null,"VAL_SIASI":null,"AMZ_LEG":null,"LAT":-20.440515277810565,"LONG":-54.69032997222222,"fonte":"IBGE, Censo Demográfico 2022, Localidades Indígenas, arquivo atualizado em 19/09/2025","url_fonte":"https://geoftp.ibge.gov.br/organizacao_do_territorio/estrutura_territorial/localidades/localidades_indigenas_2022/"},"geometry":{"coordinates":[-54.69032997222222,-20.440515277810565],"type":"Point"}},{"type":"Feature","properties":{"CD_UF":50,"NM_UF":"Mato Grosso do Sul","CD_MUNIC":5003702,"NM_MUNIC":"Dourados","ID_LI":5000673,"CD_LI":5010002,"OCORRENCIA":1,"NM_LI":"Aldeia Indígena Caiuas","CD_SETOR":500370205000316,"SITUACAO":"Urbana","CD_SIT":2,"CD_TIPO":null,"CD_AGLOM":null,"NM_AGLOM":null,"CD_TI":null,"TI_FUNAI":null,"NM_TI":null,"FASE":null,"C_CR_FUNAI":null,"N_CR_FUNAI":null,"ALD_FUNAI":null,"VAL_FUNAI":null,"ALD_SIASI":null,"VAL_SIASI":null,"AMZ_LEG":null,"LAT":-22.19706861114705,"LONG":-54.786980694444445,"fonte":"IBGE, Censo Demográfico 2022, Localidades Indígenas, arquivo atualizado em 19/09/2025","url_fonte":"https://geoftp.ibge.gov.br/organizacao_do_territorio/estrutura_territorial/localidades/localidades_indigenas_2022/"},"geometry":{"coordinates":[-54.786980694444445,-22.19706861114705],"type":"Point"}},{"type":"Feature","properties":{"CD_UF":50,"NM_UF":"Mato Grosso do Sul","CD_MUNIC":5005806,"NM_MUNIC":"Nioaque","ID_LI":5000674,"CD_LI":5010004,"OCORRENCIA":1,"NM_LI":"Bairro Bahia","CD_SETOR":500580605000048,"SITUACAO":"Urbana","CD_SIT":1,"CD_TIPO":null,"CD_AGLOM":null,"NM_AGLOM":null,"CD_TI":null,"TI_FUNAI":null,"NM_TI":null,"FASE":null,"C_CR_FUNAI":null,"N_CR_FUNAI":null,"ALD_FUNAI":null,"VAL_FUNAI":null,"ALD_SIASI":null,"VAL_SIASI":null,"AMZ_LEG":null,"LAT":-21.173657027811863,"LONG":-55.82923677777777,"fonte":"IBGE, Censo Demográfico 2022, Localidades Indígenas, arquivo atualizado em 19/09/2025","url_fonte":"https://geoftp.ibge.gov.br/organizacao_do_territorio/estrutura_territorial/localidades/localidades_indigenas_2022/"},"geometry":{"coordinates":[-55.82923677777777,-21.173657027811863],"type":"Point"}},{"type":"Feature","properties":{"CD_UF":50,"NM_UF":"Mato Grosso do Sul","CD_MUNIC":5003702,"NM_MUNIC":"Dourados","ID_LI":5000695,"CD_LI":5010074,"OCORRENCIA":1,"NM_LI":"Aldeia Indígena Yvy Poty Rory","CD_SETOR":500370205000316,"SITUACAO":"Urbana","CD_SIT":2,"CD_TIPO":null,"CD_AGLOM":null,"NM_AGLOM":null,"CD_TI":null,"TI_FUNAI":null,"NM_TI":null,"FASE":null,"C_CR_FUNAI":null,"N_CR_FUNAI":null,"ALD_FUNAI":null,"VAL_FUNAI":null,"ALD_SIASI":null,"VAL_SIASI":null,"AMZ_LEG":null,"LAT":-22.19726169448038,"LONG":-54.80078533333333,"fonte":"IBGE, Censo Demográfico 2022, Localidades Indígenas, arquivo atualizado em 19/09/2025","url_fonte":"https://geoftp.ibge.gov.br/organizacao_do_territorio/estrutura_territorial/localidades/localidades_indigenas_2022/"},"geometry":{"coordinates":[-54.80078533333333,-22.19726169448038],"type":"Point"}},{"type":"Feature","properties":{"CD_UF":50,"NM_UF":"Mato Grosso do Sul","CD_MUNIC":5007208,"NM_MUNIC":"Rio Brilhante","ID_LI":5000700,"CD_LI":5010149,"OCORRENCIA":1,"NM_LI":"Aldeia Indígena Coquerito","CD_SETOR":500720810000007,"SITUACAO":"Urbana","CD_SIT":1,"CD_TIPO":5.0,"CD_AGLOM":500720800012.0,"NM_AGLOM":"Aldeia Indígena Coquerito","CD_TI":null,"TI_FUNAI":null,"NM_TI":null,"FASE":null,"C_CR_FUNAI":null,"N_CR_FUNAI":null,"ALD_FUNAI":null,"VAL_FUNAI":null,"ALD_SIASI":null,"VAL_SIASI":null,"AMZ_LEG":null,"LAT":-21.657350694479405,"LONG":-54.43868063888889,"fonte":"IBGE, Censo Demográfico 2022, Localidades Indígenas, arquivo atualizado em 19/09/2025","url_fonte":"https://geoftp.ibge.gov.br/organizacao_do_territorio/estrutura_territorial/localidades/localidades_indigenas_2022/"},"geometry":{"coordinates":[-54.43868063888889,-21.657350694479405],"type":"Point"}},{"type":"Feature","properties":{"CD_UF":50,"NM_UF":"Mato Grosso do Sul","CD_MUNIC":5000708,"NM_MUNIC":"Anastácio","ID_LI":5000701,"CD_LI":5010112,"OCORRENCIA":1,"NM_LI":"Jardim Progresso","CD_SETOR":500070805000022,"SITUACAO":"Urbana","CD_SIT":1,"CD_TIPO":null,"CD_AGLOM":null,"NM_AGLOM":null,"CD_TI":null,"TI_FUNAI":null,"NM_TI":null,"FASE":null,"C_CR_FUNAI":null,"N_CR_FUNAI":null,"ALD_FUNAI":null,"VAL_FUNAI":null,"ALD_SIASI":null,"VAL_SIASI":null,"AMZ_LEG":null,"LAT":-20.496763222255108,"LONG":-55.79074644444445,"fonte":"IBGE, Censo Demográfico 2022, Localidades Indígenas, arquivo atualizado em 19/09/2025","url_fonte":"https://geoftp.ibge.gov.br/organizacao_do_territorio/estrutura_territorial/localidades/localidades_indigenas_2022/"},"geometry":{"coordinates":[-55.79074644444445,-20.496763222255108],"type":"Point"}}],"atlas_metadata":{"derived_from":"localidades_indigenas_ibge","rule":"CD_TI sem valor informado"}}