{"type":"FeatureCollection","name":"localidades_quilombolas_sem_vinculo_tq_ibge","features":[{"type":"Feature","properties":{"CD_UF":50,"NM_UF":"MATO GROSSO DO SUL","SG_UF":"MS","CD_MUNIC":5002209,"NM_MUNIC":"Bonito","IDCQ0001":106,"OCORRENCIA":1,"CD_LQ":5002209001061,"PREFIXO":"COMUNIDADE QUILOMBOLA","NM_CQ":"ÁGUAS DO RIO MIRANDA","CD_AGLOM":null,"NM_AGLOM":null,"CD_TQ":null,"NM_TQ":null,"P_FCP":"01420.017088/2011-81","Lat_d":-20.7628235831,"Long_d":-56.0947691032,"fonte":"IBGE, Censo Demográfico 2022, Localidades Quilombolas, arquivo de 10/07/2024","url_fonte":"https://geoftp.ibge.gov.br/organizacao_do_territorio/estrutura_territorial/localidades/localidades_quilombolas_2022/"},"geometry":{"coordinates":[-56.0947691032,-20.7628235831],"type":"Point"}},{"type":"Feature","properties":{"CD_UF":50,"NM_UF":"MATO GROSSO DO SUL","SG_UF":"MS","CD_MUNIC":5008008,"NM_MUNIC":"Terenos","IDCQ0001":429,"OCORRENCIA":1,"CD_LQ":5008008004291,"PREFIXO":"COMUNIDADE QUILOMBOLA","NM_CQ":"ARQUITERC (OS PRETOS)","CD_AGLOM":null,"NM_AGLOM":null,"CD_TQ":null,"NM_TQ":null,"P_FCP":"01420.001445/2005-41","Lat_d":-20.254317361,"Long_d":-54.9047951667,"fonte":"IBGE, Censo Demográfico 2022, Localidades Quilombolas, arquivo de 10/07/2024","url_fonte":"https://geoftp.ibge.gov.br/organizacao_do_territorio/estrutura_territorial/localidades/localidades_quilombolas_2022/"},"geometry":{"coordinates":[-54.9047951667,-20.254317361],"type":"Point"}},{"type":"Feature","properties":{"CD_UF":50,"NM_UF":"MATO GROSSO DO SUL","SG_UF":"MS","CD_MUNIC":5008008,"NM_MUNIC":"Terenos","IDCQ0001":429,"OCORRENCIA":2,"CD_LQ":5008008004292,"PREFIXO":"COMUNIDADE QUILOMBOLA","NM_CQ":"ARQUITERC (OS PRETOS)","CD_AGLOM":null,"NM_AGLOM":null,"CD_TQ":null,"NM_TQ":null,"P_FCP":"01420.001445/2005-41","Lat_d":-20.3073531527,"Long_d":-54.9260161673,"fonte":"IBGE, Censo Demográfico 2022, Localidades Quilombolas, arquivo de 10/07/2024","url_fonte":"https://geoftp.ibge.gov.br/organizacao_do_territorio/estrutura_territorial/localidades/localidades_quilombolas_2022/"},"geometry":{"coordinates":[-54.9260161673,-20.3073531527],"type":"Point"}},{"type":"Feature","properties":{"CD_UF":50,"NM_UF":"MATO GROSSO DO SUL","SG_UF":"MS","CD_MUNIC":5005806,"NM_MUNIC":"Nioaque","IDCQ0001":1168,"OCORRENCIA":1,"CD_LQ":5005806011681,"PREFIXO":"COMUNIDADE QUILOMBOLA","NM_CQ":"BULHOES","CD_AGLOM":null,"NM_AGLOM":null,"CD_TQ":null,"NM_TQ":null,"P_FCP":"01420.005327/2011-51","Lat_d":-21.1622447082,"Long_d":-55.8082934015,"fonte":"IBGE, Censo Demográfico 2022, Localidades Quilombolas, arquivo de 10/07/2024","url_fonte":"https://geoftp.ibge.gov.br/organizacao_do_territorio/estrutura_territorial/localidades/localidades_quilombolas_2022/"},"geometry":{"coordinates":[-55.8082934015,-21.1622447082],"type":"Point"}},{"type":"Feature","properties":{"CD_UF":50,"NM_UF":"MATO GROSSO DO SUL","SG_UF":"MS","CD_MUNIC":5003207,"NM_MUNIC":"Corumbá","IDCQ0001":1505,"OCORRENCIA":1,"CD_LQ":5003207015051,"PREFIXO":"COMUNIDADE QUILOMBOLA","NM_CQ":"CAMPOS CORREIA","CD_AGLOM":null,"NM_AGLOM":null,"CD_TQ":null,"NM_TQ":null,"P_FCP":"01420.010015/2012-40","Lat_d":-18.997602361,"Long_d":-57.6431464737,"fonte":"IBGE, Censo Demográfico 2022, Localidades Quilombolas, arquivo de 10/07/2024","url_fonte":"https://geoftp.ibge.gov.br/organizacao_do_territorio/estrutura_territorial/localidades/localidades_quilombolas_2022/"},"geometry":{"coordinates":[-57.6431464737,-18.997602361],"type":"Point"}},{"type":"Feature","properties":{"CD_UF":50,"NM_UF":"MATO GROSSO DO SUL","SG_UF":"MS","CD_MUNIC":5003702,"NM_MUNIC":"Dourados","IDCQ0001":2293,"OCORRENCIA":1,"CD_LQ":5003702022931,"PREFIXO":"COMUNIDADE QUILOMBOLA","NM_CQ":"DEZIDEIRIO FELIPE DE OLIVEIRA E PICADINHA","CD_AGLOM":null,"NM_AGLOM":null,"CD_TQ":null,"NM_TQ":null,"P_FCP":"01420.000491/2005-23","Lat_d":-22.1633848889999,"Long_d":-54.978684528,"fonte":"IBGE, Censo Demográfico 2022, Localidades Quilombolas, arquivo de 10/07/2024","url_fonte":"https://geoftp.ibge.gov.br/organizacao_do_territorio/estrutura_territorial/localidades/localidades_quilombolas_2022/"},"geometry":{"coordinates":[-54.978684528,-22.1633848889999],"type":"Point"}},{"type":"Feature","properties":{"CD_UF":50,"NM_UF":"MATO GROSSO DO SUL","SG_UF":"MS","CD_MUNIC":5007935,"NM_MUNIC":"Sonora","IDCQ0001":2490,"OCORRENCIA":1,"CD_LQ":5007935024901,"PREFIXO":"COMUNIDADE QUILOMBOLA","NM_CQ":"FAMÍLIA BISPO","CD_AGLOM":null,"NM_AGLOM":null,"CD_TQ":null,"NM_TQ":null,"P_FCP":"01420.001442/2005-16","Lat_d":-17.621195944,"Long_d":-54.9650356939999,"fonte":"IBGE, Censo Demográfico 2022, Localidades Quilombolas, arquivo de 10/07/2024","url_fonte":"https://geoftp.ibge.gov.br/organizacao_do_territorio/estrutura_territorial/localidades/localidades_quilombolas_2022/"},"geometry":{"coordinates":[-54.9650356939999,-17.621195944],"type":"Point"}},{"type":"Feature","properties":{"CD_UF":50,"NM_UF":"MATO GROSSO DO SUL","SG_UF":"MS","CD_MUNIC":5007208,"NM_MUNIC":"Rio Brilhante","IDCQ0001":2495,"OCORRENCIA":2,"CD_LQ":5007208024952,"PREFIXO":"COMUNIDADE QUILOMBOLA","NM_CQ":"FAMÍLIA JARCEM","CD_AGLOM":null,"NM_AGLOM":null,"CD_TQ":null,"NM_TQ":null,"P_FCP":"01420.000122/2007-01","Lat_d":-21.8098949721,"Long_d":-54.533308191,"fonte":"IBGE, Censo Demográfico 2022, Localidades Quilombolas, arquivo de 10/07/2024","url_fonte":"https://geoftp.ibge.gov.br/organizacao_do_territorio/estrutura_territorial/localidades/localidades_quilombolas_2022/"},"geometry":{"coordinates":[-54.533308191,-21.8098949721],"type":"Point"}},{"type":"Feature","properties":{"CD_UF":50,"NM_UF":"MATO GROSSO DO SUL","SG_UF":"MS","CD_MUNIC":5001102,"NM_MUNIC":"Aquidauana","IDCQ0001":2742,"OCORRENCIA":1,"CD_LQ":5001102027421,"PREFIXO":"COMUNIDADE QUILOMBOLA","NM_CQ":"FURNAS DOS BAIANOS 1","CD_AGLOM":null,"NM_AGLOM":null,"CD_TQ":null,"NM_TQ":null,"P_FCP":"01420.001415/2006-16","Lat_d":-20.4705158332,"Long_d":-55.5666874956,"fonte":"IBGE, Censo Demográfico 2022, Localidades Quilombolas, arquivo de 10/07/2024","url_fonte":"https://geoftp.ibge.gov.br/organizacao_do_territorio/estrutura_territorial/localidades/localidades_quilombolas_2022/"},"geometry":{"coordinates":[-55.5666874956,-20.4705158332],"type":"Point"}},{"type":"Feature","properties":{"CD_UF":50,"NM_UF":"MATO GROSSO DO SUL","SG_UF":"MS","CD_MUNIC":5003207,"NM_MUNIC":"Corumbá","IDCQ0001":3882,"OCORRENCIA":1,"CD_LQ":5003207038821,"PREFIXO":"COMUNIDADE QUILOMBOLA","NM_CQ":"MARIA THEODORA GONÇALVES DE PAULA","CD_AGLOM":null,"NM_AGLOM":null,"CD_TQ":null,"NM_TQ":null,"P_FCP":"01420.015816/2011-11","Lat_d":-19.0170451665,"Long_d":-57.655253761,"fonte":"IBGE, Censo Demográfico 2022, Localidades Quilombolas, arquivo de 10/07/2024","url_fonte":"https://geoftp.ibge.gov.br/organizacao_do_territorio/estrutura_territorial/localidades/localidades_quilombolas_2022/"},"geometry":{"coordinates":[-57.655253761,-19.0170451665],"type":"Point"}},{"type":"Feature","properties":{"CD_UF":50,"NM_UF":"MATO GROSSO DO SUL","SG_UF":"MS","CD_MUNIC":5007307,"NM_MUNIC":"Rio Negro","IDCQ0001":4576,"OCORRENCIA":1,"CD_LQ":5007307045761,"PREFIXO":"COMUNIDADE QUILOMBOLA","NM_CQ":"OUROLANDIA","CD_AGLOM":2.0,"NM_AGLOM":"COMUNIDADE QUILOMBOLA OUROLÂNDIA","CD_TQ":null,"NM_TQ":null,"P_FCP":"01420.001448/2005-85","Lat_d":-19.4303509999,"Long_d":-54.9556230814,"fonte":"IBGE, Censo Demográfico 2022, Localidades Quilombolas, arquivo de 10/07/2024","url_fonte":"https://geoftp.ibge.gov.br/organizacao_do_territorio/estrutura_territorial/localidades/localidades_quilombolas_2022/"},"geometry":{"coordinates":[-54.9556230814,-19.4303509999],"type":"Point"}},{"type":"Feature","properties":{"CD_UF":50,"NM_UF":"MATO GROSSO DO SUL","SG_UF":"MS","CD_MUNIC":5006408,"NM_MUNIC":"Pedro Gomes","IDCQ0001":5355,"OCORRENCIA":1,"CD_LQ":5006408053551,"PREFIXO":"COMUNIDADE QUILOMBOLA","NM_CQ":"QUINTINO","CD_AGLOM":2.0,"NM_AGLOM":"COMUNIDADE QUILOMBOLA FAMÍLIA QUINTINO","CD_TQ":null,"NM_TQ":null,"P_FCP":"01420.001444/2005-05","Lat_d":-18.0785774443,"Long_d":-54.512554358,"fonte":"IBGE, Censo Demográfico 2022, Localidades Quilombolas, arquivo de 10/07/2024","url_fonte":"https://geoftp.ibge.gov.br/organizacao_do_territorio/estrutura_territorial/localidades/localidades_quilombolas_2022/"},"geometry":{"coordinates":[-54.512554358,-18.0785774443],"type":"Point"}},{"type":"Feature","properties":{"CD_UF":50,"NM_UF":"MATO GROSSO DO SUL","SG_UF":"MS","CD_MUNIC":5003207,"NM_MUNIC":"Corumbá","IDCQ0001":5556,"OCORRENCIA":1,"CD_LQ":5003207055561,"PREFIXO":"COMUNIDADE QUILOMBOLA","NM_CQ":"RIBEIRINHA FAMÍLIA OSORIO","CD_AGLOM":null,"NM_AGLOM":null,"CD_TQ":null,"NM_TQ":null,"P_FCP":"01420.000991/2010-22","Lat_d":-18.9968352082,"Long_d":-57.6433975412,"fonte":"IBGE, Censo Demográfico 2022, Localidades Quilombolas, arquivo de 10/07/2024","url_fonte":"https://geoftp.ibge.gov.br/organizacao_do_territorio/estrutura_territorial/localidades/localidades_quilombolas_2022/"},"geometry":{"coordinates":[-57.6433975412,-18.9968352082],"type":"Point"}},{"type":"Feature","properties":{"CD_UF":50,"NM_UF":"MATO GROSSO DO SUL","SG_UF":"MS","CD_MUNIC":5005806,"NM_MUNIC":"Nioaque","IDCQ0001":5560,"OCORRENCIA":1,"CD_LQ":5005806055601,"PREFIXO":"COMUNIDADE QUILOMBOLA","NM_CQ":"RIBEIRINHOS FAMÍLIA ROMANO MARTINS DA CONCEIÇÃO","CD_AGLOM":null,"NM_AGLOM":null,"CD_TQ":null,"NM_TQ":null,"P_FCP":"01420.002473/2011-24","Lat_d":-21.1740568471,"Long_d":-55.8394915525,"fonte":"IBGE, Censo Demográfico 2022, Localidades Quilombolas, arquivo de 10/07/2024","url_fonte":"https://geoftp.ibge.gov.br/organizacao_do_territorio/estrutura_territorial/localidades/localidades_quilombolas_2022/"},"geometry":{"coordinates":[-55.8394915525,-21.1740568471],"type":"Point"}},{"type":"Feature","properties":{"CD_UF":50,"NM_UF":"MATO GROSSO DO SUL","SG_UF":"MS","CD_MUNIC":5003900,"NM_MUNIC":"Figueirão","IDCQ0001":6003,"OCORRENCIA":1,"CD_LQ":5003900060031,"PREFIXO":"COMUNIDADE QUILOMBOLA","NM_CQ":"SANTA TEREZA","CD_AGLOM":null,"NM_AGLOM":null,"CD_TQ":null,"NM_TQ":null,"P_FCP":"01420.001443/2005-52","Lat_d":-18.9865775414,"Long_d":-53.7324820785,"fonte":"IBGE, Censo Demográfico 2022, Localidades Quilombolas, arquivo de 10/07/2024","url_fonte":"https://geoftp.ibge.gov.br/organizacao_do_territorio/estrutura_territorial/localidades/localidades_quilombolas_2022/"},"geometry":{"coordinates":[-53.7324820785,-18.9865775414],"type":"Point"}},{"type":"Feature","properties":{"CD_UF":50,"NM_UF":"MATO GROSSO DO SUL","SG_UF":"MS","CD_MUNIC":5002704,"NM_MUNIC":"Campo Grande","IDCQ0001":6303,"OCORRENCIA":1,"CD_LQ":5002704063031,"PREFIXO":"COMUNIDADE QUILOMBOLA","NM_CQ":"SÃO JOÃO BATISTA","CD_AGLOM":14.0,"NM_AGLOM":"COMUNIDADE QUILOMBOLA SÃO JOÃO BATISTA","CD_TQ":null,"NM_TQ":null,"P_FCP":"01420.001978/2005-23","Lat_d":-20.494691236,"Long_d":-54.6309156389,"fonte":"IBGE, Censo Demográfico 2022, Localidades Quilombolas, arquivo de 10/07/2024","url_fonte":"https://geoftp.ibge.gov.br/organizacao_do_territorio/estrutura_territorial/localidades/localidades_quilombolas_2022/"},"geometry":{"coordinates":[-54.6309156389,-20.494691236],"type":"Point"}}],"atlas_metadata":{"derived_from":"localidades_quilombolas_ibge","rule":"CD_TQ sem valor informado"}}