{"type":"FeatureCollection","features":[{"type":"Feature","properties":{"id_proposto":"GEO-PROP-001","numero_proposta":"1","nome":"Baía das Garças","municipio":"Porto Murtinho","latitude":-21.051944444444445,"longitude":-56.87694444444445,"coordenada_original_lat":"21 03 07 S","coordenada_original_lon":"56 52 37 W","interesse_principal":"Estratigrafia e contato geológico","sintese":"Contato entre gnaisses do Complexo Rio Apa e arenitos da Formação Cerradinho. Também possui valor paisagístico e relação com a aldeia São João.","status":"Proposto ou indicado. Não integra a camada atual do GEOSSIT em Mato Grosso do Sul.","nivel_validacao":"Requer avaliação ou reavaliação científica atual","estado_mapeamento":"mapeado","confianca_coordenada":"publicada","observacao":"","fonte_tipo":"Proposta histórica SGB CPRM","fonte_referencia":"Geoparque Bodoquena Pantanal MS proposta","fonte_url":"https://rigeo.sgb.gov.br/handle/doc/17164","uso_itinerario":"Avaliar valor científico, educativo, turístico, acesso, proteção e risco de degradação","data_compilacao":"2026-08-05","natureza_registro":"evidencia_documentada","localizacao_status":"localizada","source_id":"SRC-18d415dbe3e8609b","validacao_documental":"realizada","validacao_espacial":"parcial","validacao_institucional":"parcial","validacao_campo":"nao_realizada","validacao_comunitaria":"nao_realizada","validation_next":"dados_insuficientes","publicacao_status":"publico","evl_schema_version":"1.0","trace_id":"TRC-EVL-5b81e1464a76c92ec7a1cd1c"},"geometry":{"coordinates":[-56.87694444444445,-21.051944444444445],"type":"Point"}},{"type":"Feature","properties":{"id_proposto":"GEO-PROP-002","numero_proposta":"2","nome":"Morraria do Puga","municipio":"Corumbá","latitude":-19.622222222222224,"longitude":-57.52777777777778,"coordenada_original_lat":"19 37 20 S","coordenada_original_lon":"57 31 40 W","interesse_principal":"Sedimentologia glacial","sintese":"Exposições da Formação Puga com diamictitos e associação entre depósitos glaciogênicos e rochas carbonáticas.","status":"Proposto ou indicado. Não integra a camada atual do GEOSSIT em Mato Grosso do Sul.","nivel_validacao":"Requer avaliação ou reavaliação científica atual","estado_mapeamento":"mapeado","confianca_coordenada":"publicada","observacao":"","fonte_tipo":"Proposta histórica SGB CPRM","fonte_referencia":"Geoparque Bodoquena Pantanal MS proposta","fonte_url":"https://rigeo.sgb.gov.br/handle/doc/17164","uso_itinerario":"Avaliar valor científico, educativo, turístico, acesso, proteção e risco de degradação","data_compilacao":"2026-08-05","natureza_registro":"evidencia_documentada","localizacao_status":"localizada","source_id":"SRC-18d415dbe3e8609b","validacao_documental":"realizada","validacao_espacial":"parcial","validacao_institucional":"parcial","validacao_campo":"nao_realizada","validacao_comunitaria":"nao_realizada","validation_next":"dados_insuficientes","publicacao_status":"publico","evl_schema_version":"1.0","trace_id":"TRC-EVL-2c9d4d47eda43a0d06314490"},"geometry":{"coordinates":[-57.52777777777778,-19.622222222222224],"type":"Point"}},{"type":"Feature","properties":{"id_proposto":"GEO-PROP-003","numero_proposta":"3","nome":"Anticlinal Anhumas","municipio":"Bonito","latitude":-21.15,"longitude":-56.6,"coordenada_original_lat":"21 08 60 S","coordenada_original_lon":"56 36 00 W","interesse_principal":"Geologia estrutural e sedimentologia glacial","sintese":"Diamictitos neoproterozoicos da Formação Puga no núcleo de uma anticlinal.","status":"Proposto ou indicado. Não integra a camada atual do GEOSSIT em Mato Grosso do Sul.","nivel_validacao":"Requer avaliação ou reavaliação científica atual","estado_mapeamento":"mapeado","confianca_coordenada":"publicada_normalizada","observacao":"Os segundos iguais a 60 foram normalizados para o minuto seguinte.","fonte_tipo":"Proposta histórica SGB CPRM","fonte_referencia":"Geoparque Bodoquena Pantanal MS proposta","fonte_url":"https://rigeo.sgb.gov.br/handle/doc/17164","uso_itinerario":"Avaliar valor científico, educativo, turístico, acesso, proteção e risco de degradação","data_compilacao":"2026-08-05","natureza_registro":"evidencia_documentada","localizacao_status":"localizada","source_id":"SRC-18d415dbe3e8609b","validacao_documental":"realizada","validacao_espacial":"parcial","validacao_institucional":"parcial","validacao_campo":"nao_realizada","validacao_comunitaria":"nao_realizada","validation_next":"dados_insuficientes","publicacao_status":"publico","evl_schema_version":"1.0","trace_id":"TRC-EVL-14289e10e18b32cf9203c1af"},"geometry":{"coordinates":[-56.6,-21.15],"type":"Point"}},{"type":"Feature","properties":{"id_proposto":"GEO-PROP-004","numero_proposta":"4","nome":"Mina Urucum Vale","municipio":"Corumbá","latitude":-19.179722222222225,"longitude":-57.506388888888885,"coordenada_original_lat":"19 10 47 S","coordenada_original_lon":"57 30 23 W","interesse_principal":"Geologia econômica e sedimentologia","sintese":"Formações ferríferas bandadas do Maciço do Urucum e paisagem de grande expressão geomorfológica.","status":"Proposto ou indicado. Não integra a camada atual do GEOSSIT em Mato Grosso do Sul.","nivel_validacao":"Requer avaliação ou reavaliação científica atual","estado_mapeamento":"mapeado","confianca_coordenada":"publicada","observacao":"Pode apresentar sobreposição temática com o registro atual Formação Urucum.","fonte_tipo":"Proposta histórica SGB CPRM","fonte_referencia":"Geoparque Bodoquena Pantanal MS proposta","fonte_url":"https://rigeo.sgb.gov.br/handle/doc/17164","uso_itinerario":"Avaliar valor científico, educativo, turístico, acesso, proteção e risco de degradação","data_compilacao":"2026-08-05","natureza_registro":"evidencia_documentada","localizacao_status":"localizada","source_id":"SRC-18d415dbe3e8609b","validacao_documental":"realizada","validacao_espacial":"parcial","validacao_institucional":"parcial","validacao_campo":"nao_realizada","validacao_comunitaria":"nao_realizada","validation_next":"dados_insuficientes","publicacao_status":"publico","evl_schema_version":"1.0","trace_id":"TRC-EVL-ae332571e182a0d6043b7f3c"},"geometry":{"coordinates":[-57.506388888888885,-19.179722222222225],"type":"Point"}},{"type":"Feature","properties":{"id_proposto":"GEO-PROP-005","numero_proposta":"5","nome":"Mina dos Belgas","municipio":"Corumbá","latitude":-19.098055555555554,"longitude":-57.496944444444445,"coordenada_original_lat":"19 05 53 S","coordenada_original_lon":"57 29 49 W","interesse_principal":"História da mineração e geologia econômica","sintese":"Antiga lavra do distrito ferro manganesífero de Urucum e testemunho histórico da mineração regional.","status":"Proposto ou indicado. Não integra a camada atual do GEOSSIT em Mato Grosso do Sul.","nivel_validacao":"Requer avaliação ou reavaliação científica atual","estado_mapeamento":"mapeado","confianca_coordenada":"publicada","observacao":"","fonte_tipo":"Proposta histórica SGB CPRM","fonte_referencia":"Geoparque Bodoquena Pantanal MS proposta","fonte_url":"https://rigeo.sgb.gov.br/handle/doc/17164","uso_itinerario":"Avaliar valor científico, educativo, turístico, acesso, proteção e risco de degradação","data_compilacao":"2026-08-05","natureza_registro":"evidencia_documentada","localizacao_status":"localizada","source_id":"SRC-18d415dbe3e8609b","validacao_documental":"realizada","validacao_espacial":"parcial","validacao_institucional":"parcial","validacao_campo":"nao_realizada","validacao_comunitaria":"nao_realizada","validation_next":"dados_insuficientes","publicacao_status":"publico","evl_schema_version":"1.0","trace_id":"TRC-EVL-5e33235f16550ed809a37662"},"geometry":{"coordinates":[-57.496944444444445,-19.098055555555554],"type":"Point"}},{"type":"Feature","properties":{"id_proposto":"GEO-PROP-006","numero_proposta":"6","nome":"Formação Cerradinho","municipio":"Porto Murtinho e Bonito","latitude":-21.051944444444445,"longitude":-56.87694444444445,"coordenada_original_lat":"21 03 07 S","coordenada_original_lon":"56 52 37 W","interesse_principal":"Sedimentologia e paleogeografia","sintese":"Registro de sedimentação de planície de maré e da mudança paleogeográfica relacionada à evolução do Grupo Corumbá.","status":"Proposto ou indicado. Não integra a camada atual do GEOSSIT em Mato Grosso do Sul.","nivel_validacao":"Requer avaliação ou reavaliação científica atual","estado_mapeamento":"mapeado","confianca_coordenada":"publicada","observacao":"","fonte_tipo":"Proposta histórica SGB CPRM","fonte_referencia":"Geoparque Bodoquena Pantanal MS proposta","fonte_url":"https://rigeo.sgb.gov.br/handle/doc/17164","uso_itinerario":"Avaliar valor científico, educativo, turístico, acesso, proteção e risco de degradação","data_compilacao":"2026-08-05","natureza_registro":"evidencia_documentada","localizacao_status":"localizada","source_id":"SRC-18d415dbe3e8609b","validacao_documental":"realizada","validacao_espacial":"parcial","validacao_institucional":"parcial","validacao_campo":"nao_realizada","validacao_comunitaria":"nao_realizada","validation_next":"dados_insuficientes","publicacao_status":"publico","evl_schema_version":"1.0","trace_id":"TRC-EVL-d1903e025ea609e9c05bcac9"},"geometry":{"coordinates":[-56.87694444444445,-21.051944444444445],"type":"Point"}},{"type":"Feature","properties":{"id_proposto":"GEO-PROP-008","numero_proposta":"8","nome":"Estromatólito de Porto Morrinho","municipio":"Corumbá","latitude":-19.50638888888889,"longitude":-57.43111111111111,"coordenada_original_lat":"19 30 23 S","coordenada_original_lon":"57 25 52 W","interesse_principal":"Paleontologia e sedimentologia","sintese":"Calcários dolomíticos da Formação Bocaina com estruturas estromatolíticas, marcas de carga e de ondas.","status":"Proposto ou indicado. Não integra a camada atual do GEOSSIT em Mato Grosso do Sul.","nivel_validacao":"Requer avaliação ou reavaliação científica atual","estado_mapeamento":"mapeado","confianca_coordenada":"publicada","observacao":"","fonte_tipo":"Proposta histórica SGB CPRM","fonte_referencia":"Geoparque Bodoquena Pantanal MS proposta","fonte_url":"https://rigeo.sgb.gov.br/handle/doc/17164","uso_itinerario":"Avaliar valor científico, educativo, turístico, acesso, proteção e risco de degradação","data_compilacao":"2026-08-05","natureza_registro":"evidencia_documentada","localizacao_status":"localizada","source_id":"SRC-18d415dbe3e8609b","validacao_documental":"realizada","validacao_espacial":"parcial","validacao_institucional":"parcial","validacao_campo":"nao_realizada","validacao_comunitaria":"nao_realizada","validation_next":"dados_insuficientes","publicacao_status":"publico","evl_schema_version":"1.0","trace_id":"TRC-EVL-1dfe6ff7ccfa144c606adbc4"},"geometry":{"coordinates":[-57.43111111111111,-19.50638888888889],"type":"Point"}},{"type":"Feature","properties":{"id_proposto":"GEO-PROP-009","numero_proposta":"9","nome":"Estromatólito e Mirante Morraria do Sul","municipio":"Bodoquena","latitude":-20.54277777777778,"longitude":-56.89527777777778,"coordenada_original_lat":"20 32 34 S","coordenada_original_lon":"56 53 43 W","interesse_principal":"Paleontologia e paisagem","sintese":"Estromatólitos da Formação Bocaina e mirante da borda oeste da Serra da Bodoquena.","status":"Proposto ou indicado. Não integra a camada atual do GEOSSIT em Mato Grosso do Sul.","nivel_validacao":"Requer avaliação ou reavaliação científica atual","estado_mapeamento":"mapeado","confianca_coordenada":"publicada","observacao":"","fonte_tipo":"Proposta histórica SGB CPRM","fonte_referencia":"Geoparque Bodoquena Pantanal MS proposta","fonte_url":"https://rigeo.sgb.gov.br/handle/doc/17164","uso_itinerario":"Avaliar valor científico, educativo, turístico, acesso, proteção e risco de degradação","data_compilacao":"2026-08-05","natureza_registro":"evidencia_documentada","localizacao_status":"localizada","source_id":"SRC-18d415dbe3e8609b","validacao_documental":"realizada","validacao_espacial":"parcial","validacao_institucional":"parcial","validacao_campo":"nao_realizada","validacao_comunitaria":"nao_realizada","validation_next":"dados_insuficientes","publicacao_status":"publico","evl_schema_version":"1.0","trace_id":"TRC-EVL-26514e345600745fcb591885"},"geometry":{"coordinates":[-56.89527777777778,-20.54277777777778],"type":"Point"}},{"type":"Feature","properties":{"id_proposto":"GEO-PROP-010","numero_proposta":"10","nome":"Pedreira Saladeiro e Porto Sobramil","municipio":"Corumbá","latitude":-18.999166666666667,"longitude":-57.61972222222222,"coordenada_original_lat":"18 59 57 S","coordenada_original_lon":"57 37 11 W","interesse_principal":"Paleontologia e estratigrafia","sintese":"Calcários e folhelhos da Formação Tamengo com fósseis de Cloudina e Corumbella werneri.","status":"Proposto ou indicado. Não integra a camada atual do GEOSSIT em Mato Grosso do Sul.","nivel_validacao":"Requer avaliação ou reavaliação científica atual","estado_mapeamento":"mapeado","confianca_coordenada":"publicada","observacao":"Pode apresentar proximidade ou relação com registros atuais da área urbana de Corumbá.","fonte_tipo":"Proposta histórica SGB CPRM","fonte_referencia":"Geoparque Bodoquena Pantanal MS proposta","fonte_url":"https://rigeo.sgb.gov.br/handle/doc/17164","uso_itinerario":"Avaliar valor científico, educativo, turístico, acesso, proteção e risco de degradação","data_compilacao":"2026-08-05","natureza_registro":"evidencia_documentada","localizacao_status":"localizada","source_id":"SRC-18d415dbe3e8609b","validacao_documental":"realizada","validacao_espacial":"parcial","validacao_institucional":"parcial","validacao_campo":"nao_realizada","validacao_comunitaria":"nao_realizada","validation_next":"dados_insuficientes","publicacao_status":"publico","evl_schema_version":"1.0","trace_id":"TRC-EVL-179cddef4e0a999e429e29a9"},"geometry":{"coordinates":[-57.61972222222222,-18.999166666666667],"type":"Point"}},{"type":"Feature","properties":{"id_proposto":"GEO-PROP-012","numero_proposta":"12","nome":"Gruta Nossa Senhora Aparecida","municipio":"Bonito","latitude":-21.090555555555554,"longitude":-56.57416666666667,"coordenada_original_lat":"21 05 26 S","coordenada_original_lon":"56 34 27 W","interesse_principal":"Espeleologia","sintese":"Cavidade seca em calcários da Serra da Bodoquena situada na área do Monumento Natural Gruta do Lago Azul.","status":"Proposto ou indicado. Não integra a camada atual do GEOSSIT em Mato Grosso do Sul.","nivel_validacao":"Requer avaliação ou reavaliação científica atual","estado_mapeamento":"mapeado","confianca_coordenada":"publicada","observacao":"","fonte_tipo":"Proposta histórica SGB CPRM","fonte_referencia":"Geoparque Bodoquena Pantanal MS proposta","fonte_url":"https://rigeo.sgb.gov.br/handle/doc/17164","uso_itinerario":"Avaliar valor científico, educativo, turístico, acesso, proteção e risco de degradação","data_compilacao":"2026-08-05","natureza_registro":"evidencia_documentada","localizacao_status":"localizada","source_id":"SRC-18d415dbe3e8609b","validacao_documental":"realizada","validacao_espacial":"parcial","validacao_institucional":"parcial","validacao_campo":"nao_realizada","validacao_comunitaria":"nao_realizada","validation_next":"dados_insuficientes","publicacao_status":"publico","evl_schema_version":"1.0","trace_id":"TRC-EVL-b8a3b2d1587fdfda92c7b960"},"geometry":{"coordinates":[-56.57416666666667,-21.090555555555554],"type":"Point"}},{"type":"Feature","properties":{"id_proposto":"GEO-PROP-013","numero_proposta":"13","nome":"Gruta São Miguel","municipio":"Bonito","latitude":-21.106944444444444,"longitude":-56.58111111111111,"coordenada_original_lat":"21 06 25 S","coordenada_original_lon":"56 34 52 W","interesse_principal":"Espeleologia e geoturismo","sintese":"Gruta seca ornamentada por grande variedade de espeleotemas e com visitação turística.","status":"Proposto ou indicado. Não integra a camada atual do GEOSSIT em Mato Grosso do Sul.","nivel_validacao":"Requer avaliação ou reavaliação científica atual","estado_mapeamento":"mapeado","confianca_coordenada":"publicada","observacao":"","fonte_tipo":"Proposta histórica SGB CPRM","fonte_referencia":"Geoparque Bodoquena Pantanal MS proposta","fonte_url":"https://rigeo.sgb.gov.br/handle/doc/17164","uso_itinerario":"Avaliar valor científico, educativo, turístico, acesso, proteção e risco de degradação","data_compilacao":"2026-08-05","natureza_registro":"evidencia_documentada","localizacao_status":"localizada","source_id":"SRC-18d415dbe3e8609b","validacao_documental":"realizada","validacao_espacial":"parcial","validacao_institucional":"parcial","validacao_campo":"nao_realizada","validacao_comunitaria":"nao_realizada","validation_next":"dados_insuficientes","publicacao_status":"publico","evl_schema_version":"1.0","trace_id":"TRC-EVL-2fbdb51f9dea7e8866fedd32"},"geometry":{"coordinates":[-56.58111111111111,-21.106944444444444],"type":"Point"}},{"type":"Feature","properties":{"id_proposto":"GEO-PROP-014","numero_proposta":"14","nome":"Abismo Anhumas","municipio":"Bonito","latitude":-21.15,"longitude":-56.6,"coordenada_original_lat":"21 08 60 S","coordenada_original_lon":"56 36 00 W","interesse_principal":"Espeleologia e hidrogeologia","sintese":"Cavidade vertical com grande salão, lago subterrâneo e cones calcários submersos.","status":"Proposto ou indicado. Não integra a camada atual do GEOSSIT em Mato Grosso do Sul.","nivel_validacao":"Requer avaliação ou reavaliação científica atual","estado_mapeamento":"mapeado","confianca_coordenada":"publicada_normalizada","observacao":"Os segundos iguais a 60 foram normalizados para o minuto seguinte.","fonte_tipo":"Proposta histórica SGB CPRM","fonte_referencia":"Geoparque Bodoquena Pantanal MS proposta","fonte_url":"https://rigeo.sgb.gov.br/handle/doc/17164","uso_itinerario":"Avaliar valor científico, educativo, turístico, acesso, proteção e risco de degradação","data_compilacao":"2026-08-05","natureza_registro":"evidencia_documentada","localizacao_status":"localizada","source_id":"SRC-18d415dbe3e8609b","validacao_documental":"realizada","validacao_espacial":"parcial","validacao_institucional":"parcial","validacao_campo":"nao_realizada","validacao_comunitaria":"nao_realizada","validation_next":"dados_insuficientes","publicacao_status":"publico","evl_schema_version":"1.0","trace_id":"TRC-EVL-cbd9d33da9536d6d30db5da5"},"geometry":{"coordinates":[-56.6,-21.15],"type":"Point"}},{"type":"Feature","properties":{"id_proposto":"GEO-PROP-015","numero_proposta":"15","nome":"Grutas do Mimoso","municipio":"Bonito e Bodoquena","latitude":-20.901666666666664,"longitude":-56.55833333333333,"coordenada_original_lat":"20 54 06 S","coordenada_original_lon":"56 33 30 W","interesse_principal":"Espeleologia","sintese":"Cavidade com lago profundo e cones calcários de grandes dimensões.","status":"Proposto ou indicado. Não integra a camada atual do GEOSSIT em Mato Grosso do Sul.","nivel_validacao":"Requer avaliação ou reavaliação científica atual","estado_mapeamento":"mapeado","confianca_coordenada":"publicada","observacao":"","fonte_tipo":"Proposta histórica SGB CPRM","fonte_referencia":"Geoparque Bodoquena Pantanal MS proposta","fonte_url":"https://rigeo.sgb.gov.br/handle/doc/17164","uso_itinerario":"Avaliar valor científico, educativo, turístico, acesso, proteção e risco de degradação","data_compilacao":"2026-08-05","natureza_registro":"evidencia_documentada","localizacao_status":"localizada","source_id":"SRC-18d415dbe3e8609b","validacao_documental":"realizada","validacao_espacial":"parcial","validacao_institucional":"parcial","validacao_campo":"nao_realizada","validacao_comunitaria":"nao_realizada","validation_next":"dados_insuficientes","publicacao_status":"publico","evl_schema_version":"1.0","trace_id":"TRC-EVL-7ae0cf1213b13f996c3c13a1"},"geometry":{"coordinates":[-56.55833333333333,-20.901666666666664],"type":"Point"}},{"type":"Feature","properties":{"id_proposto":"GEO-PROP-016","numero_proposta":"16","nome":"Lagoa Misteriosa","municipio":"Jardim","latitude":-21.458055555555553,"longitude":-56.452222222222225,"coordenada_original_lat":"21 27 29 S","coordenada_original_lon":"56 27 08 W","interesse_principal":"Geomorfologia cárstica e hidrogeologia","sintese":"Grande dolina com lago profundo e acesso a cavidade subaquática.","status":"Proposto ou indicado. Não integra a camada atual do GEOSSIT em Mato Grosso do Sul.","nivel_validacao":"Requer avaliação ou reavaliação científica atual","estado_mapeamento":"mapeado","confianca_coordenada":"publicada","observacao":"","fonte_tipo":"Proposta histórica SGB CPRM","fonte_referencia":"Geoparque Bodoquena Pantanal MS proposta","fonte_url":"https://rigeo.sgb.gov.br/handle/doc/17164","uso_itinerario":"Avaliar valor científico, educativo, turístico, acesso, proteção e risco de degradação","data_compilacao":"2026-08-05","natureza_registro":"evidencia_documentada","localizacao_status":"localizada","source_id":"SRC-18d415dbe3e8609b","validacao_documental":"realizada","validacao_espacial":"parcial","validacao_institucional":"parcial","validacao_campo":"nao_realizada","validacao_comunitaria":"nao_realizada","validation_next":"dados_insuficientes","publicacao_status":"publico","evl_schema_version":"1.0","trace_id":"TRC-EVL-3dad2d56f388ac90c81cada0"},"geometry":{"coordinates":[-56.452222222222225,-21.458055555555553],"type":"Point"}},{"type":"Feature","properties":{"id_proposto":"GEO-PROP-017","numero_proposta":"17","nome":"Buraco das Araras","municipio":"Jardim","latitude":-21.48333333333333,"longitude":-56.4,"coordenada_original_lat":"21 28 60 S","coordenada_original_lon":"56 23 60 W","interesse_principal":"Geomorfologia cárstica e geoturismo","sintese":"Grande dolina a céu aberto desenvolvida sobre arenitos da Formação Aquidauana e calcários subjacentes.","status":"Proposto ou indicado. Não integra a camada atual do GEOSSIT em Mato Grosso do Sul.","nivel_validacao":"Requer avaliação ou reavaliação científica atual","estado_mapeamento":"mapeado","confianca_coordenada":"publicada_normalizada","observacao":"Os segundos iguais a 60 foram normalizados para o minuto seguinte.","fonte_tipo":"Proposta histórica SGB CPRM","fonte_referencia":"Geoparque Bodoquena Pantanal MS proposta","fonte_url":"https://rigeo.sgb.gov.br/handle/doc/17164","uso_itinerario":"Avaliar valor científico, educativo, turístico, acesso, proteção e risco de degradação","data_compilacao":"2026-08-05","natureza_registro":"evidencia_documentada","localizacao_status":"localizada","source_id":"SRC-18d415dbe3e8609b","validacao_documental":"realizada","validacao_espacial":"parcial","validacao_institucional":"parcial","validacao_campo":"nao_realizada","validacao_comunitaria":"nao_realizada","validation_next":"dados_insuficientes","publicacao_status":"publico","evl_schema_version":"1.0","trace_id":"TRC-EVL-429058d937d412281e82bd17"},"geometry":{"coordinates":[-56.4,-21.48333333333333],"type":"Point"}},{"type":"Feature","properties":{"id_proposto":"GEO-PROP-020","numero_proposta":"20","nome":"Cachoeira Boca da Onça e Cânion do Rio Salobra","municipio":"Bodoquena","latitude":-20.766944444444444,"longitude":-56.70611111111111,"coordenada_original_lat":"20 46 01 S","coordenada_original_lon":"56 42 22 W","interesse_principal":"Geomorfologia, tufas e paisagem","sintese":"Paredão calcário com cachoeira, tufas e cânion do rio Salobra.","status":"Proposto ou indicado. Não integra a camada atual do GEOSSIT em Mato Grosso do Sul.","nivel_validacao":"Requer avaliação ou reavaliação científica atual","estado_mapeamento":"mapeado","confianca_coordenada":"publicada","observacao":"","fonte_tipo":"Proposta histórica SGB CPRM","fonte_referencia":"Geoparque Bodoquena Pantanal MS proposta","fonte_url":"https://rigeo.sgb.gov.br/handle/doc/17164","uso_itinerario":"Avaliar valor científico, educativo, turístico, acesso, proteção e risco de degradação","data_compilacao":"2026-08-05","natureza_registro":"evidencia_documentada","localizacao_status":"localizada","source_id":"SRC-18d415dbe3e8609b","validacao_documental":"realizada","validacao_espacial":"parcial","validacao_institucional":"parcial","validacao_campo":"nao_realizada","validacao_comunitaria":"nao_realizada","validation_next":"dados_insuficientes","publicacao_status":"publico","evl_schema_version":"1.0","trace_id":"TRC-EVL-ec65a0c71bdaa34874b4f2e2"},"geometry":{"coordinates":[-56.70611111111111,-20.766944444444444],"type":"Point"}},{"type":"Feature","properties":{"id_proposto":"GEO-PROP-021","numero_proposta":"21","nome":"Nascentes do Rio Sucuri","municipio":"Bonito","latitude":-21.25,"longitude":-56.56666666666667,"coordenada_original_lat":"21 15 00 S","coordenada_original_lon":"56 34 00 W","interesse_principal":"Hidrogeologia e tufas calcárias","sintese":"Nascentes e curso de água cristalina com formação de tufas e elevada importância geoturística.","status":"Proposto ou indicado. Não integra a camada atual do GEOSSIT em Mato Grosso do Sul.","nivel_validacao":"Requer avaliação ou reavaliação científica atual","estado_mapeamento":"mapeado","confianca_coordenada":"publicada_interpretada","observacao":"A orientação sul e oeste foi interpretada a partir da localização e da grafia da fonte.","fonte_tipo":"Proposta histórica SGB CPRM","fonte_referencia":"Geoparque Bodoquena Pantanal MS proposta","fonte_url":"https://rigeo.sgb.gov.br/handle/doc/17164","uso_itinerario":"Avaliar valor científico, educativo, turístico, acesso, proteção e risco de degradação","data_compilacao":"2026-08-05","natureza_registro":"evidencia_documentada","localizacao_status":"localizada","source_id":"SRC-18d415dbe3e8609b","validacao_documental":"realizada","validacao_espacial":"parcial","validacao_institucional":"parcial","validacao_campo":"nao_realizada","validacao_comunitaria":"nao_realizada","validation_next":"dados_insuficientes","publicacao_status":"publico","evl_schema_version":"1.0","trace_id":"TRC-EVL-b4f37b3a52230bc1b3d3f5d5"},"geometry":{"coordinates":[-56.56666666666667,-21.25],"type":"Point"}},{"type":"Feature","properties":{"id_proposto":"GEO-PROP-022","numero_proposta":"22","nome":"Monumento Natural do Rio Formoso Ilha do Padre","municipio":"Bonito","latitude":-21.119722222222222,"longitude":-56.38805555555555,"coordenada_original_lat":"21 07 11 S","coordenada_original_lon":"56 23 17 W","interesse_principal":"Tufas calcárias e paleoclima","sintese":"Tufas com impressões de folhas fósseis, cachoeiras e piscinas naturais.","status":"Proposto ou indicado. Não integra a camada atual do GEOSSIT em Mato Grosso do Sul.","nivel_validacao":"Requer avaliação ou reavaliação científica atual","estado_mapeamento":"mapeado","confianca_coordenada":"publicada","observacao":"","fonte_tipo":"Proposta histórica SGB CPRM","fonte_referencia":"Geoparque Bodoquena Pantanal MS proposta","fonte_url":"https://rigeo.sgb.gov.br/handle/doc/17164","uso_itinerario":"Avaliar valor científico, educativo, turístico, acesso, proteção e risco de degradação","data_compilacao":"2026-08-05","natureza_registro":"evidencia_documentada","localizacao_status":"localizada","source_id":"SRC-18d415dbe3e8609b","validacao_documental":"realizada","validacao_espacial":"parcial","validacao_institucional":"parcial","validacao_campo":"nao_realizada","validacao_comunitaria":"nao_realizada","validation_next":"dados_insuficientes","publicacao_status":"publico","evl_schema_version":"1.0","trace_id":"TRC-EVL-1f3b6f88b4c0e4119a6258e1"},"geometry":{"coordinates":[-56.38805555555555,-21.119722222222222],"type":"Point"}},{"type":"Feature","properties":{"id_proposto":"GEO-PROP-023","numero_proposta":"23","nome":"Recanto Ecológico do Rio da Prata","municipio":"Jardim","latitude":-21.45,"longitude":-56.43333333333333,"coordenada_original_lat":"21 27 00 S","coordenada_original_lon":"56 25 60 W","interesse_principal":"Hidrogeologia, tufas e geoturismo","sintese":"Nascente do rio Olho d Água e formações de tufas calcárias em área de visitação.","status":"Proposto ou indicado. Não integra a camada atual do GEOSSIT em Mato Grosso do Sul.","nivel_validacao":"Requer avaliação ou reavaliação científica atual","estado_mapeamento":"mapeado","confianca_coordenada":"publicada_normalizada","observacao":"Os segundos iguais a 60 foram normalizados para o minuto seguinte.","fonte_tipo":"Proposta histórica SGB CPRM","fonte_referencia":"Geoparque Bodoquena Pantanal MS proposta","fonte_url":"https://rigeo.sgb.gov.br/handle/doc/17164","uso_itinerario":"Avaliar valor científico, educativo, turístico, acesso, proteção e risco de degradação","data_compilacao":"2026-08-05","natureza_registro":"evidencia_documentada","localizacao_status":"localizada","source_id":"SRC-18d415dbe3e8609b","validacao_documental":"realizada","validacao_espacial":"parcial","validacao_institucional":"parcial","validacao_campo":"nao_realizada","validacao_comunitaria":"nao_realizada","validation_next":"dados_insuficientes","publicacao_status":"publico","evl_schema_version":"1.0","trace_id":"TRC-EVL-65eeae28fda70869e11cb258"},"geometry":{"coordinates":[-56.43333333333333,-21.45],"type":"Point"}},{"type":"Feature","properties":{"id_proposto":"GEO-PROP-024","numero_proposta":"24","nome":"Lentes Calcárias do Rio Miranda e Estrada Parque Pantanal Sul","municipio":"Corumbá","latitude":-19.58138888888889,"longitude":-57.03666666666666,"coordenada_original_lat":"19 34 53 S","coordenada_original_lon":"57 02 12 W","interesse_principal":"Paleontologia do Quaternário","sintese":"Calcários coquinóides da Formação Xaraiés com fósseis de moluscos atuais.","status":"Proposto ou indicado. Não integra a camada atual do GEOSSIT em Mato Grosso do Sul.","nivel_validacao":"Requer avaliação ou reavaliação científica atual","estado_mapeamento":"mapeado","confianca_coordenada":"publicada","observacao":"","fonte_tipo":"Proposta histórica SGB CPRM","fonte_referencia":"Geoparque Bodoquena Pantanal MS proposta","fonte_url":"https://rigeo.sgb.gov.br/handle/doc/17164","uso_itinerario":"Avaliar valor científico, educativo, turístico, acesso, proteção e risco de degradação","data_compilacao":"2026-08-05","natureza_registro":"evidencia_documentada","localizacao_status":"localizada","source_id":"SRC-18d415dbe3e8609b","validacao_documental":"realizada","validacao_espacial":"parcial","validacao_institucional":"parcial","validacao_campo":"nao_realizada","validacao_comunitaria":"nao_realizada","validation_next":"dados_insuficientes","publicacao_status":"publico","evl_schema_version":"1.0","trace_id":"TRC-EVL-ce41c19f1b7b70cf8649e7bb"},"geometry":{"coordinates":[-57.03666666666666,-19.58138888888889],"type":"Point"}},{"type":"Feature","properties":{"id_proposto":"GEO-PROP-026","numero_proposta":"26","nome":"Crosta laterítica com inscrições rupestres da Fazenda Salesianos","municipio":"Corumbá","latitude":-19.16583333333333,"longitude":-57.55888888888889,"coordenada_original_lat":"19 09 57 S","coordenada_original_lon":"57 33 32 W","interesse_principal":"Formações superficiais e arqueologia","sintese":"Crosta laterítica sobre conglomerado ferruginoso com inscrições rupestres em baixo relevo.","status":"Proposto ou indicado. Não integra a camada atual do GEOSSIT em Mato Grosso do Sul.","nivel_validacao":"Requer avaliação ou reavaliação científica atual","estado_mapeamento":"mapeado","confianca_coordenada":"publicada","observacao":"","fonte_tipo":"Proposta histórica SGB CPRM","fonte_referencia":"Geoparque Bodoquena Pantanal MS proposta","fonte_url":"https://rigeo.sgb.gov.br/handle/doc/17164","uso_itinerario":"Avaliar valor científico, educativo, turístico, acesso, proteção e risco de degradação","data_compilacao":"2026-08-05","natureza_registro":"evidencia_documentada","localizacao_status":"localizada","source_id":"SRC-18d415dbe3e8609b","validacao_documental":"realizada","validacao_espacial":"parcial","validacao_institucional":"parcial","validacao_campo":"nao_realizada","validacao_comunitaria":"nao_realizada","validation_next":"dados_insuficientes","publicacao_status":"publico","evl_schema_version":"1.0","trace_id":"TRC-EVL-7b7f9022b2131aeb6823e640"},"geometry":{"coordinates":[-57.55888888888889,-19.16583333333333],"type":"Point"}},{"type":"Feature","properties":{"id_proposto":"GEO-PROP-027","numero_proposta":"27","nome":"Embasamento cristalino da borda oeste da Serra da Bodoquena","municipio":"Porto Murtinho","latitude":-21.067777777777778,"longitude":-56.88361111111111,"coordenada_original_lat":"21 04 04 S","coordenada_original_lon":"56 53 01 W","interesse_principal":"Petrologia, tectônica e paisagem","sintese":"Afloramento de rochas paleoproterozoicas do Complexo Rio Apa e mirante da borda oeste da serra.","status":"Proposto ou indicado. Não integra a camada atual do GEOSSIT em Mato Grosso do Sul.","nivel_validacao":"Requer avaliação ou reavaliação científica atual","estado_mapeamento":"mapeado","confianca_coordenada":"publicada","observacao":"","fonte_tipo":"Proposta histórica SGB CPRM","fonte_referencia":"Geoparque Bodoquena Pantanal MS proposta","fonte_url":"https://rigeo.sgb.gov.br/handle/doc/17164","uso_itinerario":"Avaliar valor científico, educativo, turístico, acesso, proteção e risco de degradação","data_compilacao":"2026-08-05","natureza_registro":"evidencia_documentada","localizacao_status":"localizada","source_id":"SRC-18d415dbe3e8609b","validacao_documental":"realizada","validacao_espacial":"parcial","validacao_institucional":"parcial","validacao_campo":"nao_realizada","validacao_comunitaria":"nao_realizada","validation_next":"dados_insuficientes","publicacao_status":"publico","evl_schema_version":"1.0","trace_id":"TRC-EVL-74413352a5b368ce5d65cd7a"},"geometry":{"coordinates":[-56.88361111111111,-21.067777777777778],"type":"Point"}},{"type":"Feature","properties":{"id_proposto":"GEO-PROP-028","numero_proposta":"28","nome":"Tufas calcárias da Cachoeira do Aquidaban","municipio":"Porto Murtinho","latitude":-21.068055555555556,"longitude":-56.900277777777774,"coordenada_original_lat":"21 04 05 S","coordenada_original_lon":"56 54 01 W","interesse_principal":"Tufas calcárias e geomorfologia","sintese":"Cachoeira com tufas quaternárias sobre rochas carbonáticas do Grupo Corumbá e embasamento do Complexo Rio Apa.","status":"Proposto ou indicado. Não integra a camada atual do GEOSSIT em Mato Grosso do Sul.","nivel_validacao":"Requer avaliação ou reavaliação científica atual","estado_mapeamento":"mapeado","confianca_coordenada":"publicada","observacao":"","fonte_tipo":"Proposta histórica SGB CPRM","fonte_referencia":"Geoparque Bodoquena Pantanal MS proposta","fonte_url":"https://rigeo.sgb.gov.br/handle/doc/17164","uso_itinerario":"Avaliar valor científico, educativo, turístico, acesso, proteção e risco de degradação","data_compilacao":"2026-08-05","natureza_registro":"evidencia_documentada","localizacao_status":"localizada","source_id":"SRC-18d415dbe3e8609b","validacao_documental":"realizada","validacao_espacial":"parcial","validacao_institucional":"parcial","validacao_campo":"nao_realizada","validacao_comunitaria":"nao_realizada","validation_next":"dados_insuficientes","publicacao_status":"publico","evl_schema_version":"1.0","trace_id":"TRC-EVL-6f6bd1901268114fc0b8c0b6"},"geometry":{"coordinates":[-56.900277777777774,-21.068055555555556],"type":"Point"}},{"type":"Feature","properties":{"id_proposto":"GEO-PROP-029","numero_proposta":"29","nome":"Morro do Azeite","municipio":"Corumbá","latitude":-19.68777777777778,"longitude":-57.00361111111111,"coordenada_original_lat":"19 41 16 S","coordenada_original_lon":"57 00 13 W","interesse_principal":"Estratigrafia, geomorfologia e cultura","sintese":"Morro constituído por rochas carbonáticas da Formação Bocaina junto ao rio Miranda.","status":"Proposto ou indicado. Não integra a camada atual do GEOSSIT em Mato Grosso do Sul.","nivel_validacao":"Requer avaliação ou reavaliação científica atual","estado_mapeamento":"mapeado","confianca_coordenada":"publicada","observacao":"","fonte_tipo":"Proposta histórica SGB CPRM","fonte_referencia":"Geoparque Bodoquena Pantanal MS proposta","fonte_url":"https://rigeo.sgb.gov.br/handle/doc/17164","uso_itinerario":"Avaliar valor científico, educativo, turístico, acesso, proteção e risco de degradação","data_compilacao":"2026-08-05","natureza_registro":"evidencia_documentada","localizacao_status":"localizada","source_id":"SRC-18d415dbe3e8609b","validacao_documental":"realizada","validacao_espacial":"parcial","validacao_institucional":"parcial","validacao_campo":"nao_realizada","validacao_comunitaria":"nao_realizada","validation_next":"dados_insuficientes","publicacao_status":"publico","evl_schema_version":"1.0","trace_id":"TRC-EVL-75e48e79aacbf619accdb5d8"},"geometry":{"coordinates":[-57.00361111111111,-19.68777777777778],"type":"Point"}},{"type":"Feature","properties":{"id_proposto":"GEO-PROP-031","numero_proposta":"31","nome":"Mina de Ferro e Manganês Morraria Urucum Santa Cruz","municipio":"Corumbá","latitude":-19.21527777777778,"longitude":-57.58027777777778,"coordenada_original_lat":"19 12 55 S","coordenada_original_lon":"57 34 49 W","interesse_principal":"Geologia econômica e sedimentologia","sintese":"Formações ferríferas bandadas e mineralizações de ferro e manganês do Grupo Jacadigo.","status":"Proposto ou indicado. Não integra a camada atual do GEOSSIT em Mato Grosso do Sul.","nivel_validacao":"Requer avaliação ou reavaliação científica atual","estado_mapeamento":"mapeado","confianca_coordenada":"publicada","observacao":"Pode apresentar sobreposição temática com o registro atual Formação Urucum.","fonte_tipo":"Proposta histórica SGB CPRM","fonte_referencia":"Geoparque Bodoquena Pantanal MS proposta","fonte_url":"https://rigeo.sgb.gov.br/handle/doc/17164","uso_itinerario":"Avaliar valor científico, educativo, turístico, acesso, proteção e risco de degradação","data_compilacao":"2026-08-05","natureza_registro":"evidencia_documentada","localizacao_status":"localizada","source_id":"SRC-18d415dbe3e8609b","validacao_documental":"realizada","validacao_espacial":"parcial","validacao_institucional":"parcial","validacao_campo":"nao_realizada","validacao_comunitaria":"nao_realizada","validation_next":"dados_insuficientes","publicacao_status":"publico","evl_schema_version":"1.0","trace_id":"TRC-EVL-f6af70eedbf801e99bd4ced7"},"geometry":{"coordinates":[-57.58027777777778,-19.21527777777778],"type":"Point"}},{"type":"Feature","properties":{"id_proposto":"GEO-PROP-034","numero_proposta":"34","nome":"Buraco das Abelhas","municipio":"Jardim","latitude":-21.490555555555556,"longitude":-56.72777777777778,"coordenada_original_lat":"21 29 26 S","coordenada_original_lon":"56 43 40 W","interesse_principal":"Espeleologia e hidrogeologia","sintese":"Ressurgência de rio subterrâneo e cavidade de grande desenvolvimento.","status":"Proposto ou indicado. Não integra a camada atual do GEOSSIT em Mato Grosso do Sul.","nivel_validacao":"Requer avaliação ou reavaliação científica atual","estado_mapeamento":"mapeado","confianca_coordenada":"publicada","observacao":"","fonte_tipo":"Proposta histórica SGB CPRM","fonte_referencia":"Geoparque Bodoquena Pantanal MS proposta","fonte_url":"https://rigeo.sgb.gov.br/handle/doc/17164","uso_itinerario":"Avaliar valor científico, educativo, turístico, acesso, proteção e risco de degradação","data_compilacao":"2026-08-05","natureza_registro":"evidencia_documentada","localizacao_status":"localizada","source_id":"SRC-18d415dbe3e8609b","validacao_documental":"realizada","validacao_espacial":"parcial","validacao_institucional":"parcial","validacao_campo":"nao_realizada","validacao_comunitaria":"nao_realizada","validation_next":"dados_insuficientes","publicacao_status":"publico","evl_schema_version":"1.0","trace_id":"TRC-EVL-fbde921e4c1b43cacc1a25e2"},"geometry":{"coordinates":[-56.72777777777778,-21.490555555555556],"type":"Point"}},{"type":"Feature","properties":{"id_proposto":"GEO-PROP-035","numero_proposta":"35","nome":"Gruta do Urubu Rei","municipio":"Bodoquena","latitude":-20.49416666666667,"longitude":-56.852222222222224,"coordenada_original_lat":"20 29 39 S","coordenada_original_lon":"56 51 08 W","interesse_principal":"Espeleologia","sintese":"Gruta desenvolvida em calcários estratificados do Grupo Corumbá.","status":"Proposto ou indicado. Não integra a camada atual do GEOSSIT em Mato Grosso do Sul.","nivel_validacao":"Requer avaliação ou reavaliação científica atual","estado_mapeamento":"mapeado","confianca_coordenada":"publicada","observacao":"","fonte_tipo":"Proposta histórica SGB CPRM","fonte_referencia":"Geoparque Bodoquena Pantanal MS proposta","fonte_url":"https://rigeo.sgb.gov.br/handle/doc/17164","uso_itinerario":"Avaliar valor científico, educativo, turístico, acesso, proteção e risco de degradação","data_compilacao":"2026-08-05","natureza_registro":"evidencia_documentada","localizacao_status":"localizada","source_id":"SRC-18d415dbe3e8609b","validacao_documental":"realizada","validacao_espacial":"parcial","validacao_institucional":"parcial","validacao_campo":"nao_realizada","validacao_comunitaria":"nao_realizada","validation_next":"dados_insuficientes","publicacao_status":"publico","evl_schema_version":"1.0","trace_id":"TRC-EVL-a98d37387d39a7993ff76f77"},"geometry":{"coordinates":[-56.852222222222224,-20.49416666666667],"type":"Point"}},{"type":"Feature","properties":{"id_proposto":"GEO-PROP-036","numero_proposta":"36","nome":"Tufas calcárias do Balneário Municipal Presidente Corrêa","municipio":"Bodoquena","latitude":-20.630277777777778,"longitude":-56.65222222222222,"coordenada_original_lat":"20 37 49 S","coordenada_original_lon":"56 39 08 W","interesse_principal":"Tufas calcárias e hidrologia","sintese":"Balneário público no córrego Betione com depósitos de tufas calcárias.","status":"Proposto ou indicado. Não integra a camada atual do GEOSSIT em Mato Grosso do Sul.","nivel_validacao":"Requer avaliação ou reavaliação científica atual","estado_mapeamento":"mapeado","confianca_coordenada":"publicada","observacao":"A fonte repete a palavra latitude antes da longitude. O valor foi interpretado como longitude oeste.","fonte_tipo":"Proposta histórica SGB CPRM","fonte_referencia":"Geoparque Bodoquena Pantanal MS proposta","fonte_url":"https://rigeo.sgb.gov.br/handle/doc/17164","uso_itinerario":"Avaliar valor científico, educativo, turístico, acesso, proteção e risco de degradação","data_compilacao":"2026-08-05","natureza_registro":"evidencia_documentada","localizacao_status":"localizada","source_id":"SRC-18d415dbe3e8609b","validacao_documental":"realizada","validacao_espacial":"parcial","validacao_institucional":"parcial","validacao_campo":"nao_realizada","validacao_comunitaria":"nao_realizada","validation_next":"dados_insuficientes","publicacao_status":"publico","evl_schema_version":"1.0","trace_id":"TRC-EVL-fc19e6d7879cfbed92f0de1a"},"geometry":{"coordinates":[-56.65222222222222,-20.630277777777778],"type":"Point"}},{"type":"Feature","properties":{"id_proposto":"GEO-PROP-037","numero_proposta":"37","nome":"Tufas calcárias e cachoeiras da Estância Mimosa","municipio":"Bonito","latitude":-20.966666666666665,"longitude":-56.5,"coordenada_original_lat":"20 58 00 S","coordenada_original_lon":"56 30 00 W","interesse_principal":"Tufas calcárias e geoturismo","sintese":"Sequência de cachoeiras desenvolvidas sobre tufas calcárias ao longo do rio Mimoso.","status":"Proposto ou indicado. Não integra a camada atual do GEOSSIT em Mato Grosso do Sul.","nivel_validacao":"Requer avaliação ou reavaliação científica atual","estado_mapeamento":"mapeado","confianca_coordenada":"publicada","observacao":"","fonte_tipo":"Proposta histórica SGB CPRM","fonte_referencia":"Geoparque Bodoquena Pantanal MS proposta","fonte_url":"https://rigeo.sgb.gov.br/handle/doc/17164","uso_itinerario":"Avaliar valor científico, educativo, turístico, acesso, proteção e risco de degradação","data_compilacao":"2026-08-05","natureza_registro":"evidencia_documentada","localizacao_status":"localizada","source_id":"SRC-18d415dbe3e8609b","validacao_documental":"realizada","validacao_espacial":"parcial","validacao_institucional":"parcial","validacao_campo":"nao_realizada","validacao_comunitaria":"nao_realizada","validation_next":"dados_insuficientes","publicacao_status":"publico","evl_schema_version":"1.0","trace_id":"TRC-EVL-868ba5b064798ac234c63cde"},"geometry":{"coordinates":[-56.5,-20.966666666666665],"type":"Point"}},{"type":"Feature","properties":{"id_proposto":"GEO-PROP-038","numero_proposta":"38","nome":"Estância Li","municipio":"Bonito","latitude":-20.96944444444444,"longitude":-56.530833333333334,"coordenada_original_lat":"20 58 10 S","coordenada_original_lon":"56 31 51 W","interesse_principal":"Geologia estrutural","sintese":"Calcários deformados e estruturas relacionadas a falhamentos de empurrão da Faixa Paraguai.","status":"Proposto ou indicado. Não integra a camada atual do GEOSSIT em Mato Grosso do Sul.","nivel_validacao":"Requer avaliação ou reavaliação científica atual","estado_mapeamento":"mapeado","confianca_coordenada":"publicada","observacao":"","fonte_tipo":"Proposta histórica SGB CPRM","fonte_referencia":"Geoparque Bodoquena Pantanal MS proposta","fonte_url":"https://rigeo.sgb.gov.br/handle/doc/17164","uso_itinerario":"Avaliar valor científico, educativo, turístico, acesso, proteção e risco de degradação","data_compilacao":"2026-08-05","natureza_registro":"evidencia_documentada","localizacao_status":"localizada","source_id":"SRC-18d415dbe3e8609b","validacao_documental":"realizada","validacao_espacial":"parcial","validacao_institucional":"parcial","validacao_campo":"nao_realizada","validacao_comunitaria":"nao_realizada","validation_next":"dados_insuficientes","publicacao_status":"publico","evl_schema_version":"1.0","trace_id":"TRC-EVL-00f900f586dcdc3814d77e14"},"geometry":{"coordinates":[-56.530833333333334,-20.96944444444444],"type":"Point"}},{"type":"Feature","properties":{"id_proposto":"GEO-PROP-039","numero_proposta":"39","nome":"Mineração Horii","municipio":"Bodoquena","latitude":-20.597777777777775,"longitude":-56.68694444444444,"coordenada_original_lat":"20 35 52 S","coordenada_original_lon":"56 41 13 W","interesse_principal":"Estratigrafia, mineração e paisagem","sintese":"Paredão de calcário da Formação Tamengo e área de extração mineral junto à MS 178.","status":"Proposto ou indicado. Não integra a camada atual do GEOSSIT em Mato Grosso do Sul.","nivel_validacao":"Requer avaliação ou reavaliação científica atual","estado_mapeamento":"mapeado","confianca_coordenada":"publicada","observacao":"","fonte_tipo":"Proposta histórica SGB CPRM","fonte_referencia":"Geoparque Bodoquena Pantanal MS proposta","fonte_url":"https://rigeo.sgb.gov.br/handle/doc/17164","uso_itinerario":"Avaliar valor científico, educativo, turístico, acesso, proteção e risco de degradação","data_compilacao":"2026-08-05","natureza_registro":"evidencia_documentada","localizacao_status":"localizada","source_id":"SRC-18d415dbe3e8609b","validacao_documental":"realizada","validacao_espacial":"parcial","validacao_institucional":"parcial","validacao_campo":"nao_realizada","validacao_comunitaria":"nao_realizada","validation_next":"dados_insuficientes","publicacao_status":"publico","evl_schema_version":"1.0","trace_id":"TRC-EVL-6fea0a6570b4f2e7e1b2ad2c"},"geometry":{"coordinates":[-56.68694444444444,-20.597777777777775],"type":"Point"}},{"type":"Feature","properties":{"id_proposto":"GEO-PROP-040","numero_proposta":"40","nome":"Tufas calcárias da Serra da Bodoquena","municipio":"Bonito","latitude":-21.02361111111111,"longitude":-56.61972222222222,"coordenada_original_lat":"21 01 25 S","coordenada_original_lon":"56 37 11 W","interesse_principal":"Tufas calcárias e paleontologia","sintese":"Depósitos fluviais de tufas com impressões de folhas fósseis.","status":"Proposto ou indicado. Não integra a camada atual do GEOSSIT em Mato Grosso do Sul.","nivel_validacao":"Requer avaliação ou reavaliação científica atual","estado_mapeamento":"mapeado","confianca_coordenada":"publicada","observacao":"","fonte_tipo":"Proposta histórica SGB CPRM","fonte_referencia":"Geoparque Bodoquena Pantanal MS proposta","fonte_url":"https://rigeo.sgb.gov.br/handle/doc/17164","uso_itinerario":"Avaliar valor científico, educativo, turístico, acesso, proteção e risco de degradação","data_compilacao":"2026-08-05","natureza_registro":"evidencia_documentada","localizacao_status":"localizada","source_id":"SRC-18d415dbe3e8609b","validacao_documental":"realizada","validacao_espacial":"parcial","validacao_institucional":"parcial","validacao_campo":"nao_realizada","validacao_comunitaria":"nao_realizada","validation_next":"dados_insuficientes","publicacao_status":"publico","evl_schema_version":"1.0","trace_id":"TRC-EVL-89aa01535178ebe081229694"},"geometry":{"coordinates":[-56.61972222222222,-21.02361111111111],"type":"Point"}},{"type":"Feature","properties":{"id_proposto":"GEO-PROP-041","numero_proposta":"41","nome":"Nascentes e grutas Ceita Corê","municipio":"Bonito","latitude":-20.84111111111111,"longitude":-56.59305555555556,"coordenada_original_lat":"20 50 28 S","coordenada_original_lon":"56 35 35 W","interesse_principal":"Hidrogeologia, espeleologia e tufas","sintese":"Nascentes, lagos, cachoeiras, piscinas naturais e pequenas grutas em calcários do Grupo Corumbá.","status":"Proposto ou indicado. Não integra a camada atual do GEOSSIT em Mato Grosso do Sul.","nivel_validacao":"Requer avaliação ou reavaliação científica atual","estado_mapeamento":"mapeado","confianca_coordenada":"publicada","observacao":"","fonte_tipo":"Proposta histórica SGB CPRM","fonte_referencia":"Geoparque Bodoquena Pantanal MS proposta","fonte_url":"https://rigeo.sgb.gov.br/handle/doc/17164","uso_itinerario":"Avaliar valor científico, educativo, turístico, acesso, proteção e risco de degradação","data_compilacao":"2026-08-05","natureza_registro":"evidencia_documentada","localizacao_status":"localizada","source_id":"SRC-18d415dbe3e8609b","validacao_documental":"realizada","validacao_espacial":"parcial","validacao_institucional":"parcial","validacao_campo":"nao_realizada","validacao_comunitaria":"nao_realizada","validation_next":"dados_insuficientes","publicacao_status":"publico","evl_schema_version":"1.0","trace_id":"TRC-EVL-a43fa08836e557f70d9b7b4f"},"geometry":{"coordinates":[-56.59305555555556,-20.84111111111111],"type":"Point"}},{"type":"Feature","properties":{"id_proposto":"GEO-PROP-042","numero_proposta":"42","nome":"Buraco do Japonês ou dos Fósseis","municipio":"Jardim","latitude":-21.594166666666666,"longitude":-56.66,"coordenada_original_lat":"21 35 39 S","coordenada_original_lon":"56 39 36 W","interesse_principal":"Paleontologia e espeleologia","sintese":"Cavidade subaquática com registros de megafauna pleistocênica.","status":"Proposto ou indicado. Não integra a camada atual do GEOSSIT em Mato Grosso do Sul.","nivel_validacao":"Requer avaliação ou reavaliação científica atual","estado_mapeamento":"mapeado","confianca_coordenada":"publicada","observacao":"","fonte_tipo":"Proposta histórica SGB CPRM","fonte_referencia":"Geoparque Bodoquena Pantanal MS proposta","fonte_url":"https://rigeo.sgb.gov.br/handle/doc/17164","uso_itinerario":"Avaliar valor científico, educativo, turístico, acesso, proteção e risco de degradação","data_compilacao":"2026-08-05","natureza_registro":"evidencia_documentada","localizacao_status":"localizada","source_id":"SRC-18d415dbe3e8609b","validacao_documental":"realizada","validacao_espacial":"parcial","validacao_institucional":"parcial","validacao_campo":"nao_realizada","validacao_comunitaria":"nao_realizada","validation_next":"dados_insuficientes","publicacao_status":"publico","evl_schema_version":"1.0","trace_id":"TRC-EVL-4350366565494e69b935ebfe"},"geometry":{"coordinates":[-56.66,-21.594166666666666],"type":"Point"}},{"type":"Feature","properties":{"id_proposto":"GEO-PROP-043","numero_proposta":"43","nome":"Gruta e Nascente do Rio Formoso","municipio":"Bonito","latitude":-21.256944444444443,"longitude":-56.63666666666666,"coordenada_original_lat":"21 15 25 S","coordenada_original_lon":"56 38 12 W","interesse_principal":"Paleontologia e hidrogeologia","sintese":"Nascente em gruta com ocorrências de fósseis da megafauna pleistocênica.","status":"Proposto ou indicado. Não integra a camada atual do GEOSSIT em Mato Grosso do Sul.","nivel_validacao":"Requer avaliação ou reavaliação científica atual","estado_mapeamento":"mapeado","confianca_coordenada":"publicada","observacao":"","fonte_tipo":"Proposta histórica SGB CPRM","fonte_referencia":"Geoparque Bodoquena Pantanal MS proposta","fonte_url":"https://rigeo.sgb.gov.br/handle/doc/17164","uso_itinerario":"Avaliar valor científico, educativo, turístico, acesso, proteção e risco de degradação","data_compilacao":"2026-08-05","natureza_registro":"evidencia_documentada","localizacao_status":"localizada","source_id":"SRC-18d415dbe3e8609b","validacao_documental":"realizada","validacao_espacial":"parcial","validacao_institucional":"parcial","validacao_campo":"nao_realizada","validacao_comunitaria":"nao_realizada","validation_next":"dados_insuficientes","publicacao_status":"publico","evl_schema_version":"1.0","trace_id":"TRC-EVL-9e83c4701cf1cddbe9f32ccf"},"geometry":{"coordinates":[-56.63666666666666,-21.256944444444443],"type":"Point"}},{"type":"Feature","properties":{"id_proposto":"GEO-PROP-044","numero_proposta":"44","nome":"Corumbella e Parque Ecológico das Cacimbas","municipio":"Corumbá","latitude":-18.999166666666667,"longitude":-57.66722222222222,"coordenada_original_lat":"18 59 57 S","coordenada_original_lon":"57 40 02 W","interesse_principal":"Paleontologia e estratigrafia","sintese":"Escarpa de calcários da Formação Tamengo com ocorrência de Corumbella werneri.","status":"Proposto ou indicado. Não integra a camada atual do GEOSSIT em Mato Grosso do Sul.","nivel_validacao":"Requer avaliação ou reavaliação científica atual","estado_mapeamento":"mapeado","confianca_coordenada":"publicada","observacao":"","fonte_tipo":"Proposta histórica SGB CPRM","fonte_referencia":"Geoparque Bodoquena Pantanal MS proposta","fonte_url":"https://rigeo.sgb.gov.br/handle/doc/17164","uso_itinerario":"Avaliar valor científico, educativo, turístico, acesso, proteção e risco de degradação","data_compilacao":"2026-08-05","natureza_registro":"evidencia_documentada","localizacao_status":"localizada","source_id":"SRC-18d415dbe3e8609b","validacao_documental":"realizada","validacao_espacial":"parcial","validacao_institucional":"parcial","validacao_campo":"nao_realizada","validacao_comunitaria":"nao_realizada","validation_next":"dados_insuficientes","publicacao_status":"publico","evl_schema_version":"1.0","trace_id":"TRC-EVL-1a359dfc4e9f282f5dc6b690"},"geometry":{"coordinates":[-57.66722222222222,-18.999166666666667],"type":"Point"}},{"type":"Feature","properties":{"id_proposto":"GEO-PROP-045","numero_proposta":"45","nome":"Escadinha da XV","municipio":"Corumbá","latitude":-18.997777777777777,"longitude":-57.655277777777776,"coordenada_original_lat":"18 59 52 S","coordenada_original_lon":"57 39 19 W","interesse_principal":"Formações superficiais e patrimônio cultural","sintese":"Exposição de calcretes da Formação Xaraiés integrada ao conjunto histórico do porto de Corumbá.","status":"Proposto ou indicado. Não integra a camada atual do GEOSSIT em Mato Grosso do Sul.","nivel_validacao":"Requer avaliação ou reavaliação científica atual","estado_mapeamento":"mapeado","confianca_coordenada":"publicada","observacao":"","fonte_tipo":"Proposta histórica SGB CPRM","fonte_referencia":"Geoparque Bodoquena Pantanal MS proposta","fonte_url":"https://rigeo.sgb.gov.br/handle/doc/17164","uso_itinerario":"Avaliar valor científico, educativo, turístico, acesso, proteção e risco de degradação","data_compilacao":"2026-08-05","natureza_registro":"evidencia_documentada","localizacao_status":"localizada","source_id":"SRC-18d415dbe3e8609b","validacao_documental":"realizada","validacao_espacial":"parcial","validacao_institucional":"parcial","validacao_campo":"nao_realizada","validacao_comunitaria":"nao_realizada","validation_next":"dados_insuficientes","publicacao_status":"publico","evl_schema_version":"1.0","trace_id":"TRC-EVL-3c231c2aa87e730adde08088"},"geometry":{"coordinates":[-57.655277777777776,-18.997777777777777],"type":"Point"}},{"type":"Feature","properties":{"id_proposto":"PROJ-001","numero_proposta":"","nome":"Fazenda Igrejinha","municipio":"Rio Verde de Mato Grosso","latitude":-18.83676,"longitude":-54.983725,"coordenada_original_lat":"","coordenada_original_lon":"","interesse_principal":"Interesse geológico a avaliar","sintese":"Lugar candidato identificado no projeto integrado de geodiversidade de Mato Grosso do Sul.","status":"Proposto ou indicado. Não integra a camada atual do GEOSSIT em Mato Grosso do Sul.","nivel_validacao":"Requer avaliação ou reavaliação científica atual","estado_mapeamento":"mapeado","confianca_coordenada":"coordenada fornecida pelo projeto","observacao":"Coordenada fornecida pelo projeto. Avaliação científica ainda pendente.","fonte_tipo":"Levantamento do projeto","fonte_referencia":"Projeto integrado de geodiversidade de Mato Grosso do Sul","fonte_url":"","uso_itinerario":"Avaliar valor científico, educativo, turístico, acesso, proteção e risco de degradação","data_compilacao":"2026-08-05","natureza_registro":"evidencia_documentada","localizacao_status":"localizada","source_id":"SRC-18d415dbe3e8609b","validacao_documental":"realizada","validacao_espacial":"parcial","validacao_institucional":"parcial","validacao_campo":"nao_realizada","validacao_comunitaria":"nao_realizada","validation_next":"dados_insuficientes","publicacao_status":"publico","evl_schema_version":"1.0","trace_id":"TRC-EVL-eaf2f9bb8a7d2659b3615fa8"},"geometry":{"coordinates":[-54.983725,-18.83676],"type":"Point"}}],"atlas_metadata":{"evl_schema_version":"1.0","evl_materializado_em":"2026-08-09T02:36:02.009558+00:00","evl_records":38}}