{"type":"FeatureCollection","features":[{"type":"Feature","properties":{"codigo_ibge":5002704,"nome_oficial":"Campo Grande","latitude":-20.4486,"longitude":-54.6295,"populacao_2025":962883,"ranking_ms":1,"participacao_ms_pct":32.923230315209,"faixa_populacional":"300.000 habitantes ou mais","siafi_id":9051,"ddd":67,"fuso_horario":"America/Porto_Velho","camada_origem":"municipios_sedes","estado_captura":"capturado_localmente","data_compilacao":"2026-08-05","natureza_registro":"evidencia_documentada","localizacao_status":"localizada","source_id":"SRC-e05d5cf87e893d87","validacao_documental":"realizada","validacao_espacial":"parcial","validacao_institucional":"parcial","validacao_campo":"nao_realizada","validacao_comunitaria":"nao_realizada","validation_next":"dados_insuficientes","publicacao_status":"publico","evl_schema_version":"1.0","trace_id":"TRC-EVL-9d87f5d8a27ca88432f9211f"},"geometry":{"coordinates":[-54.6295,-20.4486],"type":"Point"}},{"type":"Feature","properties":{"codigo_ibge":5000252,"nome_oficial":"Alcinópolis","latitude":-18.3255,"longitude":-53.7042,"populacao_2025":4649,"ranking_ms":76,"participacao_ms_pct":0.1589602243838624,"faixa_populacional":"Até 9.999 habitantes","siafi_id":141,"ddd":67,"fuso_horario":"America/Porto_Velho","camada_origem":"municipios_sedes","estado_captura":"capturado_localmente","data_compilacao":"2026-08-05","natureza_registro":"evidencia_documentada","localizacao_status":"localizada","source_id":"SRC-e05d5cf87e893d87","validacao_documental":"realizada","validacao_espacial":"parcial","validacao_institucional":"parcial","validacao_campo":"nao_realizada","validacao_comunitaria":"nao_realizada","validation_next":"dados_insuficientes","publicacao_status":"publico","evl_schema_version":"1.0","trace_id":"TRC-EVL-c6e6e3eb090fabc1dafc4a71"},"geometry":{"coordinates":[-53.7042,-18.3255],"type":"Point"}},{"type":"Feature","properties":{"codigo_ibge":5000807,"nome_oficial":"Anaurilândia","latitude":-22.1852,"longitude":-52.7191,"populacao_2025":7688,"ranking_ms":62,"participacao_ms_pct":0.2628707689961571,"faixa_populacional":"Até 9.999 habitantes","siafi_id":9015,"ddd":67,"fuso_horario":"America/Porto_Velho","camada_origem":"municipios_sedes","estado_captura":"capturado_localmente","data_compilacao":"2026-08-05","natureza_registro":"evidencia_documentada","localizacao_status":"localizada","source_id":"SRC-e05d5cf87e893d87","validacao_documental":"realizada","validacao_espacial":"parcial","validacao_institucional":"parcial","validacao_campo":"nao_realizada","validacao_comunitaria":"nao_realizada","validation_next":"dados_insuficientes","publicacao_status":"publico","evl_schema_version":"1.0","trace_id":"TRC-EVL-fcf219e48c7086662500b791"},"geometry":{"coordinates":[-52.7191,-22.1852],"type":"Point"}},{"type":"Feature","properties":{"codigo_ibge":5000906,"nome_oficial":"Antônio João","latitude":-22.1927,"longitude":-55.9517,"populacao_2025":9717,"ranking_ms":56,"participacao_ms_pct":0.3322470424474062,"faixa_populacional":"Até 9.999 habitantes","siafi_id":9017,"ddd":67,"fuso_horario":"America/Porto_Velho","camada_origem":"municipios_sedes","estado_captura":"capturado_localmente","data_compilacao":"2026-08-05","natureza_registro":"evidencia_documentada","localizacao_status":"localizada","source_id":"SRC-e05d5cf87e893d87","validacao_documental":"realizada","validacao_espacial":"parcial","validacao_institucional":"parcial","validacao_campo":"nao_realizada","validacao_comunitaria":"nao_realizada","validation_next":"dados_insuficientes","publicacao_status":"publico","evl_schema_version":"1.0","trace_id":"TRC-EVL-3c9601c4254d47e8ccd8ffc2"},"geometry":{"coordinates":[-55.9517,-22.1927],"type":"Point"}},{"type":"Feature","properties":{"codigo_ibge":5001508,"nome_oficial":"Bandeirantes","latitude":-19.9275,"longitude":-54.3585,"populacao_2025":8342,"ranking_ms":61,"participacao_ms_pct":0.2852325643816262,"faixa_populacional":"Até 9.999 habitantes","siafi_id":9029,"ddd":67,"fuso_horario":"America/Porto_Velho","camada_origem":"municipios_sedes","estado_captura":"capturado_localmente","data_compilacao":"2026-08-05","natureza_registro":"evidencia_documentada","localizacao_status":"localizada","source_id":"SRC-e05d5cf87e893d87","validacao_documental":"realizada","validacao_espacial":"parcial","validacao_institucional":"parcial","validacao_campo":"nao_realizada","validacao_comunitaria":"nao_realizada","validation_next":"dados_insuficientes","publicacao_status":"publico","evl_schema_version":"1.0","trace_id":"TRC-EVL-2cbcadf46b8f00d921fb54af"},"geometry":{"coordinates":[-54.3585,-19.9275],"type":"Point"}},{"type":"Feature","properties":{"codigo_ibge":5002159,"nome_oficial":"Bodoquena","latitude":-20.537,"longitude":-56.7127,"populacao_2025":8887,"ranking_ms":57,"participacao_ms_pct":0.3038673938695172,"faixa_populacional":"Até 9.999 habitantes","siafi_id":9801,"ddd":67,"fuso_horario":"America/Porto_Velho","camada_origem":"municipios_sedes","estado_captura":"capturado_localmente","data_compilacao":"2026-08-05","natureza_registro":"evidencia_documentada","localizacao_status":"localizada","source_id":"SRC-e05d5cf87e893d87","validacao_documental":"realizada","validacao_espacial":"parcial","validacao_institucional":"parcial","validacao_campo":"nao_realizada","validacao_comunitaria":"nao_realizada","validation_next":"dados_insuficientes","publicacao_status":"publico","evl_schema_version":"1.0","trace_id":"TRC-EVL-739d59c5c2e91cc64615053b"},"geometry":{"coordinates":[-56.7127,-20.537],"type":"Point"}},{"type":"Feature","properties":{"codigo_ibge":5002803,"nome_oficial":"Caracol","latitude":-22.011,"longitude":-57.0277,"populacao_2025":5096,"ranking_ms":72,"participacao_ms_pct":0.1742442037987014,"faixa_populacional":"Até 9.999 habitantes","siafi_id":9053,"ddd":67,"fuso_horario":"America/Porto_Velho","camada_origem":"municipios_sedes","estado_captura":"capturado_localmente","data_compilacao":"2026-08-05","natureza_registro":"evidencia_documentada","localizacao_status":"localizada","source_id":"SRC-e05d5cf87e893d87","validacao_documental":"realizada","validacao_espacial":"parcial","validacao_institucional":"parcial","validacao_campo":"nao_realizada","validacao_comunitaria":"nao_realizada","validation_next":"dados_insuficientes","publicacao_status":"publico","evl_schema_version":"1.0","trace_id":"TRC-EVL-ead4cbd148ed832e4bc7f87c"},"geometry":{"coordinates":[-57.0277,-22.011],"type":"Point"}},{"type":"Feature","properties":{"codigo_ibge":5003108,"nome_oficial":"Corguinho","latitude":-19.8243,"longitude":-54.8281,"populacao_2025":4892,"ranking_ms":74,"participacao_ms_pct":0.1672689648711239,"faixa_populacional":"Até 9.999 habitantes","siafi_id":9061,"ddd":67,"fuso_horario":"America/Porto_Velho","camada_origem":"municipios_sedes","estado_captura":"capturado_localmente","data_compilacao":"2026-08-05","natureza_registro":"evidencia_documentada","localizacao_status":"localizada","source_id":"SRC-e05d5cf87e893d87","validacao_documental":"realizada","validacao_espacial":"parcial","validacao_institucional":"parcial","validacao_campo":"nao_realizada","validacao_comunitaria":"nao_realizada","validation_next":"dados_insuficientes","publicacao_status":"publico","evl_schema_version":"1.0","trace_id":"TRC-EVL-e50db68c2c556ac0429a73e5"},"geometry":{"coordinates":[-54.8281,-19.8243],"type":"Point"}},{"type":"Feature","properties":{"codigo_ibge":5003504,"nome_oficial":"Douradina","latitude":-22.0405,"longitude":-54.6158,"populacao_2025":5768,"ranking_ms":70,"participacao_ms_pct":0.1972214614424862,"faixa_populacional":"Até 9.999 habitantes","siafi_id":9805,"ddd":67,"fuso_horario":"America/Porto_Velho","camada_origem":"municipios_sedes","estado_captura":"capturado_localmente","data_compilacao":"2026-08-05","natureza_registro":"evidencia_documentada","localizacao_status":"localizada","source_id":"SRC-e05d5cf87e893d87","validacao_documental":"realizada","validacao_espacial":"parcial","validacao_institucional":"parcial","validacao_campo":"nao_realizada","validacao_comunitaria":"nao_realizada","validation_next":"dados_insuficientes","publicacao_status":"publico","evl_schema_version":"1.0","trace_id":"TRC-EVL-cb60add7a98f1e5cde8de041"},"geometry":{"coordinates":[-54.6158,-22.0405],"type":"Point"}},{"type":"Feature","properties":{"codigo_ibge":5003900,"nome_oficial":"Figueirão","latitude":-18.6782,"longitude":-53.638,"populacao_2025":3751,"ranking_ms":77,"participacao_ms_pct":0.1282554961634476,"faixa_populacional":"Até 9.999 habitantes","siafi_id":1178,"ddd":67,"fuso_horario":"America/Porto_Velho","camada_origem":"municipios_sedes","estado_captura":"capturado_localmente","data_compilacao":"2026-08-05","natureza_registro":"evidencia_documentada","localizacao_status":"localizada","source_id":"SRC-e05d5cf87e893d87","validacao_documental":"realizada","validacao_espacial":"parcial","validacao_institucional":"parcial","validacao_campo":"nao_realizada","validacao_comunitaria":"nao_realizada","validation_next":"dados_insuficientes","publicacao_status":"publico","evl_schema_version":"1.0","trace_id":"TRC-EVL-0c04b4143d896ec5ec152177"},"geometry":{"coordinates":[-53.638,-18.6782],"type":"Point"}},{"type":"Feature","properties":{"codigo_ibge":5004403,"nome_oficial":"Inocência","latitude":-19.7277,"longitude":-51.9281,"populacao_2025":8764,"ranking_ms":58,"participacao_ms_pct":0.2996617351043601,"faixa_populacional":"Até 9.999 habitantes","siafi_id":9087,"ddd":67,"fuso_horario":"America/Porto_Velho","camada_origem":"municipios_sedes","estado_captura":"capturado_localmente","data_compilacao":"2026-08-05","natureza_registro":"evidencia_documentada","localizacao_status":"localizada","source_id":"SRC-e05d5cf87e893d87","validacao_documental":"realizada","validacao_espacial":"parcial","validacao_institucional":"parcial","validacao_campo":"nao_realizada","validacao_comunitaria":"nao_realizada","validation_next":"dados_insuficientes","publicacao_status":"publico","evl_schema_version":"1.0","trace_id":"TRC-EVL-16227cd3f02e84268b8d5746"},"geometry":{"coordinates":[-51.9281,-19.7277],"type":"Point"}},{"type":"Feature","properties":{"codigo_ibge":5004809,"nome_oficial":"Japorã","latitude":-23.8903,"longitude":-54.4059,"populacao_2025":8441,"ranking_ms":60,"participacao_ms_pct":0.2886176068023624,"faixa_populacional":"Até 9.999 habitantes","siafi_id":161,"ddd":67,"fuso_horario":"America/Porto_Velho","camada_origem":"municipios_sedes","estado_captura":"capturado_localmente","data_compilacao":"2026-08-05","natureza_registro":"evidencia_documentada","localizacao_status":"localizada","source_id":"SRC-e05d5cf87e893d87","validacao_documental":"realizada","validacao_espacial":"parcial","validacao_institucional":"parcial","validacao_campo":"nao_realizada","validacao_comunitaria":"nao_realizada","validation_next":"dados_insuficientes","publicacao_status":"publico","evl_schema_version":"1.0","trace_id":"TRC-EVL-0de6ebc3fe6db5e74a52d02e"},"geometry":{"coordinates":[-54.4059,-23.8903],"type":"Point"}},{"type":"Feature","properties":{"codigo_ibge":5004908,"nome_oficial":"Jaraguari","latitude":-20.1386,"longitude":-54.3996,"populacao_2025":7480,"ranking_ms":63,"participacao_ms_pct":0.2557587606778428,"faixa_populacional":"Até 9.999 habitantes","siafi_id":9097,"ddd":67,"fuso_horario":"America/Porto_Velho","camada_origem":"municipios_sedes","estado_captura":"capturado_localmente","data_compilacao":"2026-08-05","natureza_registro":"evidencia_documentada","localizacao_status":"localizada","source_id":"SRC-e05d5cf87e893d87","validacao_documental":"realizada","validacao_espacial":"parcial","validacao_institucional":"parcial","validacao_campo":"nao_realizada","validacao_comunitaria":"nao_realizada","validation_next":"dados_insuficientes","publicacao_status":"publico","evl_schema_version":"1.0","trace_id":"TRC-EVL-21e3f667e7ac6ea97a8838a2"},"geometry":{"coordinates":[-54.3996,-20.1386],"type":"Point"}},{"type":"Feature","properties":{"codigo_ibge":5005103,"nome_oficial":"Jateí","latitude":-22.4806,"longitude":-54.3079,"populacao_2025":3596,"ranking_ms":79,"participacao_ms_pct":0.122955682272396,"faixa_populacional":"Até 9.999 habitantes","siafi_id":9101,"ddd":67,"fuso_horario":"America/Porto_Velho","camada_origem":"municipios_sedes","estado_captura":"capturado_localmente","data_compilacao":"2026-08-05","natureza_registro":"evidencia_documentada","localizacao_status":"localizada","source_id":"SRC-e05d5cf87e893d87","validacao_documental":"realizada","validacao_espacial":"parcial","validacao_institucional":"parcial","validacao_campo":"nao_realizada","validacao_comunitaria":"nao_realizada","validation_next":"dados_insuficientes","publicacao_status":"publico","evl_schema_version":"1.0","trace_id":"TRC-EVL-d69f3471569aaeca845cac2b"},"geometry":{"coordinates":[-54.3079,-22.4806],"type":"Point"}},{"type":"Feature","properties":{"codigo_ibge":5005152,"nome_oficial":"Juti","latitude":-22.8596,"longitude":-54.6061,"populacao_2025":7067,"ranking_ms":65,"participacao_ms_pct":0.2416373210842667,"faixa_populacional":"Até 9.999 habitantes","siafi_id":9923,"ddd":67,"fuso_horario":"America/Porto_Velho","camada_origem":"municipios_sedes","estado_captura":"capturado_localmente","data_compilacao":"2026-08-05","natureza_registro":"evidencia_documentada","localizacao_status":"localizada","source_id":"SRC-e05d5cf87e893d87","validacao_documental":"realizada","validacao_espacial":"parcial","validacao_institucional":"parcial","validacao_campo":"nao_realizada","validacao_comunitaria":"nao_realizada","validation_next":"dados_insuficientes","publicacao_status":"publico","evl_schema_version":"1.0","trace_id":"TRC-EVL-c17eceb0dbe8d0b45e949cc2"},"geometry":{"coordinates":[-54.6061,-22.8596],"type":"Point"}},{"type":"Feature","properties":{"codigo_ibge":5005251,"nome_oficial":"Laguna Carapã","latitude":-22.5448,"longitude":-55.1502,"populacao_2025":7037,"ranking_ms":66,"participacao_ms_pct":0.2406115506537406,"faixa_populacional":"Até 9.999 habitantes","siafi_id":163,"ddd":67,"fuso_horario":"America/Porto_Velho","camada_origem":"municipios_sedes","estado_captura":"capturado_localmente","data_compilacao":"2026-08-05","natureza_registro":"evidencia_documentada","localizacao_status":"localizada","source_id":"SRC-e05d5cf87e893d87","validacao_documental":"realizada","validacao_espacial":"parcial","validacao_institucional":"parcial","validacao_campo":"nao_realizada","validacao_comunitaria":"nao_realizada","validation_next":"dados_insuficientes","publicacao_status":"publico","evl_schema_version":"1.0","trace_id":"TRC-EVL-ff0e8a04979f69bc90110ffc"},"geometry":{"coordinates":[-55.1502,-22.5448],"type":"Point"}},{"type":"Feature","properties":{"codigo_ibge":5006259,"nome_oficial":"Novo Horizonte do Sul","latitude":-22.6693,"longitude":-53.8601,"populacao_2025":4801,"ranking_ms":75,"participacao_ms_pct":0.1641574612318613,"faixa_populacional":"Até 9.999 habitantes","siafi_id":159,"ddd":67,"fuso_horario":"America/Porto_Velho","camada_origem":"municipios_sedes","estado_captura":"capturado_localmente","data_compilacao":"2026-08-05","natureza_registro":"evidencia_documentada","localizacao_status":"localizada","source_id":"SRC-e05d5cf87e893d87","validacao_documental":"realizada","validacao_espacial":"parcial","validacao_institucional":"parcial","validacao_campo":"nao_realizada","validacao_comunitaria":"nao_realizada","validation_next":"dados_insuficientes","publicacao_status":"publico","evl_schema_version":"1.0","trace_id":"TRC-EVL-0e9fd2496b3bb6e22e9f4410"},"geometry":{"coordinates":[-53.8601,-22.6693],"type":"Point"}},{"type":"Feature","properties":{"codigo_ibge":5006275,"nome_oficial":"Paraíso das Águas","latitude":-19.0216,"longitude":-53.0116,"populacao_2025":5842,"ranking_ms":69,"participacao_ms_pct":0.1997516951711173,"faixa_populacional":"Até 9.999 habitantes","siafi_id":1196,"ddd":67,"fuso_horario":"America/Porto_Velho","camada_origem":"municipios_sedes","estado_captura":"capturado_localmente","data_compilacao":"2026-08-05","natureza_registro":"evidencia_documentada","localizacao_status":"localizada","source_id":"SRC-e05d5cf87e893d87","validacao_documental":"realizada","validacao_espacial":"parcial","validacao_institucional":"parcial","validacao_campo":"nao_realizada","validacao_comunitaria":"nao_realizada","validation_next":"dados_insuficientes","publicacao_status":"publico","evl_schema_version":"1.0","trace_id":"TRC-EVL-054db403a2734d85dc8c8ca4"},"geometry":{"coordinates":[-53.0116,-19.0216],"type":"Point"}},{"type":"Feature","properties":{"codigo_ibge":5006408,"nome_oficial":"Pedro Gomes","latitude":-18.0996,"longitude":-54.5507,"populacao_2025":6910,"ranking_ms":67,"participacao_ms_pct":0.2362691224978467,"faixa_populacional":"Até 9.999 habitantes","siafi_id":9127,"ddd":67,"fuso_horario":"America/Porto_Velho","camada_origem":"municipios_sedes","estado_captura":"capturado_localmente","data_compilacao":"2026-08-05","natureza_registro":"evidencia_documentada","localizacao_status":"localizada","source_id":"SRC-e05d5cf87e893d87","validacao_documental":"realizada","validacao_espacial":"parcial","validacao_institucional":"parcial","validacao_campo":"nao_realizada","validacao_comunitaria":"nao_realizada","validation_next":"dados_insuficientes","publicacao_status":"publico","evl_schema_version":"1.0","trace_id":"TRC-EVL-0da7d37f8ab09db91c9693b1"},"geometry":{"coordinates":[-54.5507,-18.0996],"type":"Point"}},{"type":"Feature","properties":{"codigo_ibge":5007307,"nome_oficial":"Rio Negro","latitude":-19.447,"longitude":-54.9859,"populacao_2025":4921,"ranking_ms":73,"participacao_ms_pct":0.1682605429539658,"faixa_populacional":"Até 9.999 habitantes","siafi_id":9145,"ddd":67,"fuso_horario":"America/Porto_Velho","camada_origem":"municipios_sedes","estado_captura":"capturado_localmente","data_compilacao":"2026-08-05","natureza_registro":"evidencia_documentada","localizacao_status":"localizada","source_id":"SRC-e05d5cf87e893d87","validacao_documental":"realizada","validacao_espacial":"parcial","validacao_institucional":"parcial","validacao_campo":"nao_realizada","validacao_comunitaria":"nao_realizada","validation_next":"dados_insuficientes","publicacao_status":"publico","evl_schema_version":"1.0","trace_id":"TRC-EVL-59fa3e36c6c98b94ddf7bd02"},"geometry":{"coordinates":[-54.9859,-19.447],"type":"Point"}},{"type":"Feature","properties":{"codigo_ibge":5007505,"nome_oficial":"Rochedo","latitude":-19.9565,"longitude":-54.8848,"populacao_2025":5451,"ranking_ms":71,"participacao_ms_pct":0.1863824872265937,"faixa_populacional":"Até 9.999 habitantes","siafi_id":9149,"ddd":67,"fuso_horario":"America/Porto_Velho","camada_origem":"municipios_sedes","estado_captura":"capturado_localmente","data_compilacao":"2026-08-05","natureza_registro":"evidencia_documentada","localizacao_status":"localizada","source_id":"SRC-e05d5cf87e893d87","validacao_documental":"realizada","validacao_espacial":"parcial","validacao_institucional":"parcial","validacao_campo":"nao_realizada","validacao_comunitaria":"nao_realizada","validation_next":"dados_insuficientes","publicacao_status":"publico","evl_schema_version":"1.0","trace_id":"TRC-EVL-1c76f2528321e54e6522f44c"},"geometry":{"coordinates":[-54.8848,-19.9565],"type":"Point"}},{"type":"Feature","properties":{"codigo_ibge":5007554,"nome_oficial":"Santa Rita do Pardo","latitude":-21.3016,"longitude":-52.8333,"populacao_2025":7165,"ranking_ms":64,"participacao_ms_pct":0.2449881711573186,"faixa_populacional":"Até 9.999 habitantes","siafi_id":9745,"ddd":67,"fuso_horario":"America/Porto_Velho","camada_origem":"municipios_sedes","estado_captura":"capturado_localmente","data_compilacao":"2026-08-05","natureza_registro":"evidencia_documentada","localizacao_status":"localizada","source_id":"SRC-e05d5cf87e893d87","validacao_documental":"realizada","validacao_espacial":"parcial","validacao_institucional":"parcial","validacao_campo":"nao_realizada","validacao_comunitaria":"nao_realizada","validation_next":"dados_insuficientes","publicacao_status":"publico","evl_schema_version":"1.0","trace_id":"TRC-EVL-d152202c713ea115614d7663"},"geometry":{"coordinates":[-52.8333,-21.3016],"type":"Point"}},{"type":"Feature","properties":{"codigo_ibge":5007802,"nome_oficial":"Selvíria","latitude":-20.3637,"longitude":-51.4192,"populacao_2025":8716,"ranking_ms":59,"participacao_ms_pct":0.2980205024155184,"faixa_populacional":"Até 9.999 habitantes","siafi_id":9811,"ddd":67,"fuso_horario":"America/Porto_Velho","camada_origem":"municipios_sedes","estado_captura":"capturado_localmente","data_compilacao":"2026-08-05","natureza_registro":"evidencia_documentada","localizacao_status":"localizada","source_id":"SRC-e05d5cf87e893d87","validacao_documental":"realizada","validacao_espacial":"parcial","validacao_institucional":"parcial","validacao_campo":"nao_realizada","validacao_comunitaria":"nao_realizada","validation_next":"dados_insuficientes","publicacao_status":"publico","evl_schema_version":"1.0","trace_id":"TRC-EVL-53bd0f29e184313f37721696"},"geometry":{"coordinates":[-51.4192,-20.3637],"type":"Point"}},{"type":"Feature","properties":{"codigo_ibge":5007976,"nome_oficial":"Taquarussu","latitude":-22.4898,"longitude":-53.3519,"populacao_2025":3740,"ranking_ms":78,"participacao_ms_pct":0.1278793803389214,"faixa_populacional":"Até 9.999 habitantes","siafi_id":9817,"ddd":67,"fuso_horario":"America/Porto_Velho","camada_origem":"municipios_sedes","estado_captura":"capturado_localmente","data_compilacao":"2026-08-05","natureza_registro":"evidencia_documentada","localizacao_status":"localizada","source_id":"SRC-e05d5cf87e893d87","validacao_documental":"realizada","validacao_espacial":"parcial","validacao_institucional":"parcial","validacao_campo":"nao_realizada","validacao_comunitaria":"nao_realizada","validation_next":"dados_insuficientes","publicacao_status":"publico","evl_schema_version":"1.0","trace_id":"TRC-EVL-6a8ae80575f6ab8b0ae578f5"},"geometry":{"coordinates":[-53.3519,-22.4898],"type":"Point"}},{"type":"Feature","properties":{"codigo_ibge":5008404,"nome_oficial":"Vicentina","latitude":-22.4098,"longitude":-54.4415,"populacao_2025":6505,"ranking_ms":68,"participacao_ms_pct":0.2224212216857442,"faixa_populacional":"Até 9.999 habitantes","siafi_id":9187,"ddd":67,"fuso_horario":"America/Porto_Velho","camada_origem":"municipios_sedes","estado_captura":"capturado_localmente","data_compilacao":"2026-08-05","natureza_registro":"evidencia_documentada","localizacao_status":"localizada","source_id":"SRC-e05d5cf87e893d87","validacao_documental":"realizada","validacao_espacial":"parcial","validacao_institucional":"parcial","validacao_campo":"nao_realizada","validacao_comunitaria":"nao_realizada","validation_next":"dados_insuficientes","publicacao_status":"publico","evl_schema_version":"1.0","trace_id":"TRC-EVL-59cb66f2777e64a00ea682ed"},"geometry":{"coordinates":[-54.4415,-22.4098],"type":"Point"}},{"type":"Feature","properties":{"codigo_ibge":5000856,"nome_oficial":"Angélica","latitude":-22.1527,"longitude":-53.7708,"populacao_2025":11308,"ranking_ms":50,"participacao_ms_pct":0.386647067612974,"faixa_populacional":"De 10.000 a 19.999 habitantes","siafi_id":9169,"ddd":67,"fuso_horario":"America/Porto_Velho","camada_origem":"municipios_sedes","estado_captura":"capturado_localmente","data_compilacao":"2026-08-05","natureza_registro":"evidencia_documentada","localizacao_status":"localizada","source_id":"SRC-e05d5cf87e893d87","validacao_documental":"realizada","validacao_espacial":"parcial","validacao_institucional":"parcial","validacao_campo":"nao_realizada","validacao_comunitaria":"nao_realizada","validation_next":"dados_insuficientes","publicacao_status":"publico","evl_schema_version":"1.0","trace_id":"TRC-EVL-05f15dbf6d977835bb45e10c"},"geometry":{"coordinates":[-53.7708,-22.1527],"type":"Point"}},{"type":"Feature","properties":{"codigo_ibge":5001243,"nome_oficial":"Aral Moreira","latitude":-22.9385,"longitude":-55.6334,"populacao_2025":11125,"ranking_ms":52,"participacao_ms_pct":0.3803898679867648,"faixa_populacional":"De 10.000 a 19.999 habitantes","siafi_id":9171,"ddd":67,"fuso_horario":"America/Porto_Velho","camada_origem":"municipios_sedes","estado_captura":"capturado_localmente","data_compilacao":"2026-08-05","natureza_registro":"evidencia_documentada","localizacao_status":"localizada","source_id":"SRC-e05d5cf87e893d87","validacao_documental":"realizada","validacao_espacial":"parcial","validacao_institucional":"parcial","validacao_campo":"nao_realizada","validacao_comunitaria":"nao_realizada","validation_next":"dados_insuficientes","publicacao_status":"publico","evl_schema_version":"1.0","trace_id":"TRC-EVL-0bcabe1da9fe4d664184f9fa"},"geometry":{"coordinates":[-55.6334,-22.9385],"type":"Point"}},{"type":"Feature","properties":{"codigo_ibge":5002001,"nome_oficial":"Batayporã","latitude":-22.2944,"longitude":-53.2705,"populacao_2025":10947,"ranking_ms":53,"participacao_ms_pct":0.3743036300989766,"faixa_populacional":"De 10.000 a 19.999 habitantes","siafi_id":9039,"ddd":67,"fuso_horario":"America/Porto_Velho","camada_origem":"municipios_sedes","estado_captura":"capturado_localmente","data_compilacao":"2026-08-05","natureza_registro":"evidencia_documentada","localizacao_status":"localizada","source_id":"SRC-e05d5cf87e893d87","validacao_documental":"realizada","validacao_espacial":"parcial","validacao_institucional":"parcial","validacao_campo":"nao_realizada","validacao_comunitaria":"nao_realizada","validation_next":"dados_insuficientes","publicacao_status":"publico","evl_schema_version":"1.0","trace_id":"TRC-EVL-12c72ea7d0b21ea5274091ad"},"geometry":{"coordinates":[-53.2705,-22.2944],"type":"Point"}},{"type":"Feature","properties":{"codigo_ibge":5002308,"nome_oficial":"Brasilândia","latitude":-21.2544,"longitude":-52.0365,"populacao_2025":11833,"ranking_ms":46,"participacao_ms_pct":0.404598050147181,"faixa_populacional":"De 10.000 a 19.999 habitantes","siafi_id":9045,"ddd":67,"fuso_horario":"America/Porto_Velho","camada_origem":"municipios_sedes","estado_captura":"capturado_localmente","data_compilacao":"2026-08-05","natureza_registro":"evidencia_documentada","localizacao_status":"localizada","source_id":"SRC-e05d5cf87e893d87","validacao_documental":"realizada","validacao_espacial":"parcial","validacao_institucional":"parcial","validacao_campo":"nao_realizada","validacao_comunitaria":"nao_realizada","validation_next":"dados_insuficientes","publicacao_status":"publico","evl_schema_version":"1.0","trace_id":"TRC-EVL-b1437a294b5a2a0e53a986aa"},"geometry":{"coordinates":[-52.0365,-21.2544],"type":"Point"}},{"type":"Feature","properties":{"codigo_ibge":5002605,"nome_oficial":"Camapuã","latitude":-19.5347,"longitude":-54.0431,"populacao_2025":13928,"ranking_ms":42,"participacao_ms_pct":0.4762310185455874,"faixa_populacional":"De 10.000 a 19.999 habitantes","siafi_id":9049,"ddd":67,"fuso_horario":"America/Porto_Velho","camada_origem":"municipios_sedes","estado_captura":"capturado_localmente","data_compilacao":"2026-08-05","natureza_registro":"evidencia_documentada","localizacao_status":"localizada","source_id":"SRC-e05d5cf87e893d87","validacao_documental":"realizada","validacao_espacial":"parcial","validacao_institucional":"parcial","validacao_campo":"nao_realizada","validacao_comunitaria":"nao_realizada","validation_next":"dados_insuficientes","publicacao_status":"publico","evl_schema_version":"1.0","trace_id":"TRC-EVL-01d28a4632b2de576cd9d9f1"},"geometry":{"coordinates":[-54.0431,-19.5347],"type":"Point"}},{"type":"Feature","properties":{"codigo_ibge":5003157,"nome_oficial":"Coronel Sapucaia","latitude":-23.2724,"longitude":-55.5278,"populacao_2025":14685,"ranking_ms":39,"participacao_ms_pct":0.5021146257425296,"faixa_populacional":"De 10.000 a 19.999 habitantes","siafi_id":9997,"ddd":67,"fuso_horario":"America/Porto_Velho","camada_origem":"municipios_sedes","estado_captura":"capturado_localmente","data_compilacao":"2026-08-05","natureza_registro":"evidencia_documentada","localizacao_status":"localizada","source_id":"SRC-e05d5cf87e893d87","validacao_documental":"realizada","validacao_espacial":"parcial","validacao_institucional":"parcial","validacao_campo":"nao_realizada","validacao_comunitaria":"nao_realizada","validation_next":"dados_insuficientes","publicacao_status":"publico","evl_schema_version":"1.0","trace_id":"TRC-EVL-9c2c2f4debcb0181fbacc3c9"},"geometry":{"coordinates":[-55.5278,-23.2724],"type":"Point"}},{"type":"Feature","properties":{"codigo_ibge":5003454,"nome_oficial":"Deodápolis","latitude":-22.2763,"longitude":-54.1682,"populacao_2025":14317,"ranking_ms":40,"participacao_ms_pct":0.4895318417947427,"faixa_populacional":"De 10.000 a 19.999 habitantes","siafi_id":9175,"ddd":67,"fuso_horario":"America/Porto_Velho","camada_origem":"municipios_sedes","estado_captura":"capturado_localmente","data_compilacao":"2026-08-05","natureza_registro":"evidencia_documentada","localizacao_status":"localizada","source_id":"SRC-e05d5cf87e893d87","validacao_documental":"realizada","validacao_espacial":"parcial","validacao_institucional":"parcial","validacao_campo":"nao_realizada","validacao_comunitaria":"nao_realizada","validation_next":"dados_insuficientes","publicacao_status":"publico","evl_schema_version":"1.0","trace_id":"TRC-EVL-df33aebf17121b81c53c5c85"},"geometry":{"coordinates":[-54.1682,-22.2763],"type":"Point"}},{"type":"Feature","properties":{"codigo_ibge":5003488,"nome_oficial":"Dois Irmãos do Buriti","latitude":-20.6848,"longitude":-55.2915,"populacao_2025":11521,"ranking_ms":48,"participacao_ms_pct":0.3939300376697094,"faixa_populacional":"De 10.000 a 19.999 habitantes","siafi_id":9793,"ddd":67,"fuso_horario":"America/Porto_Velho","camada_origem":"municipios_sedes","estado_captura":"capturado_localmente","data_compilacao":"2026-08-05","natureza_registro":"evidencia_documentada","localizacao_status":"localizada","source_id":"SRC-e05d5cf87e893d87","validacao_documental":"realizada","validacao_espacial":"parcial","validacao_institucional":"parcial","validacao_campo":"nao_realizada","validacao_comunitaria":"nao_realizada","validation_next":"dados_insuficientes","publicacao_status":"publico","evl_schema_version":"1.0","trace_id":"TRC-EVL-07611628110b8f7d7feb46ee"},"geometry":{"coordinates":[-55.2915,-20.6848],"type":"Point"}},{"type":"Feature","properties":{"codigo_ibge":5003751,"nome_oficial":"Eldorado","latitude":-23.7868,"longitude":-54.2838,"populacao_2025":11622,"ranking_ms":47,"participacao_ms_pct":0.397383464785814,"faixa_populacional":"De 10.000 a 19.999 habitantes","siafi_id":9173,"ddd":67,"fuso_horario":"America/Porto_Velho","camada_origem":"municipios_sedes","estado_captura":"capturado_localmente","data_compilacao":"2026-08-05","natureza_registro":"evidencia_documentada","localizacao_status":"localizada","source_id":"SRC-e05d5cf87e893d87","validacao_documental":"realizada","validacao_espacial":"parcial","validacao_institucional":"parcial","validacao_campo":"nao_realizada","validacao_comunitaria":"nao_realizada","validation_next":"dados_insuficientes","publicacao_status":"publico","evl_schema_version":"1.0","trace_id":"TRC-EVL-2dea3354ae4236efe6b770c9"},"geometry":{"coordinates":[-54.2838,-23.7868],"type":"Point"}},{"type":"Feature","properties":{"codigo_ibge":5004007,"nome_oficial":"Glória de Dourados","latitude":-22.4136,"longitude":-54.2335,"populacao_2025":10817,"ranking_ms":54,"participacao_ms_pct":0.3698586249000301,"faixa_populacional":"De 10.000 a 19.999 habitantes","siafi_id":9079,"ddd":67,"fuso_horario":"America/Porto_Velho","camada_origem":"municipios_sedes","estado_captura":"capturado_localmente","data_compilacao":"2026-08-05","natureza_registro":"evidencia_documentada","localizacao_status":"localizada","source_id":"SRC-e05d5cf87e893d87","validacao_documental":"realizada","validacao_espacial":"parcial","validacao_institucional":"parcial","validacao_campo":"nao_realizada","validacao_comunitaria":"nao_realizada","validation_next":"dados_insuficientes","publicacao_status":"publico","evl_schema_version":"1.0","trace_id":"TRC-EVL-b98b6995b7099f204ec91074"},"geometry":{"coordinates":[-54.2335,-22.4136],"type":"Point"}},{"type":"Feature","properties":{"codigo_ibge":5004106,"nome_oficial":"Guia Lopes da Laguna","latitude":-21.4583,"longitude":-56.1117,"populacao_2025":10116,"ranking_ms":55,"participacao_ms_pct":0.3458897891734034,"faixa_populacional":"De 10.000 a 19.999 habitantes","siafi_id":9081,"ddd":67,"fuso_horario":"America/Porto_Velho","camada_origem":"municipios_sedes","estado_captura":"capturado_localmente","data_compilacao":"2026-08-05","natureza_registro":"evidencia_documentada","localizacao_status":"localizada","source_id":"SRC-e05d5cf87e893d87","validacao_documental":"realizada","validacao_espacial":"parcial","validacao_institucional":"parcial","validacao_campo":"nao_realizada","validacao_comunitaria":"nao_realizada","validation_next":"dados_insuficientes","publicacao_status":"publico","evl_schema_version":"1.0","trace_id":"TRC-EVL-999b25b123bbce70439ee34e"},"geometry":{"coordinates":[-56.1117,-21.4583],"type":"Point"}},{"type":"Feature","properties":{"codigo_ibge":5004304,"nome_oficial":"Iguatemi","latitude":-23.6736,"longitude":-54.5637,"populacao_2025":13960,"ranking_ms":41,"participacao_ms_pct":0.4773251736714819,"faixa_populacional":"De 10.000 a 19.999 habitantes","siafi_id":9085,"ddd":67,"fuso_horario":"America/Porto_Velho","camada_origem":"municipios_sedes","estado_captura":"capturado_localmente","data_compilacao":"2026-08-05","natureza_registro":"evidencia_documentada","localizacao_status":"localizada","source_id":"SRC-e05d5cf87e893d87","validacao_documental":"realizada","validacao_espacial":"parcial","validacao_institucional":"parcial","validacao_campo":"nao_realizada","validacao_comunitaria":"nao_realizada","validation_next":"dados_insuficientes","publicacao_status":"publico","evl_schema_version":"1.0","trace_id":"TRC-EVL-029b808a20ed2d26ec88e875"},"geometry":{"coordinates":[-54.5637,-23.6736],"type":"Point"}},{"type":"Feature","properties":{"codigo_ibge":5005806,"nome_oficial":"Nioaque","latitude":-21.1419,"longitude":-55.8296,"populacao_2025":13354,"ranking_ms":44,"participacao_ms_pct":0.4566046109748546,"faixa_populacional":"De 10.000 a 19.999 habitantes","siafi_id":9115,"ddd":67,"fuso_horario":"America/Porto_Velho","camada_origem":"municipios_sedes","estado_captura":"capturado_localmente","data_compilacao":"2026-08-05","natureza_registro":"evidencia_documentada","localizacao_status":"localizada","source_id":"SRC-e05d5cf87e893d87","validacao_documental":"realizada","validacao_espacial":"parcial","validacao_institucional":"parcial","validacao_campo":"nao_realizada","validacao_comunitaria":"nao_realizada","validation_next":"dados_insuficientes","publicacao_status":"publico","evl_schema_version":"1.0","trace_id":"TRC-EVL-d2060ba1226b89d5a6951c3e"},"geometry":{"coordinates":[-55.8296,-21.1419],"type":"Point"}},{"type":"Feature","properties":{"codigo_ibge":5006358,"nome_oficial":"Paranhos","latitude":-23.8911,"longitude":-55.429,"populacao_2025":13368,"ranking_ms":43,"participacao_ms_pct":0.4570833038424334,"faixa_populacional":"De 10.000 a 19.999 habitantes","siafi_id":9739,"ddd":67,"fuso_horario":"America/Porto_Velho","camada_origem":"municipios_sedes","estado_captura":"capturado_localmente","data_compilacao":"2026-08-05","natureza_registro":"evidencia_documentada","localizacao_status":"localizada","source_id":"SRC-e05d5cf87e893d87","validacao_documental":"realizada","validacao_espacial":"parcial","validacao_institucional":"parcial","validacao_campo":"nao_realizada","validacao_comunitaria":"nao_realizada","validation_next":"dados_insuficientes","publicacao_status":"publico","evl_schema_version":"1.0","trace_id":"TRC-EVL-e59d09714b4a8edd1a9320fe"},"geometry":{"coordinates":[-55.429,-23.8911],"type":"Point"}},{"type":"Feature","properties":{"codigo_ibge":5006903,"nome_oficial":"Porto Murtinho","latitude":-21.6981,"longitude":-57.8836,"populacao_2025":12721,"ranking_ms":45,"participacao_ms_pct":0.4349608548907537,"faixa_populacional":"De 10.000 a 19.999 habitantes","siafi_id":9137,"ddd":67,"fuso_horario":"America/Porto_Velho","camada_origem":"municipios_sedes","estado_captura":"capturado_localmente","data_compilacao":"2026-08-05","natureza_registro":"evidencia_documentada","localizacao_status":"localizada","source_id":"SRC-e05d5cf87e893d87","validacao_documental":"realizada","validacao_espacial":"parcial","validacao_institucional":"parcial","validacao_campo":"nao_realizada","validacao_comunitaria":"nao_realizada","validation_next":"dados_insuficientes","publicacao_status":"publico","evl_schema_version":"1.0","trace_id":"TRC-EVL-e17bf0c53e43971a3cc04878"},"geometry":{"coordinates":[-57.8836,-21.6981],"type":"Point"}},{"type":"Feature","properties":{"codigo_ibge":5007703,"nome_oficial":"Sete Quedas","latitude":-23.9705,"longitude":-55.0398,"populacao_2025":11322,"ranking_ms":49,"participacao_ms_pct":0.3871257604805529,"faixa_populacional":"De 10.000 a 19.999 habitantes","siafi_id":9813,"ddd":67,"fuso_horario":"America/Porto_Velho","camada_origem":"municipios_sedes","estado_captura":"capturado_localmente","data_compilacao":"2026-08-05","natureza_registro":"evidencia_documentada","localizacao_status":"localizada","source_id":"SRC-e05d5cf87e893d87","validacao_documental":"realizada","validacao_espacial":"parcial","validacao_institucional":"parcial","validacao_campo":"nao_realizada","validacao_comunitaria":"nao_realizada","validation_next":"dados_insuficientes","publicacao_status":"publico","evl_schema_version":"1.0","trace_id":"TRC-EVL-52057d09df1f17850a932369"},"geometry":{"coordinates":[-55.0398,-23.9705],"type":"Point"}},{"type":"Feature","properties":{"codigo_ibge":5007935,"nome_oficial":"Sonora","latitude":-17.5698,"longitude":-54.7551,"populacao_2025":14813,"ranking_ms":38,"participacao_ms_pct":0.5064912462461076,"faixa_populacional":"De 10.000 a 19.999 habitantes","siafi_id":9757,"ddd":67,"fuso_horario":"America/Porto_Velho","camada_origem":"municipios_sedes","estado_captura":"capturado_localmente","data_compilacao":"2026-08-05","natureza_registro":"evidencia_documentada","localizacao_status":"localizada","source_id":"SRC-e05d5cf87e893d87","validacao_documental":"realizada","validacao_espacial":"parcial","validacao_institucional":"parcial","validacao_campo":"nao_realizada","validacao_comunitaria":"nao_realizada","validation_next":"dados_insuficientes","publicacao_status":"publico","evl_schema_version":"1.0","trace_id":"TRC-EVL-757c087b509fb98e5f0bf398"},"geometry":{"coordinates":[-54.7551,-17.5698],"type":"Point"}},{"type":"Feature","properties":{"codigo_ibge":5007950,"nome_oficial":"Tacuru","latitude":-23.636,"longitude":-55.0141,"populacao_2025":11205,"ranking_ms":51,"participacao_ms_pct":0.3831252558015011,"faixa_populacional":"De 10.000 a 19.999 habitantes","siafi_id":9815,"ddd":67,"fuso_horario":"America/Porto_Velho","camada_origem":"municipios_sedes","estado_captura":"capturado_localmente","data_compilacao":"2026-08-05","natureza_registro":"evidencia_documentada","localizacao_status":"localizada","source_id":"SRC-e05d5cf87e893d87","validacao_documental":"realizada","validacao_espacial":"parcial","validacao_institucional":"parcial","validacao_campo":"nao_realizada","validacao_comunitaria":"nao_realizada","validation_next":"dados_insuficientes","publicacao_status":"publico","evl_schema_version":"1.0","trace_id":"TRC-EVL-bb6bd18ca558994aabb3eb8e"},"geometry":{"coordinates":[-55.0141,-23.636],"type":"Point"}},{"type":"Feature","properties":{"codigo_ibge":5008008,"nome_oficial":"Terenos","latitude":-20.4378,"longitude":-54.8647,"populacao_2025":18182,"ranking_ms":36,"participacao_ms_pct":0.6216852655941895,"faixa_populacional":"De 10.000 a 19.999 habitantes","siafi_id":9159,"ddd":67,"fuso_horario":"America/Porto_Velho","camada_origem":"municipios_sedes","estado_captura":"capturado_localmente","data_compilacao":"2026-08-05","natureza_registro":"evidencia_documentada","localizacao_status":"localizada","source_id":"SRC-e05d5cf87e893d87","validacao_documental":"realizada","validacao_espacial":"parcial","validacao_institucional":"parcial","validacao_campo":"nao_realizada","validacao_comunitaria":"nao_realizada","validation_next":"dados_insuficientes","publicacao_status":"publico","evl_schema_version":"1.0","trace_id":"TRC-EVL-cb321575a9c599418f8a6d38"},"geometry":{"coordinates":[-54.8647,-20.4378],"type":"Point"}},{"type":"Feature","properties":{"codigo_ibge":5000203,"nome_oficial":"Água Clara","latitude":-20.4452,"longitude":-52.879,"populacao_2025":17901,"ranking_ms":37,"participacao_ms_pct":0.6120772158949283,"faixa_populacional":"De 10.000 a 19.999 habitantes","siafi_id":9003,"ddd":67,"fuso_horario":"America/Porto_Velho","camada_origem":"municipios_sedes","estado_captura":"capturado_localmente","data_compilacao":"2026-08-05","natureza_registro":"evidencia_documentada","localizacao_status":"localizada","source_id":"SRC-e05d5cf87e893d87","validacao_documental":"realizada","validacao_espacial":"parcial","validacao_institucional":"parcial","validacao_campo":"nao_realizada","validacao_comunitaria":"nao_realizada","validation_next":"dados_insuficientes","publicacao_status":"publico","evl_schema_version":"1.0","trace_id":"TRC-EVL-068535c35d192cca61f71960"},"geometry":{"coordinates":[-52.879,-20.4452],"type":"Point"}},{"type":"Feature","properties":{"codigo_ibge":5003702,"nome_oficial":"Dourados","latitude":-22.2231,"longitude":-54.812,"populacao_2025":264017,"ranking_ms":2,"participacao_ms_pct":9.027361058540375,"faixa_populacional":"De 100.000 a 299.999 habitantes","siafi_id":9073,"ddd":67,"fuso_horario":"America/Porto_Velho","camada_origem":"municipios_sedes","estado_captura":"capturado_localmente","data_compilacao":"2026-08-05","natureza_registro":"evidencia_documentada","localizacao_status":"localizada","source_id":"SRC-e05d5cf87e893d87","validacao_documental":"realizada","validacao_espacial":"parcial","validacao_institucional":"parcial","validacao_campo":"nao_realizada","validacao_comunitaria":"nao_realizada","validation_next":"dados_insuficientes","publicacao_status":"publico","evl_schema_version":"1.0","trace_id":"TRC-EVL-1b5c0984e623e0d4f56fdf83"},"geometry":{"coordinates":[-54.812,-22.2231],"type":"Point"}},{"type":"Feature","properties":{"codigo_ibge":5008305,"nome_oficial":"Três Lagoas","latitude":-20.7849,"longitude":-51.7007,"populacao_2025":143523,"ranking_ms":3,"participacao_ms_pct":4.907388316679951,"faixa_populacional":"De 100.000 a 299.999 habitantes","siafi_id":9165,"ddd":67,"fuso_horario":"America/Porto_Velho","camada_origem":"municipios_sedes","estado_captura":"capturado_localmente","data_compilacao":"2026-08-05","natureza_registro":"evidencia_documentada","localizacao_status":"localizada","source_id":"SRC-e05d5cf87e893d87","validacao_documental":"realizada","validacao_espacial":"parcial","validacao_institucional":"parcial","validacao_campo":"nao_realizada","validacao_comunitaria":"nao_realizada","validation_next":"dados_insuficientes","publicacao_status":"publico","evl_schema_version":"1.0","trace_id":"TRC-EVL-fcc435d52228e90a9c17c8f8"},"geometry":{"coordinates":[-51.7007,-20.7849],"type":"Point"}},{"type":"Feature","properties":{"codigo_ibge":5000609,"nome_oficial":"Amambai","latitude":-23.1058,"longitude":-55.2253,"populacao_2025":41751,"ranking_ms":12,"participacao_ms_pct":1.4275647081631837,"faixa_populacional":"De 20.000 a 49.999 habitantes","siafi_id":9011,"ddd":67,"fuso_horario":"America/Porto_Velho","camada_origem":"municipios_sedes","estado_captura":"capturado_localmente","data_compilacao":"2026-08-05","natureza_registro":"evidencia_documentada","localizacao_status":"localizada","source_id":"SRC-e05d5cf87e893d87","validacao_documental":"realizada","validacao_espacial":"parcial","validacao_institucional":"parcial","validacao_campo":"nao_realizada","validacao_comunitaria":"nao_realizada","validation_next":"dados_insuficientes","publicacao_status":"publico","evl_schema_version":"1.0","trace_id":"TRC-EVL-19e1ca1c9fbd2b674222af5e"},"geometry":{"coordinates":[-55.2253,-23.1058],"type":"Point"}},{"type":"Feature","properties":{"codigo_ibge":5000708,"nome_oficial":"Anastácio","latitude":-20.4823,"longitude":-55.8104,"populacao_2025":24781,"ranking_ms":24,"participacao_ms_pct":0.847320567962249,"faixa_populacional":"De 20.000 a 49.999 habitantes","siafi_id":9013,"ddd":67,"fuso_horario":"America/Porto_Velho","camada_origem":"municipios_sedes","estado_captura":"capturado_localmente","data_compilacao":"2026-08-05","natureza_registro":"evidencia_documentada","localizacao_status":"localizada","source_id":"SRC-e05d5cf87e893d87","validacao_documental":"realizada","validacao_espacial":"parcial","validacao_institucional":"parcial","validacao_campo":"nao_realizada","validacao_comunitaria":"nao_realizada","validation_next":"dados_insuficientes","publicacao_status":"publico","evl_schema_version":"1.0","trace_id":"TRC-EVL-090429c5f7c5428585ad1b55"},"geometry":{"coordinates":[-55.8104,-20.4823],"type":"Point"}},{"type":"Feature","properties":{"codigo_ibge":5001003,"nome_oficial":"Aparecida do Taboado","latitude":-20.0873,"longitude":-51.0961,"populacao_2025":29826,"ranking_ms":19,"participacao_ms_pct":1.019820962029056,"faixa_populacional":"De 20.000 a 49.999 habitantes","siafi_id":9019,"ddd":67,"fuso_horario":"America/Porto_Velho","camada_origem":"municipios_sedes","estado_captura":"capturado_localmente","data_compilacao":"2026-08-05","natureza_registro":"evidencia_documentada","localizacao_status":"localizada","source_id":"SRC-e05d5cf87e893d87","validacao_documental":"realizada","validacao_espacial":"parcial","validacao_institucional":"parcial","validacao_campo":"nao_realizada","validacao_comunitaria":"nao_realizada","validation_next":"dados_insuficientes","publicacao_status":"publico","evl_schema_version":"1.0","trace_id":"TRC-EVL-0335e24dba41b45ae83d1cbe"},"geometry":{"coordinates":[-51.0961,-20.0873],"type":"Point"}},{"type":"Feature","properties":{"codigo_ibge":5001102,"nome_oficial":"Aquidauana","latitude":-20.4666,"longitude":-55.7868,"populacao_2025":48689,"ranking_ms":9,"participacao_ms_pct":1.664791216396188,"faixa_populacional":"De 20.000 a 49.999 habitantes","siafi_id":9021,"ddd":67,"fuso_horario":"America/Porto_Velho","camada_origem":"municipios_sedes","estado_captura":"capturado_localmente","data_compilacao":"2026-08-05","natureza_registro":"evidencia_documentada","localizacao_status":"localizada","source_id":"SRC-e05d5cf87e893d87","validacao_documental":"realizada","validacao_espacial":"parcial","validacao_institucional":"parcial","validacao_campo":"nao_realizada","validacao_comunitaria":"nao_realizada","validation_next":"dados_insuficientes","publicacao_status":"publico","evl_schema_version":"1.0","trace_id":"TRC-EVL-c998ce768cd97946370d765f"},"geometry":{"coordinates":[-55.7868,-20.4666],"type":"Point"}},{"type":"Feature","properties":{"codigo_ibge":5001904,"nome_oficial":"Bataguassu","latitude":-21.7159,"longitude":-52.4221,"populacao_2025":24222,"ranking_ms":26,"participacao_ms_pct":0.8282070456067792,"faixa_populacional":"De 20.000 a 49.999 habitantes","siafi_id":9037,"ddd":67,"fuso_horario":"America/Porto_Velho","camada_origem":"municipios_sedes","estado_captura":"capturado_localmente","data_compilacao":"2026-08-05","natureza_registro":"evidencia_documentada","localizacao_status":"localizada","source_id":"SRC-e05d5cf87e893d87","validacao_documental":"realizada","validacao_espacial":"parcial","validacao_institucional":"parcial","validacao_campo":"nao_realizada","validacao_comunitaria":"nao_realizada","validation_next":"dados_insuficientes","publicacao_status":"publico","evl_schema_version":"1.0","trace_id":"TRC-EVL-aa32ed9d3efa6e6492123160"},"geometry":{"coordinates":[-52.4221,-21.7159],"type":"Point"}},{"type":"Feature","properties":{"codigo_ibge":5002100,"nome_oficial":"Bela Vista","latitude":-22.1073,"longitude":-56.5263,"populacao_2025":21881,"ranking_ms":30,"participacao_ms_pct":0.7481627596780586,"faixa_populacional":"De 20.000 a 49.999 habitantes","siafi_id":9041,"ddd":67,"fuso_horario":"America/Porto_Velho","camada_origem":"municipios_sedes","estado_captura":"capturado_localmente","data_compilacao":"2026-08-05","natureza_registro":"evidencia_documentada","localizacao_status":"localizada","source_id":"SRC-e05d5cf87e893d87","validacao_documental":"realizada","validacao_espacial":"parcial","validacao_institucional":"parcial","validacao_campo":"nao_realizada","validacao_comunitaria":"nao_realizada","validation_next":"dados_insuficientes","publicacao_status":"publico","evl_schema_version":"1.0","trace_id":"TRC-EVL-7247679176e395846f991f29"},"geometry":{"coordinates":[-56.5263,-22.1073],"type":"Point"}},{"type":"Feature","properties":{"codigo_ibge":5002209,"nome_oficial":"Bonito","latitude":-21.1261,"longitude":-56.4836,"populacao_2025":25034,"ranking_ms":23,"participacao_ms_pct":0.8559712319263524,"faixa_populacional":"De 20.000 a 49.999 habitantes","siafi_id":9043,"ddd":67,"fuso_horario":"America/Porto_Velho","camada_origem":"municipios_sedes","estado_captura":"capturado_localmente","data_compilacao":"2026-08-05","natureza_registro":"evidencia_documentada","localizacao_status":"localizada","source_id":"SRC-e05d5cf87e893d87","validacao_documental":"realizada","validacao_espacial":"parcial","validacao_institucional":"parcial","validacao_campo":"nao_realizada","validacao_comunitaria":"nao_realizada","validation_next":"dados_insuficientes","publicacao_status":"publico","evl_schema_version":"1.0","trace_id":"TRC-EVL-aea2951ae9890e353a1572e8"},"geometry":{"coordinates":[-56.4836,-21.1261],"type":"Point"}},{"type":"Feature","properties":{"codigo_ibge":5002407,"nome_oficial":"Caarapó","latitude":-22.6368,"longitude":-54.8209,"populacao_2025":32748,"ranking_ms":16,"participacao_ms_pct":1.1197310019622988,"faixa_populacional":"De 20.000 a 49.999 habitantes","siafi_id":9055,"ddd":67,"fuso_horario":"America/Porto_Velho","camada_origem":"municipios_sedes","estado_captura":"capturado_localmente","data_compilacao":"2026-08-05","natureza_registro":"evidencia_documentada","localizacao_status":"localizada","source_id":"SRC-e05d5cf87e893d87","validacao_documental":"realizada","validacao_espacial":"parcial","validacao_institucional":"parcial","validacao_campo":"nao_realizada","validacao_comunitaria":"nao_realizada","validation_next":"dados_insuficientes","publicacao_status":"publico","evl_schema_version":"1.0","trace_id":"TRC-EVL-6d202ebaa32b27040c367bc8"},"geometry":{"coordinates":[-54.8209,-22.6368],"type":"Point"}},{"type":"Feature","properties":{"codigo_ibge":5002902,"nome_oficial":"Cassilândia","latitude":-19.1179,"longitude":-51.7313,"populacao_2025":21565,"ranking_ms":31,"participacao_ms_pct":0.7373579778098502,"faixa_populacional":"De 20.000 a 49.999 habitantes","siafi_id":9057,"ddd":67,"fuso_horario":"America/Porto_Velho","camada_origem":"municipios_sedes","estado_captura":"capturado_localmente","data_compilacao":"2026-08-05","natureza_registro":"evidencia_documentada","localizacao_status":"localizada","source_id":"SRC-e05d5cf87e893d87","validacao_documental":"realizada","validacao_espacial":"parcial","validacao_institucional":"parcial","validacao_campo":"nao_realizada","validacao_comunitaria":"nao_realizada","validation_next":"dados_insuficientes","publicacao_status":"publico","evl_schema_version":"1.0","trace_id":"TRC-EVL-a55e41b68cec3fb5c949a8fe"},"geometry":{"coordinates":[-51.7313,-19.1179],"type":"Point"}},{"type":"Feature","properties":{"codigo_ibge":5002951,"nome_oficial":"Chapadão do Sul","latitude":-18.788,"longitude":-52.6263,"populacao_2025":34606,"ranking_ms":14,"participacao_ms_pct":1.183260383959549,"faixa_populacional":"De 20.000 a 49.999 habitantes","siafi_id":9787,"ddd":67,"fuso_horario":"America/Porto_Velho","camada_origem":"municipios_sedes","estado_captura":"capturado_localmente","data_compilacao":"2026-08-05","natureza_registro":"evidencia_documentada","localizacao_status":"localizada","source_id":"SRC-e05d5cf87e893d87","validacao_documental":"realizada","validacao_espacial":"parcial","validacao_institucional":"parcial","validacao_campo":"nao_realizada","validacao_comunitaria":"nao_realizada","validation_next":"dados_insuficientes","publicacao_status":"publico","evl_schema_version":"1.0","trace_id":"TRC-EVL-9c96e6eabad7253da9ec3c40"},"geometry":{"coordinates":[-52.6263,-18.788],"type":"Point"}},{"type":"Feature","properties":{"codigo_ibge":5003256,"nome_oficial":"Costa Rica","latitude":-18.5432,"longitude":-53.1287,"populacao_2025":28740,"ranking_ms":20,"participacao_ms_pct":0.9826880724440108,"faixa_populacional":"De 20.000 a 49.999 habitantes","siafi_id":9803,"ddd":67,"fuso_horario":"America/Porto_Velho","camada_origem":"municipios_sedes","estado_captura":"capturado_localmente","data_compilacao":"2026-08-05","natureza_registro":"evidencia_documentada","localizacao_status":"localizada","source_id":"SRC-e05d5cf87e893d87","validacao_documental":"realizada","validacao_espacial":"parcial","validacao_institucional":"parcial","validacao_campo":"nao_realizada","validacao_comunitaria":"nao_realizada","validation_next":"dados_insuficientes","publicacao_status":"publico","evl_schema_version":"1.0","trace_id":"TRC-EVL-cfcaeba62c314ef5e22d3e8f"},"geometry":{"coordinates":[-53.1287,-18.5432],"type":"Point"}},{"type":"Feature","properties":{"codigo_ibge":5003306,"nome_oficial":"Coxim","latitude":-18.5013,"longitude":-54.751,"populacao_2025":33440,"ranking_ms":15,"participacao_ms_pct":1.1433921065597676,"faixa_populacional":"De 20.000 a 49.999 habitantes","siafi_id":9065,"ddd":67,"fuso_horario":"America/Porto_Velho","camada_origem":"municipios_sedes","estado_captura":"capturado_localmente","data_compilacao":"2026-08-05","natureza_registro":"evidencia_documentada","localizacao_status":"localizada","source_id":"SRC-e05d5cf87e893d87","validacao_documental":"realizada","validacao_espacial":"parcial","validacao_institucional":"parcial","validacao_campo":"nao_realizada","validacao_comunitaria":"nao_realizada","validation_next":"dados_insuficientes","publicacao_status":"publico","evl_schema_version":"1.0","trace_id":"TRC-EVL-2111bc18fbc6036633a29b40"},"geometry":{"coordinates":[-54.751,-18.5013],"type":"Point"}},{"type":"Feature","properties":{"codigo_ibge":5003801,"nome_oficial":"Fátima do Sul","latitude":-22.3789,"longitude":-54.5131,"populacao_2025":21504,"ranking_ms":32,"participacao_ms_pct":0.7352722446011137,"faixa_populacional":"De 20.000 a 49.999 habitantes","siafi_id":9075,"ddd":67,"fuso_horario":"America/Porto_Velho","camada_origem":"municipios_sedes","estado_captura":"capturado_localmente","data_compilacao":"2026-08-05","natureza_registro":"evidencia_documentada","localizacao_status":"localizada","source_id":"SRC-e05d5cf87e893d87","validacao_documental":"realizada","validacao_espacial":"parcial","validacao_institucional":"parcial","validacao_campo":"nao_realizada","validacao_comunitaria":"nao_realizada","validation_next":"dados_insuficientes","publicacao_status":"publico","evl_schema_version":"1.0","trace_id":"TRC-EVL-1d9a4ae6c8e2c12b49ffdb4f"},"geometry":{"coordinates":[-54.5131,-22.3789],"type":"Point"}},{"type":"Feature","properties":{"codigo_ibge":5004502,"nome_oficial":"Itaporã","latitude":-22.08,"longitude":-54.7934,"populacao_2025":25263,"ranking_ms":22,"participacao_ms_pct":0.863801279546035,"faixa_populacional":"De 20.000 a 49.999 habitantes","siafi_id":9089,"ddd":67,"fuso_horario":"America/Porto_Velho","camada_origem":"municipios_sedes","estado_captura":"capturado_localmente","data_compilacao":"2026-08-05","natureza_registro":"evidencia_documentada","localizacao_status":"localizada","source_id":"SRC-e05d5cf87e893d87","validacao_documental":"realizada","validacao_espacial":"parcial","validacao_institucional":"parcial","validacao_campo":"nao_realizada","validacao_comunitaria":"nao_realizada","validation_next":"dados_insuficientes","publicacao_status":"publico","evl_schema_version":"1.0","trace_id":"TRC-EVL-d7e0c78d696d9792140e11ff"},"geometry":{"coordinates":[-54.7934,-22.08],"type":"Point"}},{"type":"Feature","properties":{"codigo_ibge":5004601,"nome_oficial":"Itaquiraí","latitude":-23.4779,"longitude":-54.187,"populacao_2025":20060,"ranking_ms":35,"participacao_ms_pct":0.6858984945451239,"faixa_populacional":"De 20.000 a 49.999 habitantes","siafi_id":9807,"ddd":67,"fuso_horario":"America/Porto_Velho","camada_origem":"municipios_sedes","estado_captura":"capturado_localmente","data_compilacao":"2026-08-05","natureza_registro":"evidencia_documentada","localizacao_status":"localizada","source_id":"SRC-e05d5cf87e893d87","validacao_documental":"realizada","validacao_espacial":"parcial","validacao_institucional":"parcial","validacao_campo":"nao_realizada","validacao_comunitaria":"nao_realizada","validation_next":"dados_insuficientes","publicacao_status":"publico","evl_schema_version":"1.0","trace_id":"TRC-EVL-a022faec97fc4e51ad592257"},"geometry":{"coordinates":[-54.187,-23.4779],"type":"Point"}},{"type":"Feature","properties":{"codigo_ibge":5004700,"nome_oficial":"Ivinhema","latitude":-22.3046,"longitude":-53.8184,"populacao_2025":30001,"ranking_ms":18,"participacao_ms_pct":1.0258046228737916,"faixa_populacional":"De 20.000 a 49.999 habitantes","siafi_id":9093,"ddd":67,"fuso_horario":"America/Porto_Velho","camada_origem":"municipios_sedes","estado_captura":"capturado_localmente","data_compilacao":"2026-08-05","natureza_registro":"evidencia_documentada","localizacao_status":"localizada","source_id":"SRC-e05d5cf87e893d87","validacao_documental":"realizada","validacao_espacial":"parcial","validacao_institucional":"parcial","validacao_campo":"nao_realizada","validacao_comunitaria":"nao_realizada","validation_next":"dados_insuficientes","publicacao_status":"publico","evl_schema_version":"1.0","trace_id":"TRC-EVL-a6e89b235f114f9a2ba18065"},"geometry":{"coordinates":[-53.8184,-22.3046],"type":"Point"}},{"type":"Feature","properties":{"codigo_ibge":5005004,"nome_oficial":"Jardim","latitude":-21.4799,"longitude":-56.1489,"populacao_2025":24504,"ranking_ms":25,"participacao_ms_pct":0.8378492876537245,"faixa_populacional":"De 20.000 a 49.999 habitantes","siafi_id":9099,"ddd":67,"fuso_horario":"America/Porto_Velho","camada_origem":"municipios_sedes","estado_captura":"capturado_localmente","data_compilacao":"2026-08-05","natureza_registro":"evidencia_documentada","localizacao_status":"localizada","source_id":"SRC-e05d5cf87e893d87","validacao_documental":"realizada","validacao_espacial":"parcial","validacao_institucional":"parcial","validacao_campo":"nao_realizada","validacao_comunitaria":"nao_realizada","validation_next":"dados_insuficientes","publicacao_status":"publico","evl_schema_version":"1.0","trace_id":"TRC-EVL-a78ff267f36b1a2c173ac951"},"geometry":{"coordinates":[-56.1489,-21.4799],"type":"Point"}},{"type":"Feature","properties":{"codigo_ibge":5005202,"nome_oficial":"Ladário","latitude":-19.0089,"longitude":-57.5973,"populacao_2025":22425,"ranking_ms":29,"participacao_ms_pct":0.7667633968182653,"faixa_populacional":"De 20.000 a 49.999 habitantes","siafi_id":9103,"ddd":67,"fuso_horario":"America/Porto_Velho","camada_origem":"municipios_sedes","estado_captura":"capturado_localmente","data_compilacao":"2026-08-05","natureza_registro":"evidencia_documentada","localizacao_status":"localizada","source_id":"SRC-e05d5cf87e893d87","validacao_documental":"realizada","validacao_espacial":"parcial","validacao_institucional":"parcial","validacao_campo":"nao_realizada","validacao_comunitaria":"nao_realizada","validation_next":"dados_insuficientes","publicacao_status":"publico","evl_schema_version":"1.0","trace_id":"TRC-EVL-1fd728a6a6a12b5b7e10dac3"},"geometry":{"coordinates":[-57.5973,-19.0089],"type":"Point"}},{"type":"Feature","properties":{"codigo_ibge":5005400,"nome_oficial":"Maracaju","latitude":-21.6105,"longitude":-55.1678,"populacao_2025":48073,"ranking_ms":10,"participacao_ms_pct":1.6437287302227186,"faixa_populacional":"De 20.000 a 49.999 habitantes","siafi_id":9107,"ddd":67,"fuso_horario":"America/Porto_Velho","camada_origem":"municipios_sedes","estado_captura":"capturado_localmente","data_compilacao":"2026-08-05","natureza_registro":"evidencia_documentada","localizacao_status":"localizada","source_id":"SRC-e05d5cf87e893d87","validacao_documental":"realizada","validacao_espacial":"parcial","validacao_institucional":"parcial","validacao_campo":"nao_realizada","validacao_comunitaria":"nao_realizada","validation_next":"dados_insuficientes","publicacao_status":"publico","evl_schema_version":"1.0","trace_id":"TRC-EVL-98e06dc05f43fb3d9e92ed34"},"geometry":{"coordinates":[-55.1678,-21.6105],"type":"Point"}},{"type":"Feature","properties":{"codigo_ibge":5005608,"nome_oficial":"Miranda","latitude":-20.2355,"longitude":-56.3746,"populacao_2025":26512,"ranking_ms":21,"participacao_ms_pct":0.9065075218036054,"faixa_populacional":"De 20.000 a 49.999 habitantes","siafi_id":9111,"ddd":67,"fuso_horario":"America/Porto_Velho","camada_origem":"municipios_sedes","estado_captura":"capturado_localmente","data_compilacao":"2026-08-05","natureza_registro":"evidencia_documentada","localizacao_status":"localizada","source_id":"SRC-e05d5cf87e893d87","validacao_documental":"realizada","validacao_espacial":"parcial","validacao_institucional":"parcial","validacao_campo":"nao_realizada","validacao_comunitaria":"nao_realizada","validation_next":"dados_insuficientes","publicacao_status":"publico","evl_schema_version":"1.0","trace_id":"TRC-EVL-ed319b7dcf32c5c5809f683d"},"geometry":{"coordinates":[-56.3746,-20.2355],"type":"Point"}},{"type":"Feature","properties":{"codigo_ibge":5005681,"nome_oficial":"Mundo Novo","latitude":-23.9355,"longitude":-54.281,"populacao_2025":20087,"ranking_ms":34,"participacao_ms_pct":0.6868216879325973,"faixa_populacional":"De 20.000 a 49.999 habitantes","siafi_id":9179,"ddd":67,"fuso_horario":"America/Porto_Velho","camada_origem":"municipios_sedes","estado_captura":"capturado_localmente","data_compilacao":"2026-08-05","natureza_registro":"evidencia_documentada","localizacao_status":"localizada","source_id":"SRC-e05d5cf87e893d87","validacao_documental":"realizada","validacao_espacial":"parcial","validacao_institucional":"parcial","validacao_campo":"nao_realizada","validacao_comunitaria":"nao_realizada","validation_next":"dados_insuficientes","publicacao_status":"publico","evl_schema_version":"1.0","trace_id":"TRC-EVL-eaccd1da307b0449f07afa2e"},"geometry":{"coordinates":[-54.281,-23.9355],"type":"Point"}},{"type":"Feature","properties":{"codigo_ibge":5006002,"nome_oficial":"Nova Alvorada do Sul","latitude":-21.4657,"longitude":-54.3825,"populacao_2025":23409,"ranking_ms":28,"participacao_ms_pct":0.8004086669395217,"faixa_populacional":"De 20.000 a 49.999 habitantes","siafi_id":143,"ddd":67,"fuso_horario":"America/Porto_Velho","camada_origem":"municipios_sedes","estado_captura":"capturado_localmente","data_compilacao":"2026-08-05","natureza_registro":"evidencia_documentada","localizacao_status":"localizada","source_id":"SRC-e05d5cf87e893d87","validacao_documental":"realizada","validacao_espacial":"parcial","validacao_institucional":"parcial","validacao_campo":"nao_realizada","validacao_comunitaria":"nao_realizada","validation_next":"dados_insuficientes","publicacao_status":"publico","evl_schema_version":"1.0","trace_id":"TRC-EVL-5693d76a28f58c26b4e62c90"},"geometry":{"coordinates":[-54.3825,-21.4657],"type":"Point"}},{"type":"Feature","properties":{"codigo_ibge":5006309,"nome_oficial":"Paranaíba","latitude":-19.6746,"longitude":-51.1909,"populacao_2025":42638,"ranking_ms":11,"participacao_ms_pct":1.4578933205590725,"faixa_populacional":"De 20.000 a 49.999 habitantes","siafi_id":9125,"ddd":67,"fuso_horario":"America/Porto_Velho","camada_origem":"municipios_sedes","estado_captura":"capturado_localmente","data_compilacao":"2026-08-05","natureza_registro":"evidencia_documentada","localizacao_status":"localizada","source_id":"SRC-e05d5cf87e893d87","validacao_documental":"realizada","validacao_espacial":"parcial","validacao_institucional":"parcial","validacao_campo":"nao_realizada","validacao_comunitaria":"nao_realizada","validation_next":"dados_insuficientes","publicacao_status":"publico","evl_schema_version":"1.0","trace_id":"TRC-EVL-4ffa053d2a8397b0c0721b37"},"geometry":{"coordinates":[-51.1909,-19.6746],"type":"Point"}},{"type":"Feature","properties":{"codigo_ibge":5007109,"nome_oficial":"Ribas do Rio Pardo","latitude":-20.4445,"longitude":-53.7588,"populacao_2025":24152,"ranking_ms":27,"participacao_ms_pct":0.8258135812688848,"faixa_populacional":"De 20.000 a 49.999 habitantes","siafi_id":9141,"ddd":67,"fuso_horario":"America/Porto_Velho","camada_origem":"municipios_sedes","estado_captura":"capturado_localmente","data_compilacao":"2026-08-05","natureza_registro":"evidencia_documentada","localizacao_status":"localizada","source_id":"SRC-e05d5cf87e893d87","validacao_documental":"realizada","validacao_espacial":"parcial","validacao_institucional":"parcial","validacao_campo":"nao_realizada","validacao_comunitaria":"nao_realizada","validation_next":"dados_insuficientes","publicacao_status":"publico","evl_schema_version":"1.0","trace_id":"TRC-EVL-1afc1d0f64788ffccde8bbf8"},"geometry":{"coordinates":[-53.7588,-20.4445],"type":"Point"}},{"type":"Feature","properties":{"codigo_ibge":5007208,"nome_oficial":"Rio Brilhante","latitude":-21.8033,"longitude":-54.5427,"populacao_2025":40419,"ranking_ms":13,"participacao_ms_pct":1.3820205010478246,"faixa_populacional":"De 20.000 a 49.999 habitantes","siafi_id":9143,"ddd":67,"fuso_horario":"America/Porto_Velho","camada_origem":"municipios_sedes","estado_captura":"capturado_localmente","data_compilacao":"2026-08-05","natureza_registro":"evidencia_documentada","localizacao_status":"localizada","source_id":"SRC-e05d5cf87e893d87","validacao_documental":"realizada","validacao_espacial":"parcial","validacao_institucional":"parcial","validacao_campo":"nao_realizada","validacao_comunitaria":"nao_realizada","validation_next":"dados_insuficientes","publicacao_status":"publico","evl_schema_version":"1.0","trace_id":"TRC-EVL-a124a9d01bc49b4a92b9b5b1"},"geometry":{"coordinates":[-54.5427,-21.8033],"type":"Point"}},{"type":"Feature","properties":{"codigo_ibge":5007406,"nome_oficial":"Rio Verde de Mato Grosso","latitude":-18.9249,"longitude":-54.8434,"populacao_2025":20454,"ranking_ms":33,"participacao_ms_pct":0.6993702795327,"faixa_populacional":"De 20.000 a 49.999 habitantes","siafi_id":9147,"ddd":67,"fuso_horario":"America/Porto_Velho","camada_origem":"municipios_sedes","estado_captura":"capturado_localmente","data_compilacao":"2026-08-05","natureza_registro":"evidencia_documentada","localizacao_status":"localizada","source_id":"SRC-e05d5cf87e893d87","validacao_documental":"realizada","validacao_espacial":"parcial","validacao_institucional":"parcial","validacao_campo":"nao_realizada","validacao_comunitaria":"nao_realizada","validation_next":"dados_insuficientes","publicacao_status":"publico","evl_schema_version":"1.0","trace_id":"TRC-EVL-78112f87dc71668c9dea1f01"},"geometry":{"coordinates":[-54.8434,-18.9249],"type":"Point"}},{"type":"Feature","properties":{"codigo_ibge":5007901,"nome_oficial":"Sidrolândia","latitude":-20.9302,"longitude":-54.9692,"populacao_2025":49735,"ranking_ms":8,"participacao_ms_pct":1.700556412073865,"faixa_populacional":"De 20.000 a 49.999 habitantes","siafi_id":9157,"ddd":67,"fuso_horario":"America/Porto_Velho","camada_origem":"municipios_sedes","estado_captura":"capturado_localmente","data_compilacao":"2026-08-05","natureza_registro":"evidencia_documentada","localizacao_status":"localizada","source_id":"SRC-e05d5cf87e893d87","validacao_documental":"realizada","validacao_espacial":"parcial","validacao_institucional":"parcial","validacao_campo":"nao_realizada","validacao_comunitaria":"nao_realizada","validation_next":"dados_insuficientes","publicacao_status":"publico","evl_schema_version":"1.0","trace_id":"TRC-EVL-cf029ac0a7fe5029ad280a92"},"geometry":{"coordinates":[-54.9692,-20.9302],"type":"Point"}},{"type":"Feature","properties":{"codigo_ibge":5007695,"nome_oficial":"São Gabriel do Oeste","latitude":-19.3889,"longitude":-54.5507,"populacao_2025":32207,"ranking_ms":17,"participacao_ms_pct":1.1012329418651443,"faixa_populacional":"De 20.000 a 49.999 habitantes","siafi_id":9809,"ddd":67,"fuso_horario":"America/Porto_Velho","camada_origem":"municipios_sedes","estado_captura":"capturado_localmente","data_compilacao":"2026-08-05","natureza_registro":"evidencia_documentada","localizacao_status":"localizada","source_id":"SRC-e05d5cf87e893d87","validacao_documental":"realizada","validacao_espacial":"parcial","validacao_institucional":"parcial","validacao_campo":"nao_realizada","validacao_comunitaria":"nao_realizada","validation_next":"dados_insuficientes","publicacao_status":"publico","evl_schema_version":"1.0","trace_id":"TRC-EVL-52b1e9067eda4ae4832adce5"},"geometry":{"coordinates":[-54.5507,-19.3889],"type":"Point"}},{"type":"Feature","properties":{"codigo_ibge":5003207,"nome_oficial":"Corumbá","latitude":-19.0077,"longitude":-57.651,"populacao_2025":98751,"ranking_ms":4,"participacao_ms_pct":3.376528526162788,"faixa_populacional":"De 50.000 a 99.999 habitantes","siafi_id":9063,"ddd":67,"fuso_horario":"America/Porto_Velho","camada_origem":"municipios_sedes","estado_captura":"capturado_localmente","data_compilacao":"2026-08-05","natureza_registro":"evidencia_documentada","localizacao_status":"localizada","source_id":"SRC-e05d5cf87e893d87","validacao_documental":"realizada","validacao_espacial":"parcial","validacao_institucional":"parcial","validacao_campo":"nao_realizada","validacao_comunitaria":"nao_realizada","validation_next":"dados_insuficientes","publicacao_status":"publico","evl_schema_version":"1.0","trace_id":"TRC-EVL-684c521553116636446ec126"},"geometry":{"coordinates":[-57.651,-19.0077],"type":"Point"}},{"type":"Feature","properties":{"codigo_ibge":5005707,"nome_oficial":"Naviraí","latitude":-23.0618,"longitude":-54.1995,"populacao_2025":53014,"ranking_ms":6,"participacao_ms_pct":1.8126731201303683,"faixa_populacional":"De 50.000 a 99.999 habitantes","siafi_id":9113,"ddd":67,"fuso_horario":"America/Porto_Velho","camada_origem":"municipios_sedes","estado_captura":"capturado_localmente","data_compilacao":"2026-08-05","natureza_registro":"evidencia_documentada","localizacao_status":"localizada","source_id":"SRC-e05d5cf87e893d87","validacao_documental":"realizada","validacao_espacial":"parcial","validacao_institucional":"parcial","validacao_campo":"nao_realizada","validacao_comunitaria":"nao_realizada","validation_next":"dados_insuficientes","publicacao_status":"publico","evl_schema_version":"1.0","trace_id":"TRC-EVL-63ac5ad3bb44bf20392f55ae"},"geometry":{"coordinates":[-54.1995,-23.0618],"type":"Point"}},{"type":"Feature","properties":{"codigo_ibge":5006200,"nome_oficial":"Nova Andradina","latitude":-22.238,"longitude":-53.3437,"populacao_2025":50848,"ranking_ms":7,"participacao_ms_pct":1.7386124950463837,"faixa_populacional":"De 50.000 a 99.999 habitantes","siafi_id":9123,"ddd":67,"fuso_horario":"America/Porto_Velho","camada_origem":"municipios_sedes","estado_captura":"capturado_localmente","data_compilacao":"2026-08-05","natureza_registro":"evidencia_documentada","localizacao_status":"localizada","source_id":"SRC-e05d5cf87e893d87","validacao_documental":"realizada","validacao_espacial":"parcial","validacao_institucional":"parcial","validacao_campo":"nao_realizada","validacao_comunitaria":"nao_realizada","validation_next":"dados_insuficientes","publicacao_status":"publico","evl_schema_version":"1.0","trace_id":"TRC-EVL-33d948c4d2926b8846a70159"},"geometry":{"coordinates":[-53.3437,-22.238],"type":"Point"}},{"type":"Feature","properties":{"codigo_ibge":5006606,"nome_oficial":"Ponta Porã","latitude":-22.5296,"longitude":-55.7203,"populacao_2025":98598,"ranking_ms":5,"participacao_ms_pct":3.371297096967105,"faixa_populacional":"De 50.000 a 99.999 habitantes","siafi_id":9131,"ddd":67,"fuso_horario":"America/Porto_Velho","camada_origem":"municipios_sedes","estado_captura":"capturado_localmente","data_compilacao":"2026-08-05","natureza_registro":"evidencia_documentada","localizacao_status":"localizada","source_id":"SRC-e05d5cf87e893d87","validacao_documental":"realizada","validacao_espacial":"parcial","validacao_institucional":"parcial","validacao_campo":"nao_realizada","validacao_comunitaria":"nao_realizada","validation_next":"dados_insuficientes","publicacao_status":"publico","evl_schema_version":"1.0","trace_id":"TRC-EVL-8b07198b9ef5dff0300dac07"},"geometry":{"coordinates":[-55.7203,-22.5296],"type":"Point"}}]}