{"type":"FeatureCollection","features":[{"type":"Feature","properties":{"OBJECTID":1,"NOME":"BR - 487","JURD":"Federal","COBE":"Pavimentada","TIPO":"Rodovia","EXTENSAO_Km":52.40935858,"Shape__Length":0.5044302580571423},"geometry":{"type":"LineString","coordinates":[[-54.225451677999956,-23.247254261315028],[-54.108463547999975,-23.234588035315294],[-54.07129554199997,-23.240237611315163],[-54.008677724999984,-23.231669080315378],[-53.945601325999974,-23.251001136314926],[-53.924973190999935,-23.26177405431468],[-53.89585840999996,-23.282144388314233],[-53.88307321699995,-23.29948524131384],[-53.86273568099995,-23.306823901313688],[-53.85172989999995,-23.318595268313416],[-53.82381945099996,-23.321983233313343],[-53.791223018999965,-23.35771842731252],[-53.77124233699993,-23.37226471931222]]},"id":1},{"type":"Feature","properties":{"OBJECTID":2,"NOME":"BR - 483","JURD":"Federal","COBE":"Pavimentada","TIPO":"Rodovia","EXTENSAO_Km":42.91874671,"Shape__Length":0.389914238031167},"geometry":{"type":"LineString","coordinates":[[-51.14084044499998,-19.65549410440162],[-51.131824208999944,-19.61882449640253],[-51.13391812799995,-19.597119946403108],[-51.127080466999985,-19.546392406404365],[-51.115043198999956,-19.53204732940477],[-51.098372644999976,-19.49811156340562],[-51.127296256999955,-19.440474598407132],[-51.149546672999975,-19.414517526407746],[-51.08975949999996,-19.3075051984105]]},"id":2},{"type":"Feature","properties":{"OBJECTID":3,"NOME":"BR - 163 / BR - 487","JURD":"Federal","COBE":"Pavimentada","TIPO":"Rodovia","EXTENSAO_Km":173.72159462,"Shape__Length":1.6131953887725266},"geometry":{"type":"LineString","coordinates":[[-54.25695692099999,-24.060667083296853],[-54.30176082999998,-24.013060976297925],[-54.33162092899994,-23.993077170298385],[-54.33087801099999,-23.970842086298834],[-54.31408883599994,-23.9502139092993],[-54.295345021999935,-23.956337020299173],[-54.28087827699994,-23.942128740299506],[-54.283031403999985,-23.925816290299824],[-54.31411191499996,-23.88910244830065],[-54.33728133799996,-23.84827460830154],[-54.32626360899997,-23.810728570302413],[-54.29316678099996,-23.799640990302617],[-54.27851176299999,-23.786572674302914],[-54.27512547599998,-23.76442841430341],[-54.26611877499994,-23.754758279303665],[-54.27598587399996,-23.732282877304158],[-54.26579702799995,-23.672203256305497],[-54.21381243899998,-23.591001982307297],[-54.19657528399994,-23.577792776307593],[-54.185067078999964,-23.48750690330958],[-54.205932819999994,-23.433168809310807],[-54.228582211999935,-23.260979609314703],[-54.217703796999956,-23.22244931731562],[-54.20166212299995,-23.200751594316063],[-54.19534767399995,-23.13696938731753],[-54.22113337099995,-23.110441460318114],[-54.23513228799994,-23.055697975319408],[-54.306288532999986,-23.015838892320296],[-54.393363356999934,-22.995807854320752],[-54.428914937999934,-22.962567556321506],[-54.47879855399998,-22.9296322403223],[-54.50321454699997,-22.92615792232234],[-54.52648200199997,-22.91039818732269],[-54.563966094999955,-22.897722332322974],[-54.594794398999966,-22.882159679323376],[-54.60388256599998,-22.868947712323667]]},"id":3},{"type":"Feature","properties":{"OBJECTID":4,"NOME":"BR - 060","JURD":"Federal","COBE":"Pavimentada","TIPO":"Rodovia","EXTENSAO_Km":455.10124928,"Shape__Length":4.254081696793284},"geometry":{"type":"MultiLineString","coordinates":[[[-56.05837110799996,-21.420287001357806],[-56.00581098999998,-21.365437498359114],[-55.998476505999975,-21.299718624360736],[-55.845045246999966,-21.15186646736434],[-55.82260865599994,-21.140823923364586]],[[-55.825359556999956,-21.149188787364377],[-55.76707586599997,-21.133647386364743],[-55.74872461799998,-21.12387836936498],[-55.67822806899994,-21.143463960364517],[-55.67057965399994,-21.1496253303644],[-55.661603592999946,-21.171514293363842],[-55.64646600799995,-21.169772134363882],[-55.633721065999964,-21.176783289363694],[-55.62292622699994,-21.176428526363697],[-55.60947581999994,-21.194363537363266],[-55.579759943999925,-21.19461900436326],[-55.575925763999976,-21.207221938362974],[-55.53874727599998,-21.221527600362602],[-55.509621127999935,-21.204580947363006],[-55.443175251999946,-21.188718692363405],[-55.393830468999965,-21.15095016136434],[-55.36263657799998,-21.11891258036512],[-55.33961451499993,-21.07221846136627],[-55.30567316999998,-21.03745507036711],[-55.30082550899994,-21.021536359367516],[-55.27471870999995,-20.999257692368037],[-55.21767581599994,-20.99659313236813],[-55.207141354999976,-20.99726358936806],[-55.200238328999944,-21.00442627236793],[-55.15727074599994,-21.0049689353679],[-55.151020598999935,-21.001128392367967],[-55.12847953399995,-21.00531658636792],[-55.04647989699998,-20.97558554036859],[-55.02039412299996,-20.978746375368534],[-54.99255650899994,-20.989632665368294],[-54.977855913999974,-20.984105684368426],[-54.968740975999935,-20.970534815368733],[-54.97319202299997,-20.955065124369142],[-54.93583166799993,-20.90188612637043],[-54.87087473899998,-20.896842715370582],[-54.82946501899995,-20.88291499637088],[-54.80701138999996,-20.83679915237203],[-54.77023612099998,-20.69864177837543],[-54.755960450999964,-20.665884494376225],[-54.75388105799994,-20.636571849376956],[-54.74098050899994,-20.606831062377708],[-54.71149946999997,-20.578602113378427],[-54.68263756599998,-20.564973714378734],[-54.66863022599995,-20.55206556537906]],[[-54.350252662999935,-19.679314255400993],[-54.226224867999974,-19.64864830940177],[-54.181905747999956,-19.654954183401635],[-54.14512026699998,-19.639048901402035],[-54.11936658399998,-19.64236148240194],[-54.10034325799995,-19.653289366401662],[-54.03429758499993,-19.592795192403223],[-54.04424428799996,-19.526167185404915],[-54.00419477899993,-19.499568738405628],[-53.95325687099995,-19.513917097405255],[-53.94159404499994,-19.52687932840489],[-53.905018921999954,-19.528423943404835],[-53.826870957999965,-19.497660817405613],[-53.72362135999998,-19.40549406040802],[-53.64807103299995,-19.403431827408067],[-53.58229483699995,-19.382670157408572],[-53.54457106999996,-19.35543181140929],[-53.47100526699995,-19.33883486840975],[-53.35675591699999,-19.323176492410116],[-53.32760287499997,-19.327728089409987],[-53.22973786499995,-19.258072299411833],[-53.11937650599998,-19.230559872412513],[-53.06071360199996,-19.162827866414283],[-53.02882399499998,-19.0764663874165],[-53.02816397199996,-19.063697517416834],[-53.00716894799996,-19.044564671417348],[-53.00936175899995,-19.026806577417762],[-52.972420227999976,-18.990726008418722],[-52.793520170999955,-18.953841188419666],[-52.754462581999974,-18.912173882420777],[-52.716688414999965,-18.90359852842099],[-52.71057428599994,-18.873639279421774],[-52.64190373799994,-18.78405958342411]],[[-52.62127596399995,-18.68056847042681],[-52.621806352999954,-18.737039284425354],[-52.64314677099998,-18.783492827424123]]]},"id":4},{"type":"Feature","properties":{"OBJECTID":5,"NOME":"BR - 163","JURD":"Federal","COBE":"Pavimentada","TIPO":"Rodovia","EXTENSAO_Km":524.97348784,"Shape__Length":4.805456927505755},"geometry":{"type":"MultiLineString","coordinates":[[[-54.60388256599998,-22.868947712323667],[-54.661450302999974,-22.847885969324125],[-54.69679926499998,-22.820736219324772],[-54.74183277099996,-22.79799291432529],[-54.76526789999997,-22.779193561325698],[-54.78914564899998,-22.748379395326452],[-54.786092930999985,-22.701457595327522],[-54.79537043099998,-22.669014877328248],[-54.81912910199998,-22.632694460329134],[-54.81612166699995,-22.581819594330288],[-54.820536413999946,-22.57028813533054],[-54.85771926799999,-22.523391147331676],[-54.86367550299997,-22.50997463133198],[-54.86644789999997,-22.482778706332613],[-54.808966389999966,-22.42586166333394],[-54.79185936699997,-22.399588207334542],[-54.79287933599994,-22.37919109233503],[-54.81959846999997,-22.32291541633631],[-54.821130435999976,-22.275920128337418],[-54.804286316999935,-22.25932627933785],[-54.782467151999974,-22.259119233337845],[-54.76842904899996,-22.24034705633827],[-54.727926762999964,-22.22220952733869],[-54.58535538599994,-22.111198862341325],[-54.54698293499996,-22.041090953342973],[-54.54199624099994,-22.000780557343944],[-54.531823954999936,-21.98330354334434],[-54.53536002299995,-21.91445391434598],[-54.52403272599997,-21.891295296346502],[-54.525313876999974,-21.87322071434693],[-54.550375291999956,-21.81501132834833],[-54.52718022299996,-21.783930555349095]],[[-54.38597275899997,-21.47170448735656],[-54.376077771999974,-21.440818894357296],[-54.38094256399995,-21.428363623357583],[-54.40609081999997,-21.399383541358304],[-54.42310331799996,-21.325033454360135],[-54.43175517699996,-21.309851703360504],[-54.46430554699998,-21.196545546363232],[-54.47595035799998,-21.17160253436386],[-54.47724741999997,-21.14312055336453],[-54.50892385699996,-21.009512507367777],[-54.49774403499998,-20.92286474936993],[-54.502542374999955,-20.89503951137064],[-54.52303907999993,-20.785449527373295],[-54.58350338199995,-20.582929865378308]],[[-54.350252662999935,-19.679314255400993],[-54.35097311099998,-19.661871511401447],[-54.40731379999994,-19.583671424403462],[-54.436408849999964,-19.545909299404403],[-54.45759080199997,-19.53142936040476],[-54.48695928799999,-19.48351897040602],[-54.55733427399998,-19.411914725407854],[-54.61447565699996,-19.319677689410206],[-54.68197929099995,-19.234171134412403],[-54.740122498999945,-19.21309658941296],[-54.76131435499997,-19.15584258741441],[-54.75574333999999,-19.11451390541551],[-54.77060611699994,-19.104410746415788],[-54.77423514099996,-19.09145484841609],[-54.791077686999984,-19.075642861416494],[-54.79347047899995,-19.063952606416837],[-54.825446538999984,-19.028228427417762],[-54.827396299999975,-19.008047099418256],[-54.83339170099998,-19.000128598418446],[-54.821065602999965,-18.971693101419213],[-54.830030017999945,-18.954707501419666],[-54.830598909999935,-18.932433349420222],[-54.84447596299998,-18.888569354421378],[-54.828076489999944,-18.868927358421875],[-54.81310238599997,-18.837824732422668],[-54.829404388999926,-18.77116098642445],[-54.81317478999995,-18.718317401425825],[-54.817824997999935,-18.69493943842641],[-54.80292924299994,-18.665615065427165],[-54.77294692099997,-18.632706562428044],[-54.77232270099995,-18.59580088942904],[-54.74218655999993,-18.536103626430567],[-54.734458414999956,-18.506683019431375],[-54.690945871999986,-18.422674670433608],[-54.66990807099995,-18.39675350843425],[-54.66421133999996,-18.36831313543498],[-54.666180699999984,-18.269975302437626],[-54.65037180699994,-18.199581263439487],[-54.66581433199997,-18.160250931440512],[-54.69952847899998,-18.126568713441433],[-54.67887020399996,-18.007490910444567],[-54.67730819899998,-17.963865554445718],[-54.690921886999945,-17.90756379744725],[-54.693488850999984,-17.876718942448075],[-54.70420096999993,-17.849629131448808],[-54.73005549499993,-17.81827104044963],[-54.74596428799999,-17.784377548450532],[-54.75627053599993,-17.73565235445185],[-54.74642581399996,-17.68340371745327],[-54.74583219899995,-17.599792001455512],[-54.739833544999954,-17.568845905456357],[-54.739247445999986,-17.519679561457675]]]},"id":5},{"type":"Feature","properties":{"OBJECTID":6,"NOME":"BR - 060  / MS - 384","JURD":"Federal","COBE":"Pavimentada","TIPO":"Rodovia","EXTENSAO_Km":89.92680655,"Shape__Length":0.8331040582862584},"geometry":{"type":"LineString","coordinates":[[-56.54111416999996,-22.113366782341252],[-56.538601712999935,-22.109096991341335],[-56.527550260999924,-22.11375823834123],[-56.51630743099997,-22.075840482342173],[-56.51753430699995,-22.032893871343138],[-56.46436628699996,-21.97854654234443],[-56.33653626399996,-21.892033030346536],[-56.252011041999936,-21.79400667034886],[-56.25610877299994,-21.757495906349714],[-56.27761185099996,-21.696622216351166],[-56.277426193999986,-21.684902438351415],[-56.17144794899996,-21.57847522235398],[-56.16430413399996,-21.50205123935584],[-56.15867215599997,-21.48880500435616],[-56.14370587199994,-21.48278630335629]]},"id":6},{"type":"Feature","properties":{"OBJECTID":7,"NOME":"BR - 395 / MS - 158","JURD":"Federal","COBE":"Pavimentada","TIPO":"Rodovia","EXTENSAO_Km":60.6043755,"Shape__Length":0.5574161558796835},"geometry":{"type":"LineString","coordinates":[[-52.03715578099997,-21.2552595223618],[-51.97719139099996,-21.16326204936404],[-51.96621893599997,-21.154715042364252],[-51.94415239599993,-21.11307858336525],[-51.92780664399998,-21.054549668366715],[-51.87063787699998,-21.004296065367882],[-51.82769614699998,-20.93410505936966],[-51.803007768999976,-20.928537156369757],[-51.757097506999976,-20.89331304237066],[-51.724693728999966,-20.816448836372516]]},"id":7},{"type":"Feature","properties":{"OBJECTID":8,"NOME":"BR - 262","JURD":"Federal","COBE":"Pavimentada","TIPO":"Rodovia","EXTENSAO_Km":735.30452047,"Shape__Length":6.939760610417863},"geometry":{"type":"MultiLineString","coordinates":[[[-51.62260482099998,-20.773939494373597],[-51.63466194999995,-20.78258959237336],[-51.67216057199994,-20.78256580737337],[-51.69187047699996,-20.811621940372635],[-51.71019134199997,-20.82036858037245],[-51.73288677499994,-20.81163633437264],[-51.794520451999965,-20.82124243537243],[-52.10178204899995,-20.740695564374395],[-52.136715875999975,-20.719284837374932],[-52.423639470999944,-20.598422412377943],[-52.433484158999924,-20.589706569378155],[-52.44568229399994,-20.58909169437817],[-52.47401635899997,-20.576971298378474],[-52.486202668999965,-20.56628055537874],[-52.50902727099998,-20.563707146378764],[-52.616277294999975,-20.516935557379938],[-52.80986262099998,-20.48040340038082],[-52.818647160999944,-20.462718082381294],[-52.844391422999934,-20.44562149838172],[-52.89603387899996,-20.443154115381777],[-52.95029279199998,-20.46952810538109],[-53.07730078499998,-20.44095957138181],[-53.09489163899997,-20.427257780382195],[-53.219764742999985,-20.40743350138264],[-53.26151296199998,-20.43800971238187],[-53.41183979699998,-20.46732901938118],[-53.510938684999985,-20.464267334381223],[-53.654380533999976,-20.474163275380995],[-53.73271036299997,-20.455056077381457],[-53.80566479699996,-20.454601930381482],[-53.87579834999997,-20.406340816382677],[-53.90938038499996,-20.40009085338282],[-53.93462633699994,-20.408170543382656],[-53.951407718999974,-20.422475919382293],[-54.01437775299996,-20.444148563381724],[-54.02934519099995,-20.459682189381375],[-54.276225056999984,-20.50787532538017],[-54.30486755299995,-20.494283705380514],[-54.323850567999955,-20.495488086380465],[-54.34052884699997,-20.480174348380874],[-54.39874449699994,-20.473099039381037],[-54.533753510999986,-20.46866210238111],[-54.55569261399995,-20.46357951338126]],[[-54.75058819899993,-20.477770148380934],[-54.79988063999997,-20.48400063338078],[-54.808619955999966,-20.490283226380605],[-54.816866920999985,-20.48626119838069],[-54.82654499199998,-20.48940871938064],[-54.84201855699996,-20.474033125380984],[-54.845725379999976,-20.452820362381516],[-54.86134257499998,-20.436008799381955],[-54.91783198599995,-20.42634941238221],[-54.932515482999975,-20.43032709538206],[-54.95444578599996,-20.420634068382334],[-54.96892225799997,-20.425327055382212],[-55.01747673799997,-20.41974176438237],[-55.168182300999945,-20.45120161238158],[-55.20607152499997,-20.469539720381096],[-55.21746809199993,-20.470213550381107],[-55.252978947999964,-20.451655609381525],[-55.28184162699995,-20.488210296380664],[-55.50063539199993,-20.55898965137892],[-55.53637705899996,-20.547952205379143],[-55.55095190099996,-20.552294835379037],[-55.55552456199996,-20.541250620379344],[-55.622151592999955,-20.510596260380073],[-55.78721479699993,-20.498815693380404],[-55.81782749899997,-20.499029533380355],[-55.84262911099995,-20.505667746380222],[-55.924296603999956,-20.499875230380383],[-56.04597154999993,-20.426150208382193],[-56.082789221999974,-20.396917874382893],[-56.093595040999965,-20.394410509382972],[-56.13472319899995,-20.350977429384052],[-56.15319104699995,-20.350692067384056],[-56.336661161999984,-20.266954488386165],[-56.37280589299996,-20.235339306386955],[-56.39294579699998,-20.229931725387114],[-56.451966364999976,-20.189879336388127],[-56.50960358299995,-20.190513989388062],[-56.519016319999935,-20.182282753388296],[-56.63743067499996,-20.13607895838947],[-56.703872088999965,-20.131495925389572],[-56.76196061599995,-20.075409696390967],[-56.81516830099997,-20.009022064392653],[-56.900158798999946,-19.82385001239735],[-56.93900915399996,-19.803786120397863],[-57.02681923999995,-19.649218599401753],[-57.23146435099994,-19.547660680404373],[-57.27932832899995,-19.56908421140381],[-57.38971983299996,-19.55562415440419],[-57.43201410699999,-19.50702868540541],[-57.42021809999994,-19.46527105740644],[-57.44329544799996,-19.43684041640718],[-57.49284333999998,-19.396822464408235],[-57.57014637999999,-19.350158298409397],[-57.57598945499996,-19.325890753410047],[-57.59280523499995,-19.318052128410265],[-57.63365803499995,-19.28174345741117],[-57.64194059399995,-19.257968249411817],[-57.64516132399995,-19.199774380413285],[-57.64055423599996,-19.16925796441407],[-57.62384445199996,-19.141275544414782],[-57.620652144999944,-19.069562551416695],[-57.61573084699996,-19.060415393416914],[-57.620485579999986,-19.048620854417226],[-57.61821723599997,-19.02610613341782]]]},"id":8},{"type":"Feature","properties":{"OBJECTID":9,"NOME":"BR - 060 / BR - 163","JURD":"Federal","COBE":"Pavimentada","TIPO":"Rodovia","EXTENSAO_Km":84.9657601,"Shape__Length":0.7728775423345985},"geometry":{"type":"LineString","coordinates":[[-54.55955050499995,-20.394569226383],[-54.54121838699996,-20.382329360383295],[-54.51884207599994,-20.34936435638412],[-54.51865362099995,-20.325289819384718],[-54.48516776599996,-20.267218863386177],[-54.47602032699996,-20.221866828387302],[-54.43951606099995,-20.151790726389027],[-54.444378806999964,-20.11143636639007],[-54.365190587999955,-19.931624280394573],[-54.374460159999956,-19.88423753839582],[-54.36878354099997,-19.86618200739626],[-54.37121189599997,-19.806962859397757],[-54.35180458399998,-19.731614519399663],[-54.350252662999935,-19.679314255400993]]},"id":9},{"type":"Feature","properties":{"OBJECTID":10,"NOME":"BR - 163 / BR - 267","JURD":"Federal","COBE":"Pavimentada","TIPO":"Rodovia","EXTENSAO_Km":40.93617139,"Shape__Length":0.37606900392264125},"geometry":{"type":"LineString","coordinates":[[-54.52718022299996,-21.783930555349095],[-54.499752654999945,-21.698125889351136],[-54.44837116299993,-21.662433885352005],[-54.422641566999964,-21.65158606935224],[-54.438787902999934,-21.604864347353377],[-54.42072810299993,-21.571221650354175],[-54.38597275899997,-21.47170448735656]]},"id":10},{"type":"Feature","properties":{"OBJECTID":11,"NOME":"BR - 158","JURD":"Federal","COBE":"Pavimentada","TIPO":"Rodovia","EXTENSAO_Km":268.94961478,"Shape__Length":2.4846681528694523},"geometry":{"type":"LineString","coordinates":[[-51.66974265699997,-20.782075947373364],[-51.67305894499998,-20.772169355373617],[-51.73844987299998,-20.73504790137454],[-51.77102462699998,-20.68272023937585],[-51.79498676999998,-20.663188946376337],[-51.79234729399996,-20.64698832837671],[-51.74133542699997,-20.635450470376995],[-51.63705043099998,-20.601909566377824],[-51.60737988499994,-20.57949311037841],[-51.57168505299996,-20.500911609380324],[-51.525310382999976,-20.48424878638075],[-51.454519689999984,-20.384715570383225],[-51.43884185999997,-20.371834893383554],[-51.41548244699993,-20.36770548838364],[-51.413808937999924,-20.326599758384695],[-51.419790502999945,-20.30634836538518],[-51.402652183999976,-20.266182261386213],[-51.32740715099993,-20.233521253387035],[-51.32015380099995,-20.204677841387742],[-51.24815097399994,-20.200942604387837],[-51.216554076999955,-20.182638521388252],[-51.190818626999935,-20.1255919383897],[-51.11741010199995,-20.065464900391195],[-51.11198201199994,-20.051230256391566],[-51.11621057799994,-20.031938422392038],[-51.11286031099996,-19.977440896393443],[-51.105251358999965,-19.951701352394117],[-51.14439357599997,-19.906106621395278],[-51.11185435699997,-19.836480604397025],[-51.11580121499997,-19.816947553397522],[-51.113414310999985,-19.79312619139809],[-51.13323256499996,-19.72859591839973],[-51.14808980199995,-19.70617307240032],[-51.19954628299996,-19.68591453840084],[-51.220192404999985,-19.596914830403087],[-51.27069453199994,-19.528128934404837],[-51.29792957899997,-19.482732669406023],[-51.31487422699997,-19.476069584406194],[-51.35828959599996,-19.445864425406967],[-51.370580012999945,-19.43065818040736],[-51.442014823999955,-19.379023246408696],[-51.449956792999956,-19.368625805408954],[-51.451235020999945,-19.357252523409223],[-51.43462014199997,-19.318568224410264],[-51.46461458899994,-19.290784603410962],[-51.485704627999944,-19.281687669411177],[-51.50515493599994,-19.256919884411822],[-51.52541846999997,-19.2150356014129],[-51.69610842599997,-19.138802938414887],[-51.72595709799999,-19.120193258415366],[-51.73486898399995,-19.120302075415378]]},"id":11},{"type":"Feature","properties":{"OBJECTID":12,"NOME":"BR - 463","JURD":"Federal","COBE":"Pavimentada","TIPO":"Rodovia","EXTENSAO_Km":115.02689692,"Shape__Length":1.0943349595448641},"geometry":{"type":"LineString","coordinates":[[-55.728084138999975,-22.54387325133119],[-55.72222245499995,-22.552206353330998],[-55.69800785899997,-22.56293235533076],[-55.690410774999975,-22.579217604330335],[-55.63385359799997,-22.616034007329475],[-55.61999017599993,-22.621914902329348],[-55.59114059099994,-22.614073462329547],[-55.57169893399999,-22.62016453232943],[-55.54592724499997,-22.60090878832986],[-55.51098295199996,-22.583202524330243],[-55.475675844999955,-22.54366643933121],[-55.45414836599996,-22.527075867331554],[-55.44753928399996,-22.510385390331948],[-55.35053848599995,-22.4192306873341],[-55.31439320399994,-22.41241636833426],[-55.15038888599997,-22.311503840336574],[-55.066941832999994,-22.295220287336967],[-55.043466072999934,-22.299701849336884],[-54.94890146999995,-22.23424865833841],[-54.90760821499998,-22.24781889633809],[-54.84839582799998,-22.25949299333784],[-54.804286316999935,-22.25932627933785]]},"id":12},{"type":"Feature","properties":{"OBJECTID":13,"NOME":"BR - 376","JURD":"Federal","COBE":"Pavimentada","TIPO":"Rodovia","EXTENSAO_Km":172.15590156,"Shape__Length":1.6329881464134888},"geometry":{"type":"LineString","coordinates":[[-53.36289488299997,-22.266354290337674],[-53.396450107999954,-22.308386771336664],[-53.49137349299997,-22.336750894336024],[-53.53561670799996,-22.383189721334915],[-53.639471697999966,-22.39341374233467],[-53.73974656799999,-22.343581581335847],[-53.88519604199996,-22.294352355336976],[-53.93474690099998,-22.29321223733704],[-54.074854968999944,-22.312311144336583],[-54.16837510899995,-22.276469538337423],[-54.26195688499997,-22.479038847332696],[-54.53960872899996,-22.36619739333535],[-54.69283894199997,-22.195444044339304]]},"id":13},{"type":"Feature","properties":{"OBJECTID":14,"NOME":"BR - 267","JURD":"Federal","COBE":"Pavimentada","TIPO":"Rodovia","EXTENSAO_Km":639.42773081,"Shape__Length":6.105644976961444},"geometry":{"type":"MultiLineString","coordinates":[[[-54.52718022299996,-21.783930555349095],[-54.55157885799997,-21.77099349734937],[-54.57140045099993,-21.774325242349327],[-54.645748052999984,-21.71333069135075],[-54.71541721999995,-21.69022791035133],[-54.765060768999945,-21.645157012352406],[-54.80173805599998,-21.632307843352724],[-54.82778034999996,-21.606748105353304],[-54.88954626899993,-21.573883537354106],[-54.983554685999934,-21.625355549352857],[-54.99364429699994,-21.62384458935294],[-55.089469709999946,-21.64978020535228],[-55.118157233999966,-21.642736092352443],[-55.13282053499995,-21.644348408352442],[-55.15871108199997,-21.636214676352594],[-55.24574785799996,-21.662757513351984],[-55.27586324899994,-21.65929853935205],[-55.36902112099995,-21.62172422935294],[-55.405944568999985,-21.61451964635312],[-55.519668008999986,-21.631707972352714],[-55.60413644099998,-21.629606962352774],[-55.61643353699998,-21.621352693352943],[-55.62643876399994,-21.596511383353533],[-55.668096312999985,-21.581158909353917],[-55.75083154299995,-21.513368196355586],[-55.798036939999974,-21.483251098356313],[-55.84058538299996,-21.490092922356137],[-55.85610398699998,-21.47687249735646],[-55.86509955199995,-21.477224490356445],[-56.004093904999934,-21.40964334535804],[-56.05068039199995,-21.415440532357934],[-56.12577621999998,-21.461931529356807],[-56.14370587199994,-21.48278630335629],[-56.186157468999966,-21.47214120535655],[-56.245389873999954,-21.496272070355978],[-56.30059257299996,-21.495855086355974],[-56.320784426999985,-21.484702581356252],[-56.33107020399996,-21.466705192356656],[-56.34394241599995,-21.459464597356863],[-56.63218753099994,-21.56020113535441],[-56.737312960999986,-21.67014342535182],[-56.76616973299997,-21.68262548035149],[-56.797474534999935,-21.688476890351343],[-56.83280744699994,-21.711963082350785],[-56.85107865599997,-21.71064518435084],[-56.882411402999935,-21.738732183350155],[-56.902889408999954,-21.732228565350308],[-56.92284491899994,-21.749555419349917],[-56.93711466099995,-21.751194323349885],[-56.95217047299997,-21.761905255349628],[-56.96837906299999,-21.757398159349734],[-56.976253456999984,-21.740084839350118],[-57.003082080999945,-21.719752082350606],[-57.01952689999995,-21.733528115350268],[-57.03354775299994,-21.730859853350342],[-57.05120212199996,-21.719441943350642],[-57.10324529799993,-21.73144750335033],[-57.14609726499998,-21.75199671834985],[-57.158851794999975,-21.763811538349565],[-57.195294212999954,-21.773001494349348],[-57.21166420899993,-21.76869904134947],[-57.24442527499997,-21.776591941349285],[-57.269618124999965,-21.76236742434962],[-57.37925163999995,-21.767716198349458],[-57.39310811299998,-21.75215189134986],[-57.441964415999955,-21.742874240350087],[-57.54770571399996,-21.747859187349935],[-57.58223726899996,-21.74382183335004],[-57.63199186299994,-21.710947003350803],[-57.68762257099997,-21.71353118035076],[-57.88217272399998,-21.698153942351144]],[[-52.18409620799997,-21.753480292349785],[-52.246394966999965,-21.72531331535045],[-52.36504753199995,-21.72694667235042],[-52.427410950999956,-21.719967416350617],[-52.467019757999935,-21.742061073350055],[-52.50271477699994,-21.77322682234933],[-52.53623060499996,-21.81244635834841],[-52.87106491199995,-21.879815059346782],[-52.96114076499998,-21.860383015347242],[-53.03084002099996,-21.855403655347388],[-53.04981011499996,-21.844624290347618],[-53.10536721999995,-21.82679155234807],[-53.21190036199994,-21.768385139349448],[-53.23749310199997,-21.75832024534972],[-53.26004765999994,-21.75724330034971],[-53.46769210499997,-21.64573527535242],[-53.88805523499997,-21.597255441353536],[-53.91603731199996,-21.584987721353823],[-54.07100634899995,-21.59600960235359],[-54.10609473299997,-21.585167045353863],[-54.16079212199997,-21.5405784373549],[-54.21128751099997,-21.53501389035503],[-54.27938637999995,-21.488237021356166],[-54.35025534699997,-21.48052949335633],[-54.38597275899997,-21.47170448735656]]]},"id":14},{"type":"Feature","properties":{"OBJECTID":15,"NOME":"BR - 419","JURD":"Federal","COBE":"Pavimentada","TIPO":"Rodovia","EXTENSAO_Km":84.19288383,"Shape__Length":0.7726235556363262},"geometry":{"type":"LineString","coordinates":[[-55.82260865599994,-21.140823923364586],[-55.81033274199996,-21.08734384336591],[-55.789409353999986,-21.062510493366506],[-55.77637606999997,-21.036526636367128],[-55.776229333999936,-21.01414773736769],[-55.767093424999985,-20.99006340036824],[-55.77301665699998,-20.976276769368614],[-55.82128412899994,-20.912718970370154],[-55.82608394399995,-20.890816040370677],[-55.88206920099998,-20.882513297370885],[-55.929355415999964,-20.81494915837259],[-55.93450421999995,-20.796412034373002],[-55.91176934399994,-20.74084603037437],[-55.89800518399994,-20.651819936376604],[-55.87007055899995,-20.62561887037726],[-55.81261369099997,-20.499305051380368]]},"id":15},{"type":"Feature","properties":{"OBJECTID":16,"NOME":"BR - 359","JURD":"Federal","COBE":"Em pavimentação","TIPO":"Rodovia","EXTENSAO_Km":212.79807677,"Shape__Length":1.9841764773586459},"geometry":{"type":"LineString","coordinates":[[-54.73293159799993,-18.503523529431433],[-54.679660800999955,-18.5009791694315],[-54.64720366199998,-18.50574886743139],[-54.613483234999926,-18.477474933432113],[-54.59033691299993,-18.479785205432098],[-54.540648276999946,-18.465642507432463],[-54.51611246799996,-18.442953498433027],[-54.47573421799996,-18.44178227843306],[-54.43246692999998,-18.396887238434278],[-54.42341404999996,-18.39572572643429],[-54.40012055999995,-18.37635257143482],[-54.396158011999944,-18.345508806435593],[-54.37911802699995,-18.32667425243613],[-54.32815858699996,-18.31423509643642],[-54.29848698299998,-18.322049172436266],[-54.266111518999935,-18.320353372436266],[-54.25296076999996,-18.31079475143651],[-54.223407108999936,-18.30469300243669],[-54.21075579899997,-18.2959021954369],[-54.18826225799995,-18.298969279436832],[-54.10156870199995,-18.269891929437627],[-54.07555659299993,-18.26745385443765],[-54.05619518999998,-18.254008602438013],[-54.046440013999984,-18.2584490794379],[-54.026563892999945,-18.257879261437942],[-54.00008679399997,-18.246783716438234],[-53.982865336999964,-18.245660365438287],[-53.943780371999935,-18.26410816043778],[-53.90786765499996,-18.273967369437525],[-53.87439578799996,-18.2750169844375],[-53.83078899099996,-18.326362257436127],[-53.80450351599996,-18.342923787435673],[-53.746876827999984,-18.342571640435686],[-53.72444721799996,-18.333282876435913],[-53.69909444199993,-18.330645425435986],[-53.67213148299999,-18.347158220435585],[-53.62048944999998,-18.411162135433898],[-53.60158564499995,-18.47016390443231],[-53.57472358999996,-18.485640678431935],[-53.53109506599998,-18.49013355643183],[-53.49985480899995,-18.477269390432127],[-53.488768267999944,-18.462722611432508],[-53.40410936999996,-18.44805216843289],[-53.360336458999946,-18.39449872843432],[-53.33579830899998,-18.390490273434413],[-53.300903097999935,-18.360302315435217],[-53.26490815299997,-18.34471930443564],[-53.26582711799995,-18.32836582843607],[-53.24850282099993,-18.302040307436762],[-53.21824450199995,-18.22992337143869],[-53.12342113599993,-18.201067032439443]]},"id":16}]}