{"type":"FeatureCollection","features":[{"type":"Feature","geometry":{"type":"Point","coordinates":[-57.47,-21.66]},"properties":{"evento_id":"USP-MS-20030210-190116-001","data":"2003-02-10","hora":"19:01:16","latitude":-21.66,"longitude":-57.47,"erro_localizacao_km":200,"uf":"MS","profundidade_km":0,"magnitude":3.6,"tipo_magnitude_codigo":"1","categoria_codigo":"I","intensidade_catalogo":null,"localidade":"Pto. Murtinho","comentarios":"(IAG,UnB-2evts.)","fonte":"Centro de Sismologia da USP · Boletim Sísmico preliminar · eventos a partir de 2001","status_dado":"preliminar","capturado_em":"2026-08-12","linha_catalogo_original":"2003 0210 190116  -21.66 -57.47 200 MS   0.  3.6  1  I   -       Pto. Murtinho(IAG,UnB-2evts.)"}},{"type":"Feature","geometry":{"type":"Point","coordinates":[-56.21,-18.4]},"properties":{"evento_id":"USP-MS-20040317-232858-002","data":"2004-03-17","hora":"23:28:58","latitude":-18.4,"longitude":-56.21,"erro_localizacao_km":100,"uf":"MS","profundidade_km":0,"magnitude":3,"tipo_magnitude_codigo":"1","categoria_codigo":"I","intensidade_catalogo":null,"localidade":"Paiaguas","comentarios":"(IAG)","fonte":"Centro de Sismologia da USP · Boletim Sísmico preliminar · eventos a partir de 2001","status_dado":"preliminar","capturado_em":"2026-08-12","linha_catalogo_original":"2004 0317 232858  -18.40 -56.21 100 MS   0.  3.0  1  I   -       Paiaguas     (IAG)"}},{"type":"Feature","geometry":{"type":"Point","coordinates":[-55.84,-18.55]},"properties":{"evento_id":"USP-MS-20090615-221545-003","data":"2009-06-15","hora":"22:15:45","latitude":-18.55,"longitude":-55.84,"erro_localizacao_km":20,"uf":"MS","profundidade_km":0,"magnitude":4.7,"tipo_magnitude_codigo":"1","categoria_codigo":"I","intensidade_catalogo":null,"localidade":"Coxim","comentarios":"(GS,IAG,UnB,IPT)","fonte":"Centro de Sismologia da USP · Boletim Sísmico preliminar · eventos a partir de 2001","status_dado":"preliminar","capturado_em":"2026-08-12","linha_catalogo_original":"2009 0615 221545  -18.55 -55.84  20 MS   0.  4.7  1  I   -       Coxim        (GS,IAG,UnB,IPT)"}},{"type":"Feature","geometry":{"type":"Point","coordinates":[-56.54,-19.51]},"properties":{"evento_id":"USP-MS-20131006-125323-004","data":"2013-10-06","hora":"12:53:23","latitude":-19.51,"longitude":-56.54,"erro_localizacao_km":20,"uf":"MS","profundidade_km":0,"magnitude":2.6,"tipo_magnitude_codigo":"1","categoria_codigo":"I","intensidade_catalogo":null,"localidade":"Miranda","comentarios":"(MR-magSC3)","fonte":"Centro de Sismologia da USP · Boletim Sísmico preliminar · eventos a partir de 2001","status_dado":"preliminar","capturado_em":"2026-08-12","linha_catalogo_original":"2013 1006 125323  -19.51 -56.54  20 MS   0.  2.6  1  I   -       Miranda               (MR-magSC3)"}},{"type":"Feature","geometry":{"type":"Point","coordinates":[-51.1,-20.07]},"properties":{"evento_id":"USP-MS-20131027-030206-005","data":"2013-10-27","hora":"03:02:06","latitude":-20.07,"longitude":-51.1,"erro_localizacao_km":2,"uf":"MS","profundidade_km":0,"magnitude":2.7,"tipo_magnitude_codigo":"1","categoria_codigo":"I","intensidade_catalogo":null,"localidade":"Aparecida do Taboado","comentarios":"(MR-magSC3)","fonte":"Centro de Sismologia da USP · Boletim Sísmico preliminar · eventos a partir de 2001","status_dado":"preliminar","capturado_em":"2026-08-12","linha_catalogo_original":"2013 1027 030206  -20.07 -51.10  02 MS   0.  2.7  1  I   -       Aparecida do Taboado  (MR-magSC3)"}},{"type":"Feature","geometry":{"type":"Point","coordinates":[-57.37,-19.55]},"properties":{"evento_id":"USP-MS-20140502-113733-006","data":"2014-05-02","hora":"11:37:33","latitude":-19.55,"longitude":-57.37,"erro_localizacao_km":30,"uf":"MS","profundidade_km":0,"magnitude":3.7,"tipo_magnitude_codigo":"1","categoria_codigo":"I","intensidade_catalogo":null,"localidade":"Ladário","comentarios":"(mb-magSC3)","fonte":"Centro de Sismologia da USP · Boletim Sísmico preliminar · eventos a partir de 2001","status_dado":"preliminar","capturado_em":"2026-08-12","linha_catalogo_original":"2014 0502 113733  -19.55 -57.37  30 MS   0.  3.7  1  I   -       Ladário               (mb-magSC3)"}},{"type":"Feature","geometry":{"type":"Point","coordinates":[-56.25,-20.48]},"properties":{"evento_id":"USP-MS-20151105-182331-007","data":"2015-11-05","hora":"18:23:31","latitude":-20.48,"longitude":-56.25,"erro_localizacao_km":30,"uf":"MS","profundidade_km":0,"magnitude":1.7,"tipo_magnitude_codigo":"5","categoria_codigo":"I","intensidade_catalogo":null,"localidade":"Miranda","comentarios":"(magSC3-0.5)","fonte":"Centro de Sismologia da USP · Boletim Sísmico preliminar · eventos a partir de 2001","status_dado":"preliminar","capturado_em":"2026-08-12","linha_catalogo_original":"2015 1105 182331  -20.48 -56.25  30 MS   0.  1.7  5  I   -       Miranda               (magSC3-0.5)"}},{"type":"Feature","geometry":{"type":"Point","coordinates":[-56.26,-19.39]},"properties":{"evento_id":"USP-MS-20151106-034709-008","data":"2015-11-06","hora":"03:47:09","latitude":-19.39,"longitude":-56.26,"erro_localizacao_km":20,"uf":"MS","profundidade_km":0,"magnitude":4,"tipo_magnitude_codigo":"1","categoria_codigo":"I","intensidade_catalogo":null,"localidade":"Miranda","comentarios":"(MR-magSC3)","fonte":"Centro de Sismologia da USP · Boletim Sísmico preliminar · eventos a partir de 2001","status_dado":"preliminar","capturado_em":"2026-08-12","linha_catalogo_original":"2015 1106 034709  -19.39 -56.26  20 MS   0.  4.0  1  I   -       Miranda               (MR-magSC3)"}},{"type":"Feature","geometry":{"type":"Point","coordinates":[-56.31,-19.4]},"properties":{"evento_id":"USP-MS-20151106-035536-009","data":"2015-11-06","hora":"03:55:36","latitude":-19.4,"longitude":-56.31,"erro_localizacao_km":20,"uf":"MS","profundidade_km":0,"magnitude":2.2,"tipo_magnitude_codigo":"1","categoria_codigo":"I","intensidade_catalogo":null,"localidade":"Miranda","comentarios":"(MR-magSC3)","fonte":"Centro de Sismologia da USP · Boletim Sísmico preliminar · eventos a partir de 2001","status_dado":"preliminar","capturado_em":"2026-08-12","linha_catalogo_original":"2015 1106 035536  -19.40 -56.31  20 MS   0.  2.2  1  I   -       Miranda               (MR-magSC3)"}},{"type":"Feature","geometry":{"type":"Point","coordinates":[-56.28,-19.4]},"properties":{"evento_id":"USP-MS-20151106-035654-010","data":"2015-11-06","hora":"03:56:54","latitude":-19.4,"longitude":-56.28,"erro_localizacao_km":20,"uf":"MS","profundidade_km":0,"magnitude":3.1,"tipo_magnitude_codigo":"1","categoria_codigo":"I","intensidade_catalogo":null,"localidade":"Miranda","comentarios":"(MR-magSC3)","fonte":"Centro de Sismologia da USP · Boletim Sísmico preliminar · eventos a partir de 2001","status_dado":"preliminar","capturado_em":"2026-08-12","linha_catalogo_original":"2015 1106 035654  -19.40 -56.28  20 MS   0.  3.1  1  I   -       Miranda               (MR-magSC3)"}},{"type":"Feature","geometry":{"type":"Point","coordinates":[-56.4,-19.55]},"properties":{"evento_id":"USP-MS-20151109-211108-011","data":"2015-11-09","hora":"21:11:08","latitude":-19.55,"longitude":-56.4,"erro_localizacao_km":25,"uf":"MS","profundidade_km":0,"magnitude":3.2,"tipo_magnitude_codigo":"1","categoria_codigo":"I","intensidade_catalogo":null,"localidade":"Miranda","comentarios":"(MR-magSC3)","fonte":"Centro de Sismologia da USP · Boletim Sísmico preliminar · eventos a partir de 2001","status_dado":"preliminar","capturado_em":"2026-08-12","linha_catalogo_original":"2015 1109 211108  -19.55 -56.40  25 MS   0.  3.2  1  I   -       Miranda               (MR-magSC3)"}},{"type":"Feature","geometry":{"type":"Point","coordinates":[-56.3,-19.48]},"properties":{"evento_id":"USP-MS-20151114-153143-012","data":"2015-11-14","hora":"15:31:43","latitude":-19.48,"longitude":-56.3,"erro_localizacao_km":20,"uf":"MS","profundidade_km":0,"magnitude":2.4,"tipo_magnitude_codigo":"1","categoria_codigo":"I","intensidade_catalogo":null,"localidade":"Miranda","comentarios":"(MR-magSC3)","fonte":"Centro de Sismologia da USP · Boletim Sísmico preliminar · eventos a partir de 2001","status_dado":"preliminar","capturado_em":"2026-08-12","linha_catalogo_original":"2015 1114 153143  -19.48 -56.30  20 MS   0.  2.4  1  I   -       Miranda               (MR-magSC3)"}},{"type":"Feature","geometry":{"type":"Point","coordinates":[-56.35,-19.43]},"properties":{"evento_id":"USP-MS-20160304-104723-013","data":"2016-03-04","hora":"10:47:23","latitude":-19.43,"longitude":-56.35,"erro_localizacao_km":20,"uf":"MS","profundidade_km":0,"magnitude":3.5,"tipo_magnitude_codigo":"1","categoria_codigo":"I","intensidade_catalogo":null,"localidade":"Miranda","comentarios":"(MR-magSC3)","fonte":"Centro de Sismologia da USP · Boletim Sísmico preliminar · eventos a partir de 2001","status_dado":"preliminar","capturado_em":"2026-08-12","linha_catalogo_original":"2016 0304 104723  -19.43 -56.35  20 MS   0.  3.5  1  I   -       Miranda               (MR-magSC3)"}},{"type":"Feature","geometry":{"type":"Point","coordinates":[-55.7,-20.48]},"properties":{"evento_id":"USP-MS-20160324-144815-014","data":"2016-03-24","hora":"14:48:15","latitude":-20.48,"longitude":-55.7,"erro_localizacao_km":20,"uf":"MS","profundidade_km":0,"magnitude":0.2,"tipo_magnitude_codigo":"5","categoria_codigo":"I","intensidade_catalogo":null,"localidade":"Aquidauana","comentarios":"(magSC3-0.5)","fonte":"Centro de Sismologia da USP · Boletim Sísmico preliminar · eventos a partir de 2001","status_dado":"preliminar","capturado_em":"2026-08-12","linha_catalogo_original":"2016 0324 144815  -20.48 -55.70  20 MS   0.  0.2  5  I   -       Aquidauana            (magSC3-0.5)"}},{"type":"Feature","geometry":{"type":"Point","coordinates":[-57.06,-21.37]},"properties":{"evento_id":"USP-MS-20160326-155022-015","data":"2016-03-26","hora":"15:50:22","latitude":-21.37,"longitude":-57.06,"erro_localizacao_km":25,"uf":"MS","profundidade_km":0,"magnitude":3.1,"tipo_magnitude_codigo":"1","categoria_codigo":"I","intensidade_catalogo":null,"localidade":"Bonito","comentarios":"(MR-magSC3)","fonte":"Centro de Sismologia da USP · Boletim Sísmico preliminar · eventos a partir de 2001","status_dado":"preliminar","capturado_em":"2026-08-12","linha_catalogo_original":"2016 0326 155022  -21.37 -57.06  25 MS   0.  3.1  1  I   -       Bonito                (MR-magSC3)"}},{"type":"Feature","geometry":{"type":"Point","coordinates":[-54.8,-22.22]},"properties":{"evento_id":"USP-MS-20160718-220717-016","data":"2016-07-18","hora":"22:07:17","latitude":-22.22,"longitude":-54.8,"erro_localizacao_km":20,"uf":"MS","profundidade_km":0,"magnitude":1.7,"tipo_magnitude_codigo":"5","categoria_codigo":"I","intensidade_catalogo":null,"localidade":"Dourados","comentarios":"(magSC3-0.5)","fonte":"Centro de Sismologia da USP · Boletim Sísmico preliminar · eventos a partir de 2001","status_dado":"preliminar","capturado_em":"2026-08-12","linha_catalogo_original":"2016 0718 220717  -22.22 -54.80  20 MS   0.  1.7  5  I   -       Dourados              (magSC3-0.5)"}},{"type":"Feature","geometry":{"type":"Point","coordinates":[-56.48,-18.64]},"properties":{"evento_id":"USP-MS-20160813-022641-017","data":"2016-08-13","hora":"02:26:41","latitude":-18.64,"longitude":-56.48,"erro_localizacao_km":15,"uf":"MS","profundidade_km":0,"magnitude":3.1,"tipo_magnitude_codigo":"1","categoria_codigo":"I","intensidade_catalogo":null,"localidade":"Corumbá","comentarios":"(MR-magSC3)","fonte":"Centro de Sismologia da USP · Boletim Sísmico preliminar · eventos a partir de 2001","status_dado":"preliminar","capturado_em":"2026-08-12","linha_catalogo_original":"2016 0813 022641  -18.64 -56.48  15 MS   0.  3.1  1  I   -       Corumbá               (MR-magSC3)"}},{"type":"Feature","geometry":{"type":"Point","coordinates":[-56.4,-18.59]},"properties":{"evento_id":"USP-MS-20160813-163422-018","data":"2016-08-13","hora":"16:34:22","latitude":-18.59,"longitude":-56.4,"erro_localizacao_km":20,"uf":"MS","profundidade_km":0,"magnitude":2.8,"tipo_magnitude_codigo":"1","categoria_codigo":"I","intensidade_catalogo":null,"localidade":"Corumbá","comentarios":"(MR-magSC3)","fonte":"Centro de Sismologia da USP · Boletim Sísmico preliminar · eventos a partir de 2001","status_dado":"preliminar","capturado_em":"2026-08-12","linha_catalogo_original":"2016 0813 163422  -18.59 -56.40  20 MS   0.  2.8  1  I   -       Corumbá               (MR-magSC3)"}},{"type":"Feature","geometry":{"type":"Point","coordinates":[-55.32,-19.38]},"properties":{"evento_id":"USP-MS-20160910-084211-019","data":"2016-09-10","hora":"08:42:11","latitude":-19.38,"longitude":-55.32,"erro_localizacao_km":2,"uf":"MS","profundidade_km":0,"magnitude":2.4,"tipo_magnitude_codigo":"1","categoria_codigo":"I","intensidade_catalogo":null,"localidade":"Rio Negro","comentarios":"(MR-magSC3)","fonte":"Centro de Sismologia da USP · Boletim Sísmico preliminar · eventos a partir de 2001","status_dado":"preliminar","capturado_em":"2026-08-12","linha_catalogo_original":"2016 0910 084211  -19.38 -55.32  02 MS   0.  2.4  1  I   -       Rio Negro             (MR-magSC3)"}},{"type":"Feature","geometry":{"type":"Point","coordinates":[-56.33,-19.49]},"properties":{"evento_id":"USP-MS-20170327-070141-020","data":"2017-03-27","hora":"07:01:41","latitude":-19.49,"longitude":-56.33,"erro_localizacao_km":17,"uf":"MS","profundidade_km":0,"magnitude":2.7,"tipo_magnitude_codigo":"1","categoria_codigo":"I","intensidade_catalogo":null,"localidade":"Miranda","comentarios":"(MR-magSC3)","fonte":"Centro de Sismologia da USP · Boletim Sísmico preliminar · eventos a partir de 2001","status_dado":"preliminar","capturado_em":"2026-08-12","linha_catalogo_original":"2017 0327 070141  -19.49 -56.33  17 MS   0.  2.7  1  I   -       Miranda               (MR-magSC3)"}},{"type":"Feature","geometry":{"type":"Point","coordinates":[-55.48,-17.48]},"properties":{"evento_id":"USP-MS-20180406-151527-021","data":"2018-04-06","hora":"15:15:27","latitude":-17.48,"longitude":-55.48,"erro_localizacao_km":10,"uf":"MS","profundidade_km":0,"magnitude":2.4,"tipo_magnitude_codigo":"1","categoria_codigo":"I","intensidade_catalogo":null,"localidade":"Sonora","comentarios":"(MR-magSC3)","fonte":"Centro de Sismologia da USP · Boletim Sísmico preliminar · eventos a partir de 2001","status_dado":"preliminar","capturado_em":"2026-08-12","linha_catalogo_original":"2018 0406 151527  -17.48 -55.48  10 MS   0.  2.4  1  I   -       Sonora                (MR-magSC3)"}},{"type":"Feature","geometry":{"type":"Point","coordinates":[-55.29,-17.41]},"properties":{"evento_id":"USP-MS-20180406-151927-022","data":"2018-04-06","hora":"15:19:27","latitude":-17.41,"longitude":-55.29,"erro_localizacao_km":10,"uf":"MS","profundidade_km":0,"magnitude":2.5,"tipo_magnitude_codigo":"1","categoria_codigo":"I","intensidade_catalogo":null,"localidade":"Sonora","comentarios":"(MR-magSC3)","fonte":"Centro de Sismologia da USP · Boletim Sísmico preliminar · eventos a partir de 2001","status_dado":"preliminar","capturado_em":"2026-08-12","linha_catalogo_original":"2018 0406 151927  -17.41 -55.29  10 MS   0.  2.5  1  I   -       Sonora                (MR-magSC3)"}},{"type":"Feature","geometry":{"type":"Point","coordinates":[-56.77,-20.35]},"properties":{"evento_id":"USP-MS-20181010-212919-023","data":"2018-10-10","hora":"21:29:19","latitude":-20.35,"longitude":-56.77,"erro_localizacao_km":1,"uf":"MS","profundidade_km":0,"magnitude":2.1,"tipo_magnitude_codigo":"1","categoria_codigo":"I","intensidade_catalogo":null,"localidade":"Bodoquena","comentarios":"(MR-magSC3)detonação??????","fonte":"Centro de Sismologia da USP · Boletim Sísmico preliminar · eventos a partir de 2001","status_dado":"preliminar","capturado_em":"2026-08-12","linha_catalogo_original":"2018 1010 212919  -20.35 -56.77  01 MS   0.  2.1  1  I   -       Bodoquena             (MR-magSC3)detonação??????"}},{"type":"Feature","geometry":{"type":"Point","coordinates":[-56.4,-19.24]},"properties":{"evento_id":"USP-MS-20190326-053758-024","data":"2019-03-26","hora":"05:37:58","latitude":-19.24,"longitude":-56.4,"erro_localizacao_km":20,"uf":"MS","profundidade_km":0,"magnitude":2.2,"tipo_magnitude_codigo":"1","categoria_codigo":"I","intensidade_catalogo":null,"localidade":"Miranda","comentarios":"(MR-magSC3)","fonte":"Centro de Sismologia da USP · Boletim Sísmico preliminar · eventos a partir de 2001","status_dado":"preliminar","capturado_em":"2026-08-12","linha_catalogo_original":"2019 0326 053758  -19.24 -56.40  20 MS   0.  2.2  1  I   -       Miranda               (MR-magSC3)"}},{"type":"Feature","geometry":{"type":"Point","coordinates":[-56.4,-19.24]},"properties":{"evento_id":"USP-MS-20190326-053758-025","data":"2019-03-26","hora":"05:37:58","latitude":-19.24,"longitude":-56.4,"erro_localizacao_km":21,"uf":"MS","profundidade_km":0,"magnitude":2.2,"tipo_magnitude_codigo":"1","categoria_codigo":"I","intensidade_catalogo":null,"localidade":"Miranda","comentarios":"(MR-magSC3)","fonte":"Centro de Sismologia da USP · Boletim Sísmico preliminar · eventos a partir de 2001","status_dado":"preliminar","capturado_em":"2026-08-12","linha_catalogo_original":"2019 0326 053758  -19.24 -56.40  21 MS   0.  2.2  1  I   -       Miranda               (MR-magSC3)"}},{"type":"Feature","geometry":{"type":"Point","coordinates":[-54.17,-19.99]},"properties":{"evento_id":"USP-MS-20200923-213044-026","data":"2020-09-23","hora":"21:30:44","latitude":-19.99,"longitude":-54.17,"erro_localizacao_km":25,"uf":"MS","profundidade_km":0,"magnitude":2.4,"tipo_magnitude_codigo":"1","categoria_codigo":"I","intensidade_catalogo":null,"localidade":"Bandeirantes","comentarios":"(MR-magSC3)","fonte":"Centro de Sismologia da USP · Boletim Sísmico preliminar · eventos a partir de 2001","status_dado":"preliminar","capturado_em":"2026-08-12","linha_catalogo_original":"2020 0923 213044  -19.99 -54.17  25 MS   0.  2.4  1  I           Bandeirantes          (MR-magSC3)"}},{"type":"Feature","geometry":{"type":"Point","coordinates":[-57.31,-19.83]},"properties":{"evento_id":"USP-MS-20220321-013358-027","data":"2022-03-21","hora":"01:33:58","latitude":-19.83,"longitude":-57.31,"erro_localizacao_km":13,"uf":"MS","profundidade_km":0,"magnitude":2.3,"tipo_magnitude_codigo":"1","categoria_codigo":"I","intensidade_catalogo":null,"localidade":"Ladário","comentarios":"(MR-magSC3)","fonte":"Centro de Sismologia da USP · Boletim Sísmico preliminar · eventos a partir de 2001","status_dado":"preliminar","capturado_em":"2026-08-12","linha_catalogo_original":"2022 0321 013358  -19.83 -57.31  13 MS   0.  2.3  1  I           Ladário               (MR-magSC3)"}},{"type":"Feature","geometry":{"type":"Point","coordinates":[-56.2,-20.34]},"properties":{"evento_id":"USP-MS-20220412-205333-028","data":"2022-04-12","hora":"20:53:33","latitude":-20.34,"longitude":-56.2,"erro_localizacao_km":8,"uf":"MS","profundidade_km":0,"magnitude":2,"tipo_magnitude_codigo":"1","categoria_codigo":"I","intensidade_catalogo":null,"localidade":"Miranda","comentarios":"(MR-magSC3)","fonte":"Centro de Sismologia da USP · Boletim Sísmico preliminar · eventos a partir de 2001","status_dado":"preliminar","capturado_em":"2026-08-12","linha_catalogo_original":"2022 0412 205333  -20.34 -56.20  08 MS   0.  2.0  1  I           Miranda               (MR-magSC3)"}},{"type":"Feature","geometry":{"type":"Point","coordinates":[-56.21,-20.4]},"properties":{"evento_id":"USP-MS-20230110-211555-029","data":"2023-01-10","hora":"21:15:55","latitude":-20.4,"longitude":-56.21,"erro_localizacao_km":8,"uf":"MS","profundidade_km":0,"magnitude":2.1,"tipo_magnitude_codigo":"1","categoria_codigo":"I","intensidade_catalogo":null,"localidade":"Miranda","comentarios":"(MR-magSC3)","fonte":"Centro de Sismologia da USP · Boletim Sísmico preliminar · eventos a partir de 2001","status_dado":"preliminar","capturado_em":"2026-08-12","linha_catalogo_original":"2023 0110 211555  -20.40 -56.21  08 MS   0.  2.1  1  I           Miranda               (MR-magSC3)"}},{"type":"Feature","geometry":{"type":"Point","coordinates":[-56.55,-18.96]},"properties":{"evento_id":"USP-MS-20230130-042848-030","data":"2023-01-30","hora":"04:28:48","latitude":-18.96,"longitude":-56.55,"erro_localizacao_km":25,"uf":"MS","profundidade_km":0,"magnitude":3.2,"tipo_magnitude_codigo":"1","categoria_codigo":"I","intensidade_catalogo":null,"localidade":"Ladário","comentarios":"(MR-magSC3)","fonte":"Centro de Sismologia da USP · Boletim Sísmico preliminar · eventos a partir de 2001","status_dado":"preliminar","capturado_em":"2026-08-12","linha_catalogo_original":"2023 0130 042848  -18.96 -56.55  25 MS   0.  3.2  1  I           Ladário               (MR-magSC3)"}},{"type":"Feature","geometry":{"type":"Point","coordinates":[-55.95,-17.61]},"properties":{"evento_id":"USP-MS-20230414-115447-031","data":"2023-04-14","hora":"11:54:47","latitude":-17.61,"longitude":-55.95,"erro_localizacao_km":16,"uf":"MS","profundidade_km":0,"magnitude":3.1,"tipo_magnitude_codigo":"1","categoria_codigo":"I","intensidade_catalogo":null,"localidade":"Nova Esperança","comentarios":"(MR-magSC3)rg de Corumbá/MS","fonte":"Centro de Sismologia da USP · Boletim Sísmico preliminar · eventos a partir de 2001","status_dado":"preliminar","capturado_em":"2026-08-12","linha_catalogo_original":"2023 0414 115447  -17.61 -55.95  16 MS   0.  3.1  1  I           Nova Esperança        (MR-magSC3)rg de Corumbá/MS"}},{"type":"Feature","geometry":{"type":"Point","coordinates":[-56.3,-20.46]},"properties":{"evento_id":"USP-MS-20230715-212830-032","data":"2023-07-15","hora":"21:28:30","latitude":-20.46,"longitude":-56.3,"erro_localizacao_km":7,"uf":"MS","profundidade_km":0,"magnitude":1.8,"tipo_magnitude_codigo":"1","categoria_codigo":"I","intensidade_catalogo":null,"localidade":"Miranda","comentarios":"(MR-magSC3)","fonte":"Centro de Sismologia da USP · Boletim Sísmico preliminar · eventos a partir de 2001","status_dado":"preliminar","capturado_em":"2026-08-12","linha_catalogo_original":"2023 0715 212830  -20.46 -56.30  07 MS   0.  1.8  1  I           Miranda               (MR-magSC3)"}},{"type":"Feature","geometry":{"type":"Point","coordinates":[-56.97,-21.32]},"properties":{"evento_id":"USP-MS-20230803-045834-033","data":"2023-08-03","hora":"04:58:34","latitude":-21.32,"longitude":-56.97,"erro_localizacao_km":62,"uf":"MS","profundidade_km":0,"magnitude":2.9,"tipo_magnitude_codigo":"1","categoria_codigo":"I","intensidade_catalogo":null,"localidade":"Bonito","comentarios":"(MR-magSC3)","fonte":"Centro de Sismologia da USP · Boletim Sísmico preliminar · eventos a partir de 2001","status_dado":"preliminar","capturado_em":"2026-08-12","linha_catalogo_original":"2023 0803 045834  -21.32 -56.97  62 MS   0.  2.9  1  I           Bonito                (MR-magSC3)"}},{"type":"Feature","geometry":{"type":"Point","coordinates":[-56.19,-20.46]},"properties":{"evento_id":"USP-MS-20231004-193357-034","data":"2023-10-04","hora":"19:33:57","latitude":-20.46,"longitude":-56.19,"erro_localizacao_km":8,"uf":"MS","profundidade_km":0,"magnitude":2,"tipo_magnitude_codigo":"1","categoria_codigo":"I","intensidade_catalogo":null,"localidade":"Miranda","comentarios":"(MR-magSC3)","fonte":"Centro de Sismologia da USP · Boletim Sísmico preliminar · eventos a partir de 2001","status_dado":"preliminar","capturado_em":"2026-08-12","linha_catalogo_original":"2023 1004 193357  -20.46 -56.19  08 MS   0.  2.0  1  I           Miranda               (MR-magSC3)"}},{"type":"Feature","geometry":{"type":"Point","coordinates":[-56.66,-20.54]},"properties":{"evento_id":"USP-MS-20231026-191247-035","data":"2023-10-26","hora":"19:12:47","latitude":-20.54,"longitude":-56.66,"erro_localizacao_km":15,"uf":"MS","profundidade_km":0,"magnitude":2.1,"tipo_magnitude_codigo":"5","categoria_codigo":"I","intensidade_catalogo":null,"localidade":"Bodoquena","comentarios":"(magSC3-0.5)","fonte":"Centro de Sismologia da USP · Boletim Sísmico preliminar · eventos a partir de 2001","status_dado":"preliminar","capturado_em":"2026-08-12","linha_catalogo_original":"2023 1026 191247  -20.54 -56.66  15 MS   0.  2.1  5  I           Bodoquena             (magSC3-0.5)"}},{"type":"Feature","geometry":{"type":"Point","coordinates":[-57.26,-21.4]},"properties":{"evento_id":"USP-MS-20231214-023358-036","data":"2023-12-14","hora":"02:33:58","latitude":-21.4,"longitude":-57.26,"erro_localizacao_km":27,"uf":"MS","profundidade_km":0,"magnitude":2.9,"tipo_magnitude_codigo":"1","categoria_codigo":"I","intensidade_catalogo":null,"localidade":"Caracol","comentarios":"(MR-magSC3","fonte":"Centro de Sismologia da USP · Boletim Sísmico preliminar · eventos a partir de 2001","status_dado":"preliminar","capturado_em":"2026-08-12","linha_catalogo_original":"2023 1214 023358  -21.40 -57.26  27 MS   0.  2.9  1  I           Caracol               (MR-magSC3"}},{"type":"Feature","geometry":{"type":"Point","coordinates":[-56.11,-18.55]},"properties":{"evento_id":"USP-MS-20240827-003749-037","data":"2024-08-27","hora":"00:37:49","latitude":-18.55,"longitude":-56.11,"erro_localizacao_km":0,"uf":"MS","profundidade_km":0,"magnitude":3,"tipo_magnitude_codigo":"1","categoria_codigo":"I","intensidade_catalogo":null,"localidade":"Rio Verde de M. Grosso","comentarios":"(MR-magSC3)","fonte":"Centro de Sismologia da USP · Boletim Sísmico preliminar · eventos a partir de 2001","status_dado":"preliminar","capturado_em":"2026-08-12","linha_catalogo_original":"2024 0827 003749  -18.55 -56.11  00 MS   0.  3.0  1  I           Rio Verde de M. Grosso(MR-magSC3)"}},{"type":"Feature","geometry":{"type":"Point","coordinates":[-56.43,-21.05]},"properties":{"evento_id":"USP-MS-20240916-120428-038","data":"2024-09-16","hora":"12:04:28","latitude":-21.05,"longitude":-56.43,"erro_localizacao_km":0,"uf":"MS","profundidade_km":0,"magnitude":1.7,"tipo_magnitude_codigo":"1","categoria_codigo":"I","intensidade_catalogo":null,"localidade":"Bonito","comentarios":"(MR-magSC3)","fonte":"Centro de Sismologia da USP · Boletim Sísmico preliminar · eventos a partir de 2001","status_dado":"preliminar","capturado_em":"2026-08-12","linha_catalogo_original":"2024 0916 120428  -21.05 -56.43  00 MS   0.  1.7  1  I           Bonito                (MR-magSC3)"}},{"type":"Feature","geometry":{"type":"Point","coordinates":[-56.38,-19.46]},"properties":{"evento_id":"USP-MS-20241126-054236-039","data":"2024-11-26","hora":"05:42:36","latitude":-19.46,"longitude":-56.38,"erro_localizacao_km":0,"uf":"MS","profundidade_km":0,"magnitude":2.1,"tipo_magnitude_codigo":"1","categoria_codigo":"I","intensidade_catalogo":null,"localidade":"Miranda","comentarios":"(MR-magSC3)","fonte":"Centro de Sismologia da USP · Boletim Sísmico preliminar · eventos a partir de 2001","status_dado":"preliminar","capturado_em":"2026-08-12","linha_catalogo_original":"2024 1126 054236  -19.46 -56.38  00 MS   0.  2.1  1  I           Miranda               (MR-magSC3)"}},{"type":"Feature","geometry":{"type":"Point","coordinates":[-56.65,-18.01]},"properties":{"evento_id":"USP-MS-20241127-124946-040","data":"2024-11-27","hora":"12:49:46","latitude":-18.01,"longitude":-56.65,"erro_localizacao_km":0,"uf":"MS","profundidade_km":0,"magnitude":2.1,"tipo_magnitude_codigo":"1","categoria_codigo":"I","intensidade_catalogo":null,"localidade":"Ladario","comentarios":"(MR-magSC3)","fonte":"Centro de Sismologia da USP · Boletim Sísmico preliminar · eventos a partir de 2001","status_dado":"preliminar","capturado_em":"2026-08-12","linha_catalogo_original":"2024 1127 124946  -18.01 -56.65  00 MS   0.  2.1  1  I           Ladario               (MR-magSC3)"}},{"type":"Feature","geometry":{"type":"Point","coordinates":[-55.86,-17.86]},"properties":{"evento_id":"USP-MS-20250305-080114-041","data":"2025-03-05","hora":"08:01:14","latitude":-17.86,"longitude":-55.86,"erro_localizacao_km":0,"uf":"MS","profundidade_km":0,"magnitude":2.1,"tipo_magnitude_codigo":"1","categoria_codigo":"I","intensidade_catalogo":null,"localidade":"Sonora","comentarios":"(MR-magSC3)","fonte":"Centro de Sismologia da USP · Boletim Sísmico preliminar · eventos a partir de 2001","status_dado":"preliminar","capturado_em":"2026-08-12","linha_catalogo_original":"2025 0305 080114  -17.86 -55.86  00 MS   0.  2.1  1  I           Sonora                (MR-magSC3)"}},{"type":"Feature","geometry":{"type":"Point","coordinates":[-55.6,-22.32]},"properties":{"evento_id":"USP-MS-20250314-235207-042","data":"2025-03-14","hora":"23:52:07","latitude":-22.32,"longitude":-55.6,"erro_localizacao_km":0,"uf":"MS","profundidade_km":0,"magnitude":2,"tipo_magnitude_codigo":"1","categoria_codigo":"I","intensidade_catalogo":null,"localidade":"Ponta Pora","comentarios":"(MR-magSC3)","fonte":"Centro de Sismologia da USP · Boletim Sísmico preliminar · eventos a partir de 2001","status_dado":"preliminar","capturado_em":"2026-08-12","linha_catalogo_original":"2025 0314 235207  -22.32 -55.60  00 MS   0.  2.0  1  I           Ponta Pora            (MR-magSC3)"}},{"type":"Feature","geometry":{"type":"Point","coordinates":[-57.9,-20.06]},"properties":{"evento_id":"USP-MS-20250321-153932-043","data":"2025-03-21","hora":"15:39:32","latitude":-20.06,"longitude":-57.9,"erro_localizacao_km":0,"uf":"MS","profundidade_km":0,"magnitude":2.1,"tipo_magnitude_codigo":"1","categoria_codigo":"I","intensidade_catalogo":null,"localidade":"Corumbá","comentarios":"(MR-magSC3)","fonte":"Centro de Sismologia da USP · Boletim Sísmico preliminar · eventos a partir de 2001","status_dado":"preliminar","capturado_em":"2026-08-12","linha_catalogo_original":"2025 0321 153932  -20.06 -57.90  00 MS   0.  2.1  1  I           Corumbá               (MR-magSC3)"}},{"type":"Feature","geometry":{"type":"Point","coordinates":[-55.98,-22.78]},"properties":{"evento_id":"USP-MS-20250329-131256-044","data":"2025-03-29","hora":"13:12:56","latitude":-22.78,"longitude":-55.98,"erro_localizacao_km":0,"uf":"MS","profundidade_km":0,"magnitude":2.3,"tipo_magnitude_codigo":"1","categoria_codigo":"I","intensidade_catalogo":null,"localidade":"Ponta Pora","comentarios":"(MR-magSC3)","fonte":"Centro de Sismologia da USP · Boletim Sísmico preliminar · eventos a partir de 2001","status_dado":"preliminar","capturado_em":"2026-08-12","linha_catalogo_original":"2025 0329 131256  -22.78 -55.98  00 MS   0.  2.3  1  I           Ponta Pora            (MR-magSC3)"}},{"type":"Feature","geometry":{"type":"Point","coordinates":[-56.42,-21]},"properties":{"evento_id":"USP-MS-20250419-200457-045","data":"2025-04-19","hora":"20:04:57","latitude":-21,"longitude":-56.42,"erro_localizacao_km":0,"uf":"MS","profundidade_km":0,"magnitude":1.8,"tipo_magnitude_codigo":"1","categoria_codigo":"I","intensidade_catalogo":null,"localidade":"Bonito","comentarios":"(MR-magSC3)","fonte":"Centro de Sismologia da USP · Boletim Sísmico preliminar · eventos a partir de 2001","status_dado":"preliminar","capturado_em":"2026-08-12","linha_catalogo_original":"2025 0419 200457  -21.00 -56.42  00 MS   0.  1.8  1  I           Bonito                (MR-magSC3)"}},{"type":"Feature","geometry":{"type":"Point","coordinates":[-55.19,-19.36]},"properties":{"evento_id":"USP-MS-20250426-025624-046","data":"2025-04-26","hora":"02:56:24","latitude":-19.36,"longitude":-55.19,"erro_localizacao_km":0,"uf":"MS","profundidade_km":0,"magnitude":2,"tipo_magnitude_codigo":"1","categoria_codigo":"I","intensidade_catalogo":null,"localidade":"Rio Negro","comentarios":"(MR-magSC3)","fonte":"Centro de Sismologia da USP · Boletim Sísmico preliminar · eventos a partir de 2001","status_dado":"preliminar","capturado_em":"2026-08-12","linha_catalogo_original":"2025 0426 025624  -19.36 -55.19  00 MS   0.  2.0  1  I           Rio Negro             (MR-magSC3)"}},{"type":"Feature","geometry":{"type":"Point","coordinates":[-56.17,-20.44]},"properties":{"evento_id":"USP-MS-20250428-203247-047","data":"2025-04-28","hora":"20:32:47","latitude":-20.44,"longitude":-56.17,"erro_localizacao_km":0,"uf":"MS","profundidade_km":0,"magnitude":1.6,"tipo_magnitude_codigo":"1","categoria_codigo":"I","intensidade_catalogo":null,"localidade":"Miranda","comentarios":"(MR-magSC3)","fonte":"Centro de Sismologia da USP · Boletim Sísmico preliminar · eventos a partir de 2001","status_dado":"preliminar","capturado_em":"2026-08-12","linha_catalogo_original":"2025 0428 203247  -20.44 -56.17  00 MS   0.  1.6  1  I           Miranda               (MR-magSC3)"}},{"type":"Feature","geometry":{"type":"Point","coordinates":[-55.36,-16.97]},"properties":{"evento_id":"USP-MS-20250513-034159-048","data":"2025-05-13","hora":"03:41:59","latitude":-16.97,"longitude":-55.36,"erro_localizacao_km":0,"uf":"MS","profundidade_km":0,"magnitude":3.5,"tipo_magnitude_codigo":"1","categoria_codigo":"I","intensidade_catalogo":null,"localidade":"Sonora","comentarios":"(MR-magSC3)","fonte":"Centro de Sismologia da USP · Boletim Sísmico preliminar · eventos a partir de 2001","status_dado":"preliminar","capturado_em":"2026-08-12","linha_catalogo_original":"2025 0513 034159  -16.97 -55.36  00 MS   0.  3.5  1  I           Sonora                (MR-magSC3)"}},{"type":"Feature","geometry":{"type":"Point","coordinates":[-55.36,-16.97]},"properties":{"evento_id":"USP-MS-20250513-034830-049","data":"2025-05-13","hora":"03:48:30","latitude":-16.97,"longitude":-55.36,"erro_localizacao_km":0,"uf":"MS","profundidade_km":0,"magnitude":1.2,"tipo_magnitude_codigo":"1","categoria_codigo":"I","intensidade_catalogo":null,"localidade":"Sonora","comentarios":"(MR-magSC3)","fonte":"Centro de Sismologia da USP · Boletim Sísmico preliminar · eventos a partir de 2001","status_dado":"preliminar","capturado_em":"2026-08-12","linha_catalogo_original":"2025 0513 034830  -16.97 -55.36  00 MS   0.  1.2  1  I           Sonora                (MR-magSC3)"}},{"type":"Feature","geometry":{"type":"Point","coordinates":[-55.36,-16.97]},"properties":{"evento_id":"USP-MS-20250513-034935-050","data":"2025-05-13","hora":"03:49:35","latitude":-16.97,"longitude":-55.36,"erro_localizacao_km":0,"uf":"MS","profundidade_km":0,"magnitude":1.3,"tipo_magnitude_codigo":"1","categoria_codigo":"I","intensidade_catalogo":null,"localidade":"Sonora","comentarios":"(MR-magSC3)","fonte":"Centro de Sismologia da USP · Boletim Sísmico preliminar · eventos a partir de 2001","status_dado":"preliminar","capturado_em":"2026-08-12","linha_catalogo_original":"2025 0513 034935  -16.97 -55.36  00 MS   0.  1.3  1  I           Sonora                (MR-magSC3)"}},{"type":"Feature","geometry":{"type":"Point","coordinates":[-55.36,-16.97]},"properties":{"evento_id":"USP-MS-20250513-035017-051","data":"2025-05-13","hora":"03:50:17","latitude":-16.97,"longitude":-55.36,"erro_localizacao_km":0,"uf":"MS","profundidade_km":0,"magnitude":1.3,"tipo_magnitude_codigo":"1","categoria_codigo":"I","intensidade_catalogo":null,"localidade":"Sonora","comentarios":"(MR-magSC3)","fonte":"Centro de Sismologia da USP · Boletim Sísmico preliminar · eventos a partir de 2001","status_dado":"preliminar","capturado_em":"2026-08-12","linha_catalogo_original":"2025 0513 035017  -16.97 -55.36  00 MS   0.  1.3  1  I           Sonora                (MR-magSC3)"}},{"type":"Feature","geometry":{"type":"Point","coordinates":[-55.36,-16.97]},"properties":{"evento_id":"USP-MS-20250513-035436-052","data":"2025-05-13","hora":"03:54:36","latitude":-16.97,"longitude":-55.36,"erro_localizacao_km":0,"uf":"MS","profundidade_km":0,"magnitude":1.2,"tipo_magnitude_codigo":"1","categoria_codigo":"I","intensidade_catalogo":null,"localidade":"Sonora","comentarios":"(MR-magSC3)","fonte":"Centro de Sismologia da USP · Boletim Sísmico preliminar · eventos a partir de 2001","status_dado":"preliminar","capturado_em":"2026-08-12","linha_catalogo_original":"2025 0513 035436  -16.97 -55.36  00 MS   0.  1.2  1  I           Sonora                (MR-magSC3)"}},{"type":"Feature","geometry":{"type":"Point","coordinates":[-55.36,-16.97]},"properties":{"evento_id":"USP-MS-20250513-035527-053","data":"2025-05-13","hora":"03:55:27","latitude":-16.97,"longitude":-55.36,"erro_localizacao_km":0,"uf":"MS","profundidade_km":0,"magnitude":1.3,"tipo_magnitude_codigo":"1","categoria_codigo":"I","intensidade_catalogo":null,"localidade":"Sonora","comentarios":"(MR-magSC3)","fonte":"Centro de Sismologia da USP · Boletim Sísmico preliminar · eventos a partir de 2001","status_dado":"preliminar","capturado_em":"2026-08-12","linha_catalogo_original":"2025 0513 035527  -16.97 -55.36  00 MS   0.  1.3  1  I           Sonora                (MR-magSC3)"}},{"type":"Feature","geometry":{"type":"Point","coordinates":[-55.36,-16.97]},"properties":{"evento_id":"USP-MS-20250513-035656-054","data":"2025-05-13","hora":"03:56:56","latitude":-16.97,"longitude":-55.36,"erro_localizacao_km":0,"uf":"MS","profundidade_km":0,"magnitude":1.3,"tipo_magnitude_codigo":"1","categoria_codigo":"I","intensidade_catalogo":null,"localidade":"Sonora","comentarios":"(MR-magSC3)","fonte":"Centro de Sismologia da USP · Boletim Sísmico preliminar · eventos a partir de 2001","status_dado":"preliminar","capturado_em":"2026-08-12","linha_catalogo_original":"2025 0513 035656  -16.97 -55.36  00 MS   0.  1.3  1  I           Sonora                (MR-magSC3)"}},{"type":"Feature","geometry":{"type":"Point","coordinates":[-55.36,-16.97]},"properties":{"evento_id":"USP-MS-20250513-040237-055","data":"2025-05-13","hora":"04:02:37","latitude":-16.97,"longitude":-55.36,"erro_localizacao_km":0,"uf":"MS","profundidade_km":0,"magnitude":1.7,"tipo_magnitude_codigo":"1","categoria_codigo":"I","intensidade_catalogo":null,"localidade":"Sonora","comentarios":"(MR-magSC3)","fonte":"Centro de Sismologia da USP · Boletim Sísmico preliminar · eventos a partir de 2001","status_dado":"preliminar","capturado_em":"2026-08-12","linha_catalogo_original":"2025 0513 040237  -16.97 -55.36  00 MS   0.  1.7  1  I           Sonora                (MR-magSC3)"}},{"type":"Feature","geometry":{"type":"Point","coordinates":[-55.36,-16.97]},"properties":{"evento_id":"USP-MS-20250513-040429-056","data":"2025-05-13","hora":"04:04:29","latitude":-16.97,"longitude":-55.36,"erro_localizacao_km":0,"uf":"MS","profundidade_km":0,"magnitude":1,"tipo_magnitude_codigo":"1","categoria_codigo":"I","intensidade_catalogo":null,"localidade":"Sonora","comentarios":"(MR-magSC3)","fonte":"Centro de Sismologia da USP · Boletim Sísmico preliminar · eventos a partir de 2001","status_dado":"preliminar","capturado_em":"2026-08-12","linha_catalogo_original":"2025 0513 040429  -16.97 -55.36  00 MS   0.  1.0  1  I           Sonora                (MR-magSC3)"}},{"type":"Feature","geometry":{"type":"Point","coordinates":[-55.36,-16.97]},"properties":{"evento_id":"USP-MS-20250513-041021-057","data":"2025-05-13","hora":"04:10:21","latitude":-16.97,"longitude":-55.36,"erro_localizacao_km":0,"uf":"MS","profundidade_km":0,"magnitude":1.4,"tipo_magnitude_codigo":"1","categoria_codigo":"I","intensidade_catalogo":null,"localidade":"Sonora","comentarios":"(MR-magSC3)","fonte":"Centro de Sismologia da USP · Boletim Sísmico preliminar · eventos a partir de 2001","status_dado":"preliminar","capturado_em":"2026-08-12","linha_catalogo_original":"2025 0513 041021  -16.97 -55.36  00 MS   0.  1.4  1  I           Sonora                (MR-magSC3)"}},{"type":"Feature","geometry":{"type":"Point","coordinates":[-55.36,-16.97]},"properties":{"evento_id":"USP-MS-20250513-041141-058","data":"2025-05-13","hora":"04:11:41","latitude":-16.97,"longitude":-55.36,"erro_localizacao_km":0,"uf":"MS","profundidade_km":0,"magnitude":1.7,"tipo_magnitude_codigo":"1","categoria_codigo":"I","intensidade_catalogo":null,"localidade":"Sonora","comentarios":"(MR-magSC3)","fonte":"Centro de Sismologia da USP · Boletim Sísmico preliminar · eventos a partir de 2001","status_dado":"preliminar","capturado_em":"2026-08-12","linha_catalogo_original":"2025 0513 041141  -16.97 -55.36  00 MS   0.  1.7  1  I           Sonora                (MR-magSC3)"}},{"type":"Feature","geometry":{"type":"Point","coordinates":[-55.36,-16.97]},"properties":{"evento_id":"USP-MS-20250513-041314-059","data":"2025-05-13","hora":"04:13:14","latitude":-16.97,"longitude":-55.36,"erro_localizacao_km":0,"uf":"MS","profundidade_km":0,"magnitude":1.6,"tipo_magnitude_codigo":"1","categoria_codigo":"I","intensidade_catalogo":null,"localidade":"Sonora","comentarios":"(MR-magSC3)","fonte":"Centro de Sismologia da USP · Boletim Sísmico preliminar · eventos a partir de 2001","status_dado":"preliminar","capturado_em":"2026-08-12","linha_catalogo_original":"2025 0513 041314  -16.97 -55.36  00 MS   0.  1.6  1  I           Sonora                (MR-magSC3)"}},{"type":"Feature","geometry":{"type":"Point","coordinates":[-55.36,-16.97]},"properties":{"evento_id":"USP-MS-20250513-042130-060","data":"2025-05-13","hora":"04:21:30","latitude":-16.97,"longitude":-55.36,"erro_localizacao_km":0,"uf":"MS","profundidade_km":0,"magnitude":1.9,"tipo_magnitude_codigo":"1","categoria_codigo":"I","intensidade_catalogo":null,"localidade":"Sonora","comentarios":"(MR-magSC3)","fonte":"Centro de Sismologia da USP · Boletim Sísmico preliminar · eventos a partir de 2001","status_dado":"preliminar","capturado_em":"2026-08-12","linha_catalogo_original":"2025 0513 042130  -16.97 -55.36  00 MS   0.  1.9  1  I           Sonora                (MR-magSC3)"}},{"type":"Feature","geometry":{"type":"Point","coordinates":[-55.36,-16.97]},"properties":{"evento_id":"USP-MS-20250513-043346-061","data":"2025-05-13","hora":"04:33:46","latitude":-16.97,"longitude":-55.36,"erro_localizacao_km":0,"uf":"MS","profundidade_km":0,"magnitude":1,"tipo_magnitude_codigo":"1","categoria_codigo":"I","intensidade_catalogo":null,"localidade":"Sonora","comentarios":"(MR-magSC3)","fonte":"Centro de Sismologia da USP · Boletim Sísmico preliminar · eventos a partir de 2001","status_dado":"preliminar","capturado_em":"2026-08-12","linha_catalogo_original":"2025 0513 043346  -16.97 -55.36  00 MS   0.  1.0  1  I           Sonora                (MR-magSC3)"}},{"type":"Feature","geometry":{"type":"Point","coordinates":[-55.36,-16.97]},"properties":{"evento_id":"USP-MS-20250513-044639-062","data":"2025-05-13","hora":"04:46:39","latitude":-16.97,"longitude":-55.36,"erro_localizacao_km":0,"uf":"MS","profundidade_km":0,"magnitude":1.1,"tipo_magnitude_codigo":"1","categoria_codigo":"I","intensidade_catalogo":null,"localidade":"Sonora","comentarios":"(MR-magSC3)","fonte":"Centro de Sismologia da USP · Boletim Sísmico preliminar · eventos a partir de 2001","status_dado":"preliminar","capturado_em":"2026-08-12","linha_catalogo_original":"2025 0513 044639  -16.97 -55.36  00 MS   0.  1.1  1  I           Sonora                (MR-magSC3)"}},{"type":"Feature","geometry":{"type":"Point","coordinates":[-55.36,-16.97]},"properties":{"evento_id":"USP-MS-20250513-045201-063","data":"2025-05-13","hora":"04:52:01","latitude":-16.97,"longitude":-55.36,"erro_localizacao_km":0,"uf":"MS","profundidade_km":0,"magnitude":1.8,"tipo_magnitude_codigo":"1","categoria_codigo":"I","intensidade_catalogo":null,"localidade":"Sonora","comentarios":"(MR-magSC3)","fonte":"Centro de Sismologia da USP · Boletim Sísmico preliminar · eventos a partir de 2001","status_dado":"preliminar","capturado_em":"2026-08-12","linha_catalogo_original":"2025 0513 045201  -16.97 -55.36  00 MS   0.  1.8  1  I           Sonora                (MR-magSC3)"}},{"type":"Feature","geometry":{"type":"Point","coordinates":[-55.36,-16.97]},"properties":{"evento_id":"USP-MS-20250513-045426-064","data":"2025-05-13","hora":"04:54:26","latitude":-16.97,"longitude":-55.36,"erro_localizacao_km":0,"uf":"MS","profundidade_km":0,"magnitude":1.7,"tipo_magnitude_codigo":"1","categoria_codigo":"I","intensidade_catalogo":null,"localidade":"Sonora","comentarios":"(MR-magSC3)","fonte":"Centro de Sismologia da USP · Boletim Sísmico preliminar · eventos a partir de 2001","status_dado":"preliminar","capturado_em":"2026-08-12","linha_catalogo_original":"2025 0513 045426  -16.97 -55.36  00 MS   0.  1.7  1  I           Sonora                (MR-magSC3)"}},{"type":"Feature","geometry":{"type":"Point","coordinates":[-55.36,-16.97]},"properties":{"evento_id":"USP-MS-20250513-050904-065","data":"2025-05-13","hora":"05:09:04","latitude":-16.97,"longitude":-55.36,"erro_localizacao_km":0,"uf":"MS","profundidade_km":0,"magnitude":1.4,"tipo_magnitude_codigo":"1","categoria_codigo":"I","intensidade_catalogo":null,"localidade":"Sonora","comentarios":"(MR-magSC3)","fonte":"Centro de Sismologia da USP · Boletim Sísmico preliminar · eventos a partir de 2001","status_dado":"preliminar","capturado_em":"2026-08-12","linha_catalogo_original":"2025 0513 050904  -16.97 -55.36  00 MS   0.  1.4  1  I           Sonora                (MR-magSC3)"}},{"type":"Feature","geometry":{"type":"Point","coordinates":[-55.36,-16.97]},"properties":{"evento_id":"USP-MS-20250513-054136-066","data":"2025-05-13","hora":"05:41:36","latitude":-16.97,"longitude":-55.36,"erro_localizacao_km":0,"uf":"MS","profundidade_km":0,"magnitude":1.2,"tipo_magnitude_codigo":"1","categoria_codigo":"I","intensidade_catalogo":null,"localidade":"Sonora","comentarios":"(MR-magSC3)","fonte":"Centro de Sismologia da USP · Boletim Sísmico preliminar · eventos a partir de 2001","status_dado":"preliminar","capturado_em":"2026-08-12","linha_catalogo_original":"2025 0513 054136  -16.97 -55.36  00 MS   0.  1.2  1  I           Sonora                (MR-magSC3)"}},{"type":"Feature","geometry":{"type":"Point","coordinates":[-55.36,-16.97]},"properties":{"evento_id":"USP-MS-20250513-055102-067","data":"2025-05-13","hora":"05:51:02","latitude":-16.97,"longitude":-55.36,"erro_localizacao_km":0,"uf":"MS","profundidade_km":0,"magnitude":1.4,"tipo_magnitude_codigo":"1","categoria_codigo":"I","intensidade_catalogo":null,"localidade":"Sonora","comentarios":"(MR-magSC3)","fonte":"Centro de Sismologia da USP · Boletim Sísmico preliminar · eventos a partir de 2001","status_dado":"preliminar","capturado_em":"2026-08-12","linha_catalogo_original":"2025 0513 055102  -16.97 -55.36  00 MS   0.  1.4  1  I           Sonora                (MR-magSC3)"}},{"type":"Feature","geometry":{"type":"Point","coordinates":[-55.36,-16.97]},"properties":{"evento_id":"USP-MS-20250513-122042-068","data":"2025-05-13","hora":"12:20:42","latitude":-16.97,"longitude":-55.36,"erro_localizacao_km":0,"uf":"MS","profundidade_km":0,"magnitude":2.1,"tipo_magnitude_codigo":"1","categoria_codigo":"I","intensidade_catalogo":null,"localidade":"Sonora","comentarios":"(MR-magSC3)","fonte":"Centro de Sismologia da USP · Boletim Sísmico preliminar · eventos a partir de 2001","status_dado":"preliminar","capturado_em":"2026-08-12","linha_catalogo_original":"2025 0513 122042  -16.97 -55.36  00 MS   0.  2.1  1  I           Sonora                (MR-magSC3)"}},{"type":"Feature","geometry":{"type":"Point","coordinates":[-55.43,-17.01]},"properties":{"evento_id":"USP-MS-20250516-053253-069","data":"2025-05-16","hora":"05:32:53","latitude":-17.01,"longitude":-55.43,"erro_localizacao_km":0,"uf":"MS","profundidade_km":0,"magnitude":1.5,"tipo_magnitude_codigo":"1","categoria_codigo":"I","intensidade_catalogo":null,"localidade":"Sonora","comentarios":"(MR-magSC3)","fonte":"Centro de Sismologia da USP · Boletim Sísmico preliminar · eventos a partir de 2001","status_dado":"preliminar","capturado_em":"2026-08-12","linha_catalogo_original":"2025 0516 053253  -17.01 -55.43  00 MS   0.  1.5  1  I           Sonora                (MR-magSC3)"}},{"type":"Feature","geometry":{"type":"Point","coordinates":[-56.45,-20.99]},"properties":{"evento_id":"USP-MS-20250603-130515-070","data":"2025-06-03","hora":"13:05:15","latitude":-20.99,"longitude":-56.45,"erro_localizacao_km":0,"uf":"MS","profundidade_km":0,"magnitude":1.7,"tipo_magnitude_codigo":"1","categoria_codigo":"I","intensidade_catalogo":null,"localidade":"Bonito","comentarios":"(MR-magSC3)","fonte":"Centro de Sismologia da USP · Boletim Sísmico preliminar · eventos a partir de 2001","status_dado":"preliminar","capturado_em":"2026-08-12","linha_catalogo_original":"2025 0603 130515  -20.99 -56.45  00 MS   0.  1.7  1  I           Bonito                (MR-magSC3)"}},{"type":"Feature","geometry":{"type":"Point","coordinates":[-56.36,-20.57]},"properties":{"evento_id":"USP-MS-20250718-091258-071","data":"2025-07-18","hora":"09:12:58","latitude":-20.57,"longitude":-56.36,"erro_localizacao_km":0,"uf":"MS","profundidade_km":0,"magnitude":1.5,"tipo_magnitude_codigo":"1","categoria_codigo":"I","intensidade_catalogo":null,"localidade":"Miranda","comentarios":"(MR-magSC3)","fonte":"Centro de Sismologia da USP · Boletim Sísmico preliminar · eventos a partir de 2001","status_dado":"preliminar","capturado_em":"2026-08-12","linha_catalogo_original":"2025 0718 091258  -20.57 -56.36  00 MS   0.  1.5  1  I           Miranda               (MR-magSC3)"}},{"type":"Feature","geometry":{"type":"Point","coordinates":[-55.56,-17.69]},"properties":{"evento_id":"USP-MS-20250724-170339-072","data":"2025-07-24","hora":"17:03:39","latitude":-17.69,"longitude":-55.56,"erro_localizacao_km":0,"uf":"MS","profundidade_km":0,"magnitude":2.6,"tipo_magnitude_codigo":"1","categoria_codigo":"I","intensidade_catalogo":null,"localidade":"Sonora","comentarios":"(MR-magSC3)","fonte":"Centro de Sismologia da USP · Boletim Sísmico preliminar · eventos a partir de 2001","status_dado":"preliminar","capturado_em":"2026-08-12","linha_catalogo_original":"2025 0724 170339  -17.69 -55.56  00 MS   0.  2.6  1  I           Sonora                (MR-magSC3)"}},{"type":"Feature","geometry":{"type":"Point","coordinates":[-55.51,-18.27]},"properties":{"evento_id":"USP-MS-20250828-020550-073","data":"2025-08-28","hora":"02:05:50","latitude":-18.27,"longitude":-55.51,"erro_localizacao_km":0,"uf":"MS","profundidade_km":0,"magnitude":2.1,"tipo_magnitude_codigo":"1","categoria_codigo":"I","intensidade_catalogo":null,"localidade":"Coxim","comentarios":"(MR-magSC3)","fonte":"Centro de Sismologia da USP · Boletim Sísmico preliminar · eventos a partir de 2001","status_dado":"preliminar","capturado_em":"2026-08-12","linha_catalogo_original":"2025 0828 020550  -18.27 -55.51  00 MS   0.  2.1  1  I           Coxim                 (MR-magSC3)"}},{"type":"Feature","geometry":{"type":"Point","coordinates":[-56.73,-20.49]},"properties":{"evento_id":"USP-MS-20251104-214100-074","data":"2025-11-04","hora":"21:41:00","latitude":-20.49,"longitude":-56.73,"erro_localizacao_km":0,"uf":"MS","profundidade_km":0,"magnitude":1.8,"tipo_magnitude_codigo":"1","categoria_codigo":"I","intensidade_catalogo":null,"localidade":"Bodoquena","comentarios":"(MR-magSC3)","fonte":"Centro de Sismologia da USP · Boletim Sísmico preliminar · eventos a partir de 2001","status_dado":"preliminar","capturado_em":"2026-08-12","linha_catalogo_original":"2025 1104 214100  -20.49 -56.73  00 MS   0.  1.8  1  I           Bodoquena             (MR-magSC3)"}},{"type":"Feature","geometry":{"type":"Point","coordinates":[-56.61,-21.67]},"properties":{"evento_id":"USP-MS-20251106-141247-075","data":"2025-11-06","hora":"14:12:47","latitude":-21.67,"longitude":-56.61,"erro_localizacao_km":0,"uf":"MS","profundidade_km":0,"magnitude":2.3,"tipo_magnitude_codigo":"1","categoria_codigo":"I","intensidade_catalogo":null,"localidade":"Bela Vista","comentarios":"(MR-magSC3)","fonte":"Centro de Sismologia da USP · Boletim Sísmico preliminar · eventos a partir de 2001","status_dado":"preliminar","capturado_em":"2026-08-12","linha_catalogo_original":"2025 1106 141247  -21.67 -56.61  00 MS   0.  2.3  1  I           Bela Vista            (MR-magSC3)"}},{"type":"Feature","geometry":{"type":"Point","coordinates":[-56.5,-18.68]},"properties":{"evento_id":"USP-MS-20251121-025832-076","data":"2025-11-21","hora":"02:58:32","latitude":-18.68,"longitude":-56.5,"erro_localizacao_km":0,"uf":"MS","profundidade_km":0,"magnitude":2.2,"tipo_magnitude_codigo":"1","categoria_codigo":"I","intensidade_catalogo":null,"localidade":"Ladario","comentarios":"(MR-magSC3)","fonte":"Centro de Sismologia da USP · Boletim Sísmico preliminar · eventos a partir de 2001","status_dado":"preliminar","capturado_em":"2026-08-12","linha_catalogo_original":"2025 1121 025832  -18.68 -56.50  00 MS   0.  2.2  1  I           Ladario               (MR-magSC3)"}},{"type":"Feature","geometry":{"type":"Point","coordinates":[-56.36,-19.46]},"properties":{"evento_id":"USP-MS-20251228-095213-077","data":"2025-12-28","hora":"09:52:13","latitude":-19.46,"longitude":-56.36,"erro_localizacao_km":0,"uf":"MS","profundidade_km":0,"magnitude":1.5,"tipo_magnitude_codigo":"1","categoria_codigo":"I","intensidade_catalogo":null,"localidade":"Miranda","comentarios":"(MR-magSC3)","fonte":"Centro de Sismologia da USP · Boletim Sísmico preliminar · eventos a partir de 2001","status_dado":"preliminar","capturado_em":"2026-08-12","linha_catalogo_original":"2025 1228 095213  -19.46 -56.36  00 MS   0.  1.5  1  I           Miranda               (MR-magSC3)"}},{"type":"Feature","geometry":{"type":"Point","coordinates":[-56.71,-21.58]},"properties":{"evento_id":"USP-MS-20260303-142121-078","data":"2026-03-03","hora":"14:21:21","latitude":-21.58,"longitude":-56.71,"erro_localizacao_km":0,"uf":"MS","profundidade_km":0,"magnitude":1.8,"tipo_magnitude_codigo":"1","categoria_codigo":"I","intensidade_catalogo":null,"localidade":"Bonito","comentarios":"(MR-magSC3)","fonte":"Centro de Sismologia da USP · Boletim Sísmico preliminar · eventos a partir de 2001","status_dado":"preliminar","capturado_em":"2026-08-12","linha_catalogo_original":"2026 0303 142121  -21.58 -56.71  00 MS   0.  1.8  1  I           Bonito                (MR-magSC3)"}},{"type":"Feature","geometry":{"type":"Point","coordinates":[-53.91,-17.97]},"properties":{"evento_id":"USP-MS-20260308-081437-079","data":"2026-03-08","hora":"08:14:37","latitude":-17.97,"longitude":-53.91,"erro_localizacao_km":0,"uf":"MS","profundidade_km":0,"magnitude":2,"tipo_magnitude_codigo":"1","categoria_codigo":"I","intensidade_catalogo":null,"localidade":"Alcinopolis","comentarios":"(MR-magSC3)","fonte":"Centro de Sismologia da USP · Boletim Sísmico preliminar · eventos a partir de 2001","status_dado":"preliminar","capturado_em":"2026-08-12","linha_catalogo_original":"2026 0308 081437  -17.97 -53.91  00 MS   0.  2.0  1  I           Alcinopolis           (MR-magSC3)"}},{"type":"Feature","geometry":{"type":"Point","coordinates":[-54.19,-17.79]},"properties":{"evento_id":"USP-MS-20260321-045721-080","data":"2026-03-21","hora":"04:57:21","latitude":-17.79,"longitude":-54.19,"erro_localizacao_km":0,"uf":"MS","profundidade_km":0,"magnitude":2,"tipo_magnitude_codigo":"1","categoria_codigo":"I","intensidade_catalogo":null,"localidade":"Pedro Gomes","comentarios":"(MR-magSC3)","fonte":"Centro de Sismologia da USP · Boletim Sísmico preliminar · eventos a partir de 2001","status_dado":"preliminar","capturado_em":"2026-08-12","linha_catalogo_original":"2026 0321 045721  -17.79 -54.19  00 MS   0.  2.0  1  I           Pedro Gomes           (MR-magSC3)"}},{"type":"Feature","geometry":{"type":"Point","coordinates":[-55.61,-17.35]},"properties":{"evento_id":"USP-MS-20260402-030216-081","data":"2026-04-02","hora":"03:02:16","latitude":-17.35,"longitude":-55.61,"erro_localizacao_km":0,"uf":"MS","profundidade_km":0,"magnitude":1.6,"tipo_magnitude_codigo":"1","categoria_codigo":"I","intensidade_catalogo":null,"localidade":"Sonora","comentarios":"(MR-magSC3)","fonte":"Centro de Sismologia da USP · Boletim Sísmico preliminar · eventos a partir de 2001","status_dado":"preliminar","capturado_em":"2026-08-12","linha_catalogo_original":"2026 0402 030216  -17.35 -55.61  00 MS   0.  1.6  1  I           Sonora                (MR-magSC3)"}},{"type":"Feature","geometry":{"type":"Point","coordinates":[-57.54,-17.98]},"properties":{"evento_id":"USP-MS-20260528-061626-082","data":"2026-05-28","hora":"06:16:26","latitude":-17.98,"longitude":-57.54,"erro_localizacao_km":0,"uf":"MS","profundidade_km":0,"magnitude":1.4,"tipo_magnitude_codigo":"1","categoria_codigo":"I","intensidade_catalogo":null,"localidade":"Ladário","comentarios":"(MR-magSC3)","fonte":"Centro de Sismologia da USP · Boletim Sísmico preliminar · eventos a partir de 2001","status_dado":"preliminar","capturado_em":"2026-08-12","linha_catalogo_original":"2026 0528 061626  -17.98 -57.54  00 MS   0.  1.4  1  I           Ladário               (MR-magSC3)"}},{"type":"Feature","geometry":{"type":"Point","coordinates":[-56.64,-21.57]},"properties":{"evento_id":"USP-MS-20260611-153256-083","data":"2026-06-11","hora":"15:32:56","latitude":-21.57,"longitude":-56.64,"erro_localizacao_km":0,"uf":"MS","profundidade_km":0,"magnitude":1.8,"tipo_magnitude_codigo":"1","categoria_codigo":"I","intensidade_catalogo":null,"localidade":"Bonito","comentarios":"(MR-magSC3)","fonte":"Centro de Sismologia da USP · Boletim Sísmico preliminar · eventos a partir de 2001","status_dado":"preliminar","capturado_em":"2026-08-12","linha_catalogo_original":"2026 0611 153256  -21.57 -56.64  00 MS   0.  1.8  1  I           Bonito                (MR-magSC3)"}}],"atlas_metadata":{"fonte":"Centro de Sismologia da Universidade de São Paulo","produto":"Versão preliminar do Boletim Sísmico Brasileiro · eventos a partir de 2001","capturado_em":"2026-08-12","n_registros_ms":83,"status":"preliminar","observacao":"Camada exploratória para conferência. O corte científico de setembro deverá reconciliar os eventos até 2023 com SISBRA v2024May09 e os eventos posteriores com o catálogo mais recente."}}