{"type":"FeatureCollection","features":[{"type":"Feature","id":2,"geometry":{"type":"Polygon","coordinates":[[[-55.65236365199996,-21.248529690361934],[-55.654421431999936,-21.24900683436193],[-55.655209974999934,-21.249184763361946],[-55.65366378199997,-21.25179214736187],[-55.65360613299998,-21.251773620361853],[-55.65352891499998,-21.25284799336189],[-55.65352415299998,-21.25337190036187],[-55.65369903099997,-21.257456450361726],[-55.65328807999999,-21.25813971536174],[-55.64953499799998,-21.259681517361724],[-55.642415632999985,-21.262596338361636],[-55.641338719999965,-21.26338260636162],[-55.64043610899995,-21.26617570536154],[-55.64013314799996,-21.266633968361504],[-55.63935442699994,-21.267476828361534],[-55.63897137799996,-21.268259646361507],[-55.63907555299994,-21.268459224361482],[-55.640030174999936,-21.270499464361425],[-55.63900702199999,-21.27067187136145],[-55.63877540899995,-21.270706133361433],[-55.63726003199997,-21.270955853361432],[-55.63674663599994,-21.270192888361418],[-55.62954288599997,-21.267568944361482],[-55.62940920999995,-21.266393508361528],[-55.62960528299993,-21.266033765361545],[-55.63006145299994,-21.26568517036157],[-55.63029698699995,-21.26522637936155],[-55.63092810999996,-21.264716601361584],[-55.631161468999956,-21.26449266036159],[-55.631544463999944,-21.26371889436159],[-55.63190259099998,-21.263550166361593],[-55.632155969999985,-21.263245085361568],[-55.63319213099999,-21.262702452361637],[-55.63292707099998,-21.262185394361648],[-55.632969034999974,-21.26181536336166],[-55.63310552499996,-21.26164483436166],[-55.63332857199998,-21.261493074361667],[-55.633502771999986,-21.26141318636165],[-55.63336961799996,-21.261222403361664],[-55.63367316999996,-21.260700923361647],[-55.633675669999946,-21.260429940361643],[-55.63369610899997,-21.260303637361698],[-55.63317262999993,-21.259594782361702],[-55.63346040799997,-21.258693769361738],[-55.63353369299994,-21.258062021361713],[-55.63372094099998,-21.257611865361717],[-55.63341345899994,-21.2564711553618],[-55.63293237099998,-21.255347104361785],[-55.63370339399995,-21.255335289361792],[-55.63420978099998,-21.254761250361792],[-55.634854641999944,-21.25379989236183],[-55.63546892399995,-21.253018953361874],[-55.63529183899993,-21.252367109361888],[-55.63557451299994,-21.25201709136187],[-55.636028056999976,-21.250900610361914],[-55.635835431999965,-21.250890018361893],[-55.635381250999956,-21.249982994361954],[-55.635212389999936,-21.249484786361954],[-55.634707043999974,-21.248902552361947],[-55.63370308499998,-21.248054306361983],[-55.63320671799994,-21.247544408361975],[-55.63165065399994,-21.247007846362013],[-55.63104839599998,-21.24648805036202],[-55.63062199299998,-21.24570770936206],[-55.630405811999935,-21.24511877836203],[-55.629901951999955,-21.245421823362033],[-55.629652662999945,-21.24424544636208],[-55.62948190599997,-21.24395498836209],[-55.629340973999945,-21.2435654033621],[-55.632668742999954,-21.244233794362067],[-55.63492872099994,-21.24471281136202],[-55.637102166999966,-21.245173031362054],[-55.63924672199994,-21.24563299236204],[-55.641410561999976,-21.246093080362037],[-55.64348786599999,-21.246534379362018],[-55.64565148799994,-21.247021513362032],[-55.64784394999999,-21.247517885362],[-55.650074968999945,-21.248014538361964],[-55.65236365199996,-21.248529690361934]]]},"properties":{"objectid":2,"cd_quilomb":61,"cd_sr":"SR-16","nr_process":"54290.000372/2005-60","nm_comunid":"COLONIA SAO MIGUEL","nm_municip":"NIOAQUE","cd_uf":"MS","dt_publica":"15/07/2008","nr_familia":28,"dt_titulac":"08/09/2011","cd_sipra":null,"ob_descric":"Estudo de delimitação","st_titulad":"F","dt_decreto":"23/11/2009","tp_levanta":null,"esfera":"FEDERAL","fase":"TITULO PARCIAL","responsave":"INCRA","dt_sync":2540763991000,"Shape__Area":0.0003662130124650066,"Shape__Length":0.10042496901159884}},{"type":"Feature","id":59,"geometry":{"type":"Polygon","coordinates":[[[-54.972430260999936,-22.133480353340804],[-54.97242776399998,-22.133600606340767],[-54.974222460999954,-22.148253137340458],[-54.97466526199997,-22.152249683340365],[-54.97592047999996,-22.16250413234012],[-54.97602645799998,-22.163370102340117],[-54.97504316699997,-22.16761135133998],[-54.97428747499998,-22.168420828339958],[-54.97424176199997,-22.168495302339924],[-54.97419604899994,-22.168569775339975],[-54.973611421999976,-22.169030548339947],[-54.973505226999976,-22.169039612339937],[-54.97323327799995,-22.16939130233992],[-54.973084992999986,-22.169915202339926],[-54.97301577799993,-22.170178297339913],[-54.972643861999984,-22.170760188339916],[-54.97228051199995,-22.171528751339906],[-54.97226051899998,-22.171685675339912],[-54.97224052499996,-22.17184259933986],[-54.97180986899997,-22.172206759339858],[-54.97133155799997,-22.172445977339844],[-54.971333192999964,-22.172825179339863],[-54.97131852899997,-22.172880894339833],[-54.97124069599994,-22.173176661339834],[-54.97115321999996,-22.173509241339854],[-54.97121440799998,-22.17425157133982],[-54.97070728999995,-22.174822638339815],[-54.970031132999964,-22.175584061339766],[-54.96893871599997,-22.177028928339762],[-54.96886387199999,-22.17701710533974],[-54.967516684999964,-22.176804308339776],[-54.95979214799997,-22.1755842083398],[-54.954421869999976,-22.174735662339835],[-54.95241161899997,-22.17397932333983],[-54.941467942999964,-22.16986127633991],[-54.94098205699999,-22.16928811033995],[-54.94094646899998,-22.169479150339935],[-54.921120221999956,-22.146091275340474],[-54.921173200999924,-22.14598205434047],[-54.92118516799997,-22.14603846434048],[-54.92141546199996,-22.14613215234048],[-54.921659370999976,-22.146255903340467],[-54.92176022599995,-22.146228820340497],[-54.92413885299993,-22.14132581034059],[-54.92413834599995,-22.14132541734059],[-54.92401688299998,-22.141061727340613],[-54.92350886699995,-22.14116786634062],[-54.92582007599998,-22.136403619340722],[-54.93032137599994,-22.127123769340947],[-54.93102367999996,-22.127132673340913],[-54.935949815999955,-22.116975306341185],[-54.93593410099999,-22.116934556341192],[-54.935939563999966,-22.116559420341208],[-54.93581832899997,-22.1162530273412],[-54.93565173899998,-22.116132986341192],[-54.93963657699993,-22.108194552341406],[-54.94223368399997,-22.10268028834153],[-54.94288460499997,-22.10121601434157],[-54.94145832499999,-22.099009475341575],[-54.93994712899996,-22.09667452834162],[-54.939819990999986,-22.096528079341628],[-54.94476263299998,-22.09160065934181],[-54.94545877599995,-22.08880036634186],[-54.947179921999975,-22.08896133334185],[-54.947838827999924,-22.092453657341746],[-54.95651446399995,-22.074552741342192],[-54.95693777499997,-22.07160839334225],[-54.95767909699998,-22.07214969134227],[-54.95767948699995,-22.072148887342234],[-54.96481093799998,-22.057429788342596],[-54.96592569599994,-22.078171172342067],[-54.96592569899997,-22.078171196342094],[-54.96592570599995,-22.078171201342098],[-54.96649923199994,-22.082782560341954],[-54.96725819899996,-22.083323077342],[-54.98405520799997,-22.084245597341926],[-54.98465268899998,-22.087116607341894],[-54.98063800899996,-22.08911253134182],[-54.97883559799993,-22.091598445341788],[-54.986174570999935,-22.09694025634166],[-54.98117434999995,-22.10186766434151],[-54.99445704499993,-22.11416741034127],[-54.99264327199995,-22.115818010341183],[-54.99333135999996,-22.118735084341143],[-54.991747043999965,-22.122031847341045],[-54.97363610799994,-22.104666661341465],[-54.96906487299998,-22.104201891341447],[-54.969273226999974,-22.106015127341443],[-54.96984070199994,-22.111092998341302],[-54.971149552999975,-22.122003393341032],[-54.972430260999936,-22.133480353340804]],[[-54.93752162499993,-22.11911935434112],[-54.937699062999975,-22.119314742341118],[-54.93803232399995,-22.119466659341107],[-54.93768928299994,-22.119147896341115],[-54.93766870199994,-22.119103659341118],[-54.93758172199995,-22.11899365634114],[-54.93752162499993,-22.11911935434112]],[[-54.94415196199998,-22.12251854434102],[-54.94415581199997,-22.122526429341022],[-54.94462123899995,-22.122992381341035],[-54.94469681699996,-22.122908191341033],[-54.94435655199993,-22.122705472341018],[-54.94415196199998,-22.12251854434102]],[[-54.95842120799994,-22.130038899340835],[-54.95541758099995,-22.136792327340718],[-54.95662463699995,-22.137075131340705],[-54.95817381799998,-22.13264831434083],[-54.958992604999935,-22.130308616340873],[-54.958873437999955,-22.130278228340853],[-54.95842120799994,-22.130038899340835]],[[-54.92258297499996,-22.14758399434043],[-54.92255173299998,-22.147722388340462],[-54.92294979999997,-22.148016711340443],[-54.92258297499996,-22.14758399434043]],[[-54.967964542999944,-22.132623085340825],[-54.96694040699998,-22.1323067283408],[-54.967115278999984,-22.13380459934078],[-54.968269695999936,-22.143692460340535],[-54.96847741499994,-22.14542886834049],[-54.97037182299993,-22.145247194340524],[-54.970894418999926,-22.145197077340516],[-54.97071263799995,-22.14367772134054],[-54.970073989999946,-22.13819288034067],[-54.96943534199994,-22.13270803934079],[-54.968638658999964,-22.132662023340803],[-54.967964542999944,-22.132623085340825]]]},"properties":{"objectid":59,"cd_quilomb":16,"cd_sr":"SR-16","nr_process":"54290.000373/2005-12","nm_comunid":"DESIDÉRIO FELIPE DE OLIVEIRA PICADINHA","nm_municip":"DOURADOS","cd_uf":"MS","dt_publica":"24/12/2009","nr_familia":60,"dt_titulac":null,"cd_sipra":null,"ob_descric":"PORTARIA","st_titulad":null,"dt_decreto":null,"tp_levanta":null,"esfera":"FEDERAL","fase":"PORTARIA","responsave":"INCRA","dt_sync":2540763991000,"Shape__Area":0.003924639099245185,"Shape__Length":0.42687187858346504}},{"type":"Feature","id":223,"geometry":{"type":"Polygon","coordinates":[[[-54.58943542999998,-20.159282848388877],[-54.582677503999946,-20.166520162388707],[-54.58414370599997,-20.166939176388688],[-54.58483482599997,-20.167431339388656],[-54.58497218699995,-20.16782685938863],[-54.585516156999965,-20.16844784938864],[-54.58529727199994,-20.16852711138862],[-54.583924664999984,-20.169095867388627],[-54.582422373999975,-20.170979272388553],[-54.583235438999964,-20.172340213388562],[-54.58247748399998,-20.17275178338853],[-54.58221422499997,-20.174442888388516],[-54.581926762999956,-20.1745590383885],[-54.58045570799993,-20.174654934388514],[-54.57861746499998,-20.173217378388504],[-54.57817439299998,-20.173024440388513],[-54.577685438999936,-20.172811543388526],[-54.57713663399995,-20.172993709388532],[-54.57687902699996,-20.173362480388516],[-54.575257816999965,-20.17301432038856],[-54.57361964199998,-20.173021344388506],[-54.57380450299997,-20.172724992388545],[-54.56396363399995,-20.170699367388554],[-54.56375816599995,-20.17066527738857],[-54.562630283999965,-20.170478526388578],[-54.55461466699995,-20.168769181388623],[-54.55665400199996,-20.159237322388872],[-54.556795499999964,-20.1592392873889],[-54.55838625799999,-20.150689871389062],[-54.56019845999998,-20.15024894838908],[-54.56098607599995,-20.150262754389114],[-54.561680584999976,-20.15024393138911],[-54.56273779499997,-20.150347882389084],[-54.56366323299994,-20.15037216238908],[-54.56492943299997,-20.150294053389114],[-54.56559308299996,-20.151075141389086],[-54.56628301599994,-20.15136407938906],[-54.56681837599996,-20.15174876638906],[-54.56731083299996,-20.151934011389063],[-54.56772418299993,-20.151954534389052],[-54.56841497399994,-20.152318246389072],[-54.56911426199997,-20.15237441238904],[-54.56998309599999,-20.15273290238904],[-54.57065584299994,-20.15307685238903],[-54.570786673999976,-20.153143767389007],[-54.57160639799998,-20.151955042389023],[-54.57304446899996,-20.15172094538906],[-54.57350260299995,-20.1511579913891],[-54.573419283999954,-20.1501764213891],[-54.57227771699996,-20.1495843653891],[-54.57194456399997,-20.148422355389165],[-54.573579661999986,-20.14767578938914],[-54.57365470599996,-20.148264787389145],[-54.57470610699994,-20.14857158838915],[-54.575789079999936,-20.14863608238911],[-54.57644223199998,-20.14812465738917],[-54.57696697599994,-20.147773286389146],[-54.57726086699995,-20.1467292703892],[-54.57813233599995,-20.14613541638922],[-54.57875148099998,-20.145112125389232],[-54.57912571899994,-20.145187708389233],[-54.578806726999964,-20.14423296738928],[-54.57833928299993,-20.144447421389216],[-54.57831929499997,-20.143914446389232],[-54.577531505999964,-20.143417415389283],[-54.57762720999995,-20.1427982573893],[-54.57900269199996,-20.14067002838936],[-54.57961455199995,-20.139701716389386],[-54.57979186399996,-20.139531673389364],[-54.58023389999994,-20.139308196389354],[-54.58074369499997,-20.138248715389416],[-54.58135085499998,-20.138000321389434],[-54.58106307699995,-20.137582688389394],[-54.58134700299996,-20.137269351389445],[-54.58178623899994,-20.136978735389427],[-54.58184753399996,-20.13607148238947],[-54.58222119299996,-20.136295328389437],[-54.58217174299995,-20.136383418389453],[-54.581962119999965,-20.13632978938942],[-54.58223737399993,-20.13659210738943],[-54.58213157999995,-20.136675721389434],[-54.58218766099998,-20.136933315389427],[-54.582371008999985,-20.136886345389456],[-54.58245410599994,-20.13687963038942],[-54.58279080999995,-20.13698250238943],[-54.585064762999934,-20.137900933389407],[-54.58576814899994,-20.138520760389373],[-54.59044506199996,-20.140438758389344],[-54.589575267999976,-20.141165089389318],[-54.599720718999954,-20.1489183373891],[-54.59741710299994,-20.151264625389057],[-54.59698858599995,-20.15206564438904],[-54.59505894599994,-20.153839413388997],[-54.594801304999976,-20.153928364388992],[-54.58943542999998,-20.159282848388877]]]},"properties":{"objectid":223,"cd_quilomb":46,"cd_sr":"SR-16","nr_process":"54290.000401/2004-11","nm_comunid":"FURNAS  DIONISIO","nm_municip":"JARAGUARI","cd_uf":"MS","dt_publica":"29/05/2008","nr_familia":92,"dt_titulac":"0000/00/00","cd_sipra":null,"ob_descric":"Estudo de delimitação","st_titulad":"F","dt_decreto":"23/11/2009","tp_levanta":"GPS trimble pro-xr, 1.5m de precisão , hypper L1L2","esfera":"FEDERAL","fase":"DECRETO","responsave":"INCRA","dt_sync":2540763992000,"Shape__Area":0.0008791419140571907,"Shape__Length":0.15135590549861164}},{"type":"Feature","id":229,"geometry":{"type":"Polygon","coordinates":[[[-54.533533459999944,-20.746032906374282],[-54.53329665399997,-20.74610364137429],[-54.53303553899996,-20.74601600737428],[-54.53301252699998,-20.745925651374296],[-54.53287612499997,-20.745907801374287],[-54.53240689299997,-20.745868015374285],[-54.53236967399994,-20.745671267374284],[-54.53232130999999,-20.745581540374292],[-54.53220802799996,-20.74556456337427],[-54.53204621899994,-20.745432484374298],[-54.53197131399997,-20.745375334374273],[-54.53183937799997,-20.745454977374262],[-54.53179522199997,-20.7453130293743],[-54.53159693599998,-20.745246071374257],[-54.531580585999954,-20.745177030374297],[-54.53139592199995,-20.745086971374295],[-54.53132363299994,-20.74501062537428],[-54.53126458299994,-20.745047069374273],[-54.53124745799994,-20.745025784374278],[-54.52740596299998,-20.73917761137442],[-54.53330978199995,-20.740092077374428],[-54.53335256099996,-20.740159149374417],[-54.53566040499994,-20.73958970337444],[-54.53609536699998,-20.7394270843744],[-54.536849773999954,-20.73926443637445],[-54.53468928799999,-20.746317401374228],[-54.53373831299996,-20.746014717374273],[-54.533533459999944,-20.746032906374282]]]},"properties":{"objectid":229,"cd_quilomb":146,"cd_sr":"SR-16","nr_process":"54290.000405/2004-91","nm_comunid":"CHÁCARA BURITI","nm_municip":"CAMPO GRANDE","cd_uf":"MS","dt_publica":"07/01/2008","nr_familia":19,"dt_titulac":"27/04/2012","cd_sipra":null,"ob_descric":"estudo de delimitação","st_titulad":"F","dt_decreto":"23/11/2009","tp_levanta":"GPS TRIMBLE PRO-XR, COM PRECISÃO DE ATÉ 1,5M","esfera":"FEDERAL","fase":"TITULO PARCIAL","responsave":"INCRA","dt_sync":2540763992000,"Shape__Area":3.726817052991101e-05,"Shape__Length":0.028178456175516897}},{"type":"Feature","id":248,"geometry":{"type":"MultiPolygon","coordinates":[[[[-55.81476267099998,-21.15642154536419],[-55.81751268299996,-21.158140993364157],[-55.81769046199997,-21.158966050364125],[-55.81844881999996,-21.15898544136414],[-55.81884049799999,-21.159738273364116],[-55.81877933099998,-21.161232710364104],[-55.81865711199998,-21.16152437936407],[-55.81862381199994,-21.162443813364074],[-55.81766829499998,-21.162751341364068],[-55.81757106499998,-21.162976332364046],[-55.81779599499998,-21.16301882836404],[-55.817762691999974,-21.163743849364014],[-55.81844051799993,-21.16380495736403],[-55.81841827299996,-21.16397437136399],[-55.81777661999996,-21.163857685364047],[-55.81770993099997,-21.16466323636401],[-55.81740985799996,-21.164707844364003],[-55.81740987099994,-21.163857741364012],[-55.815665438999986,-21.163527177364067],[-55.813390454999926,-21.16198755436405],[-55.813051589999986,-21.162235510364066],[-55.812309846999945,-21.161785469364037],[-55.81123759199994,-21.159343808364135],[-55.81060153899995,-21.158252092364133],[-55.81476267099998,-21.15642154536419]]],[[[-55.818904356999944,-21.164410496364003],[-55.81980718099993,-21.16602440636398],[-55.818779407999955,-21.166999413363968],[-55.81860963599996,-21.167178095363916],[-55.81652302899994,-21.1681354793639],[-55.81512343299994,-21.16847168336389],[-55.81427628599994,-21.16860198036389],[-55.813824691999976,-21.167814479363916],[-55.81483240399995,-21.16774258536395],[-55.81465627799997,-21.16689242336395],[-55.81510955199996,-21.165303893364005],[-55.817409890999954,-21.164800624363984],[-55.81772376699996,-21.16475222736399],[-55.818904356999944,-21.164410496364003]]],[[[-55.818871086999934,-21.16718272136394],[-55.81826836899995,-21.17438550436379],[-55.81655158899997,-21.17471606836375],[-55.81623496799995,-21.17112445136386],[-55.81593496399995,-21.171146652363817],[-55.81517645699995,-21.168646592363896],[-55.81658995999993,-21.168305878363903],[-55.81873379399997,-21.167322242363927],[-55.818871086999934,-21.16718272136394]]]]},"properties":{"objectid":248,"cd_quilomb":0,"cd_sr":"SR-16","nr_process":"54290.002980/2006-90","nm_comunid":"FAMILIAS ARAUJO E RIBEIRO","nm_municip":"NIOAQUE","cd_uf":"MS","dt_publica":"18/08/2014","nr_familia":22,"dt_titulac":null,"cd_sipra":null,"ob_descric":null,"st_titulad":null,"dt_decreto":null,"tp_levanta":null,"esfera":"FEDERAL","fase":"PORTARIA","responsave":"INCRA","dt_sync":2540763992000,"Shape__Area":6.936689299257551e-05,"Shape__Length":0.06432962600415153}},{"type":"Feature","id":380,"geometry":{"type":"MultiPolygon","coordinates":[[[[-54.96634109299998,-21.562141860354362],[-54.969986553999945,-21.55896737435445],[-54.97020357199995,-21.558784209354446],[-54.97027411199997,-21.559165467354447],[-54.97123913799999,-21.560523447354434],[-54.97143042999994,-21.56172657035439],[-54.97357396899997,-21.566786971354258],[-54.97500483299996,-21.56866427035422],[-54.97514585799996,-21.569409959354232],[-54.97516309499997,-21.572261899354135],[-54.97701962199994,-21.57483525935406],[-54.97792288199998,-21.57520050935406],[-54.978968677999944,-21.576205155354046],[-54.980550103999974,-21.576791132354046],[-54.98191341599994,-21.576736861354043],[-54.98333560499998,-21.577887733353993],[-54.984823794999954,-21.579747868353973],[-54.984859289999974,-21.582653405353913],[-54.98445339699998,-21.584632403353826],[-54.98337220199994,-21.586178018353788],[-54.98289363099997,-21.587943545353784],[-54.98398571899998,-21.591074355353722],[-54.983981658999944,-21.592415703353655],[-54.98380654099998,-21.593555434353615],[-54.98400565299993,-21.594695388353625],[-54.96246451299999,-21.611202222353217],[-54.961280569999985,-21.612114723353223],[-54.940982161999955,-21.600412127353472],[-54.92986091399996,-21.594026046353605],[-54.92979619399995,-21.59387840235363],[-54.96634109299998,-21.562141860354362]]],[[[-54.91940039599996,-21.603717292353366],[-54.93076123199995,-21.595231504353592],[-54.94245012299995,-21.601946504353425],[-54.91687712899994,-21.620944003352992],[-54.91678541999994,-21.62101301835299],[-54.91549018199999,-21.620494755352993],[-54.91500573299999,-21.619957318353016],[-54.91425837399999,-21.61927491035299],[-54.91358109399994,-21.61898293035302],[-54.91268281299995,-21.61826318435302],[-54.91212483399994,-21.617583067353035],[-54.91175701499998,-21.616834516353087],[-54.91161579299995,-21.616124307353076],[-54.91149186399998,-21.614209707353158],[-54.91116649099996,-21.613142941353175],[-54.91016186799993,-21.611925827353208],[-54.90979442999998,-21.61109722635321],[-54.90976967399996,-21.610912903353235],[-54.91231100899996,-21.609014852353265],[-54.91940039599996,-21.603717292353366]]]]},"properties":{"objectid":380,"cd_quilomb":0,"cd_sr":"SR-16","nr_process":"54290.004222/2006-14","nm_comunid":"FAMÍLIA JARCEM","nm_municip":"RIO BRILHANTE","cd_uf":"MS","dt_publica":"16/08/2017","nr_familia":97,"dt_titulac":null,"cd_sipra":null,"ob_descric":null,"st_titulad":null,"dt_decreto":null,"tp_levanta":"GPS","esfera":"FEDERAL","fase":"RTID","responsave":"INCRA","dt_sync":2540763992000,"Shape__Area":0.001889097592642919,"Shape__Length":0.24659298624791298}},{"type":"Feature","id":399,"geometry":{"type":"Polygon","coordinates":[[[-55.83131256399997,-21.184915804363495],[-55.83090258699997,-21.187049974363486],[-55.830921743999966,-21.187051461363446],[-55.83007814399997,-21.191308520363336],[-55.828716644999986,-21.191088324363346],[-55.82923211199994,-21.18840779136343],[-55.82982620699994,-21.185378543363495],[-55.82985951799998,-21.18519718936349],[-55.83005083699993,-21.18523148836348],[-55.830454274999965,-21.18314551736354],[-55.83076413899994,-21.181504908363596],[-55.830968576999965,-21.1804087743636],[-55.82982397899997,-21.180202648363643],[-55.82999377799996,-21.17928632436365],[-55.83115047299998,-21.17943534736365],[-55.83152600799997,-21.177549553363672],[-55.832690373999974,-21.177762940363696],[-55.83254626599995,-21.178513218363683],[-55.83233881199993,-21.17957816636362],[-55.832134854999936,-21.18065126836362],[-55.83192885399996,-21.181714328363558],[-55.83172271899997,-21.182794010363548],[-55.83151985999996,-21.183848508363553],[-55.83131256399997,-21.184915804363495]]]},"properties":{"objectid":399,"cd_quilomb":44,"cd_sr":"SR-16","nr_process":"54290.001687/2005-24","nm_comunid":"FAMILIA CARDOSO","nm_municip":"NIOAQUE","cd_uf":"MS","dt_publica":"24/12/2007","nr_familia":10,"dt_titulac":null,"cd_sipra":null,"ob_descric":"Estudo de delimitação","st_titulad":"F","dt_decreto":null,"tp_levanta":"PRO-XR  trimble 1.5 metros de precisão","esfera":"FEDERAL","fase":"RTID","responsave":"INCRA","dt_sync":2540763992000,"Shape__Area":1.8684318393067004e-05,"Shape__Length":0.03266820406303688}},{"type":"Feature","id":421,"geometry":{"type":"MultiPolygon","coordinates":[[[[-55.173733813999945,-19.915169111395002],[-55.16182302599998,-19.925767750394762],[-55.15851907499996,-19.928694252394664],[-55.15201628799997,-19.923604047394814],[-55.151473542999945,-19.92411672439483],[-55.143247057999986,-19.93187738639457],[-55.140696960999946,-19.934584308394516],[-55.14054217899996,-19.934432739394563],[-55.13941367999996,-19.935496130394526],[-55.13645770199997,-19.93828291739445],[-55.13629134699994,-19.938067540394442],[-55.12991504299998,-19.929919382394658],[-55.12820064599998,-19.930274574394634],[-55.125116562999956,-19.926693162394752],[-55.12646164399996,-19.926542676394718],[-55.12707375599996,-19.926334956394722],[-55.11691761999999,-19.913028604395084],[-55.12928216499996,-19.90856075939518],[-55.13168711299995,-19.90769158739523],[-55.128853222999965,-19.90106774839536],[-55.14679712499998,-19.900565095395418],[-55.153595494999934,-19.90034500939541],[-55.15694744999996,-19.90024381839541],[-55.173272733999966,-19.913477871395028],[-55.17449876599994,-19.914485022395034],[-55.173733813999945,-19.915169111395002]]],[[[-55.11816671299994,-19.89926197839543],[-55.11873345399993,-19.899409060395435],[-55.119121897999946,-19.899530327395432],[-55.119666301999985,-19.899741730395405],[-55.12016314299996,-19.900009122395414],[-55.121077738999986,-19.90031075239537],[-55.12161221799993,-19.900219822395375],[-55.124046702999976,-19.901152267395403],[-55.12479651799998,-19.901507985395373],[-55.12539464099996,-19.901946609395385],[-55.125850379999974,-19.90265765739533],[-55.126556438999955,-19.9042904283953],[-55.12855994299997,-19.906299243395267],[-55.12714053199994,-19.90657827239527],[-55.12589986799997,-19.906744901395243],[-55.12628249599993,-19.907256866395215],[-55.12563264499994,-19.908048539395224],[-55.12432385999995,-19.908134259395176],[-55.12245663699997,-19.90836538739518],[-55.12119455799996,-19.908614363395188],[-55.12015084999996,-19.90882025239516],[-55.118963106999956,-19.9086379373952],[-55.117752559999985,-19.90681103939525],[-55.11934676899995,-19.90525747739527],[-55.119151037999984,-19.903723508395316],[-55.11911768299996,-19.903462090395305],[-55.119775739999966,-19.900968734395367],[-55.119146419999936,-19.900220100395387],[-55.11763504999994,-19.899810188395392],[-55.11703275199994,-19.899558352395438],[-55.11609364499998,-19.8992720433954],[-55.11475605199996,-19.89950052939542],[-55.114540191999936,-19.89897671739545],[-55.11334026199996,-19.898740094395407],[-55.11341555399997,-19.897969947395463],[-55.113028492999945,-19.897617744395443],[-55.11313559599995,-19.897312756395472],[-55.11358870199996,-19.897455123395495],[-55.11396752199994,-19.897619121395486],[-55.11470899899996,-19.898114031395473],[-55.11543104699996,-19.898247806395453],[-55.11618720599996,-19.89842197439546],[-55.116775368999974,-19.898657173395414],[-55.11734751899996,-19.898948790395433],[-55.11779597099996,-19.899223772395437],[-55.11816671299994,-19.89926197839543]]]]},"properties":{"objectid":421,"cd_quilomb":131,"cd_sr":"SR-16","nr_process":"54290.000404/2004-46","nm_comunid":"FURNAS BOA SORTE","nm_municip":"CORGUINHO","cd_uf":"MS","dt_publica":"12/09/2006","nr_familia":52,"dt_titulac":null,"cd_sipra":null,"ob_descric":"estudo de delimitação","st_titulad":"F","dt_decreto":"23/11/2009","tp_levanta":null,"esfera":"FEDERAL","fase":"DECRETO","responsave":"INCRA","dt_sync":2540763992000,"Shape__Area":0.0012822142906459349,"Shape__Length":0.20830606410262956}},{"type":"Feature","id":429,"geometry":{"type":"MultiPolygon","coordinates":[[[[-54.61443925899994,-20.423097150382294],[-54.61446716599994,-20.423049159382263],[-54.61448355499993,-20.42299769038229],[-54.614493732999954,-20.42295751838228],[-54.61452489899995,-20.42289392238226],[-54.61455881899997,-20.4228474363823],[-54.61459392799998,-20.422789110382258],[-54.614746959999934,-20.4227176983823],[-54.61478767999995,-20.42268695638226],[-54.61480768499996,-20.42262937138229],[-54.61480342999994,-20.422579043382314],[-54.61484909599994,-20.422488612382256],[-54.61487290499997,-20.4224453073823],[-54.61491202299994,-20.422387985382265],[-54.61501133699994,-20.422341921382262],[-54.615052419999984,-20.42235291738227],[-54.61508580599997,-20.42234104438227],[-54.61509757299996,-20.422295677382294],[-54.61510629299994,-20.422252166382282],[-54.61514613799994,-20.422245598382283],[-54.61520041599994,-20.422216464382295],[-54.61524046699998,-20.42216389638231],[-54.61535344899995,-20.42211232838229],[-54.61538829299997,-20.422103794382277],[-54.61541769199994,-20.422089495382295],[-54.615431687999944,-20.422062655382323],[-54.61542485399997,-20.421983836382307],[-54.61541751699997,-20.42194535038232],[-54.61548100799997,-20.42189829138232],[-54.61550171999994,-20.421827438382305],[-54.61551064199994,-20.421754525382312],[-54.61553788799995,-20.421700360382324],[-54.615583853999965,-20.42166223138231],[-54.61559685599997,-20.421628133382292],[-54.61562048299999,-20.421563959382308],[-54.61562532499994,-20.4215109093823],[-54.61567033199998,-20.421463152382287],[-54.61572847499997,-20.421411781382304],[-54.61577413699996,-20.42138679638232],[-54.61583423299998,-20.421339246382296],[-54.615872545999935,-20.42133408038231],[-54.61591828099995,-20.42130435438231],[-54.61596483399995,-20.42122152338234],[-54.61601325299995,-20.421148204382316],[-54.61601102499998,-20.421096954382296],[-54.61604119099996,-20.42103286938234],[-54.61606565699998,-20.420946891382325],[-54.616091170999944,-20.420923527382314],[-54.616150893999986,-20.420900158382292],[-54.61623284299997,-20.420838205382303],[-54.61625595899994,-20.420807221382315],[-54.61628612399994,-20.420775860382353],[-54.61631950399993,-20.420731737382336],[-54.61636054799993,-20.42068643438231],[-54.61682113599994,-20.42106742938229],[-54.617166976999954,-20.42135324138231],[-54.617238974999964,-20.421415598382303],[-54.617304295999986,-20.421479860382316],[-54.617398556999945,-20.421601951382296],[-54.617899147999935,-20.42229627038227],[-54.61790591099998,-20.42233246538228],[-54.61764671299994,-20.422474268382295],[-54.61750996999996,-20.422550699382263],[-54.61727636699993,-20.422690162382295],[-54.61668381399994,-20.42305128138227],[-54.61648860499997,-20.423173263382274],[-54.616385029999954,-20.42324311238227],[-54.61633707899995,-20.423275831382252],[-54.61620184699996,-20.42340583138226],[-54.61481354799997,-20.424985437382222],[-54.61475914699997,-20.425042548382223],[-54.61471691299994,-20.425084033382216],[-54.61466676499998,-20.425128786382206],[-54.614604318999966,-20.425174554382217],[-54.61452235399997,-20.425225716382194],[-54.61442943799995,-20.425267679382202],[-54.61433787999994,-20.42529235038219],[-54.61425934699997,-20.425312920382208],[-54.61417869899997,-20.425335550382197],[-54.614156340999955,-20.42531086438223],[-54.61411253799997,-20.42523153838224],[-54.614085175999946,-20.4251789953822],[-54.614026774999964,-20.425116542382202],[-54.61396526999994,-20.425027014382216],[-54.61393883299997,-20.424979701382235],[-54.613920726999936,-20.424946730382242],[-54.613873342999966,-20.42484411738223],[-54.613887580999965,-20.424812537382245],[-54.613907147999946,-20.4247834023822],[-54.61392236299997,-20.424742825382214],[-54.61393347499995,-20.42469104738221],[-54.61394483799995,-20.424590425382238],[-54.61394963699996,-20.424540220382244],[-54.61394020599994,-20.42449930538225],[-54.61391863099993,-20.424462967382215],[-54.61389065599997,-20.424417529382247],[-54.61387410299994,-20.424381734382216],[-54.61385284199997,-20.42432500738227],[-54.61382885499995,-20.424281995382223],[-54.61380749199998,-20.424231906382257],[-54.61378960599996,-20.42418471038224],[-54.613768278999935,-20.42413225138222],[-54.613744329999975,-20.424054145382236],[-54.61373124099998,-20.423989468382235],[-54.613716985999986,-20.42393520838227],[-54.61372899299994,-20.42390691838222],[-54.61381369199996,-20.42386255138225],[-54.61390787499994,-20.42382305738228],[-54.61397927199994,-20.423760486382278],[-54.61404027299995,-20.423719588382273],[-54.61409650799993,-20.423661552382235],[-54.614151867999965,-20.423594967382282],[-54.614198945999924,-20.423543445382244],[-54.61423708799998,-20.423484212382245],[-54.61423071899998,-20.42344049438227],[-54.61431041199995,-20.42336191238225],[-54.61433932399996,-20.423313935382247],[-54.614367362999985,-20.42325740938227],[-54.61440269099995,-20.423184859382246],[-54.61443925899994,-20.423097150382294]]],[[[-54.61362431899993,-20.425902615382217],[-54.61364662999995,-20.425952913382176],[-54.613948146999974,-20.426683533382167],[-54.61400567899995,-20.42682160038219],[-54.61405576799996,-20.42693288038218],[-54.61413393099997,-20.427070517382155],[-54.61421068299995,-20.42718164838219],[-54.61431255499998,-20.427301937382182],[-54.61436397699998,-20.427354262382135],[-54.61150459599997,-20.42878401438213],[-54.61119860399999,-20.428116307382158],[-54.61203311699995,-20.427776084382142],[-54.612898617999974,-20.42742322438213],[-54.61220419199998,-20.425853628382207],[-54.61297351899998,-20.42569224438218],[-54.61319670399996,-20.425664429382174],[-54.61325409999995,-20.4256798373822],[-54.61342647899995,-20.42574465438221],[-54.613458364999985,-20.425756668382196],[-54.613494353999954,-20.425770117382193],[-54.613535526999954,-20.425789902382203],[-54.61356293699998,-20.425810803382227],[-54.61359617199997,-20.425852454382174],[-54.61362431899993,-20.425902615382217]]],[[[-54.614776631999966,-20.426258635382176],[-54.614733581999985,-20.4262052003822],[-54.61468940299994,-20.426142999382208],[-54.614610951999964,-20.42601348638221],[-54.61459736599994,-20.4259893973822],[-54.61459966299998,-20.425973417382192],[-54.61461071999997,-20.425957080382222],[-54.61464680399996,-20.425927150382183],[-54.615742345999934,-20.425206247382196],[-54.61610794999996,-20.42569759938222],[-54.61500083799996,-20.42643896338217],[-54.61496679899995,-20.426436646382164],[-54.614860018999934,-20.426344536382203],[-54.61481699999996,-20.42630214638218],[-54.614776631999966,-20.426258635382176]]],[[[-54.612253804999966,-20.42566558538223],[-54.61223153299994,-20.425666787382195],[-54.61222333799998,-20.425653464382222],[-54.612113131999934,-20.42514671738221],[-54.61214310099996,-20.425129067382194],[-54.61227663599993,-20.425105632382195],[-54.61266133399994,-20.4250337453822],[-54.61268486999995,-20.425059200382222],[-54.61278354899997,-20.425515950382213],[-54.612794287999975,-20.42556565838222],[-54.61256499999996,-20.425608050382174],[-54.612253804999966,-20.42566558538223]]],[[[-54.616454803999936,-20.425468763382224],[-54.61608716799998,-20.424978729382236],[-54.61796664599996,-20.423741183382244],[-54.618603788999955,-20.423323801382278],[-54.61861867499994,-20.423320044382272],[-54.61896184399995,-20.42379645138227],[-54.61896214699994,-20.42380106938226],[-54.61895893099995,-20.42380839638227],[-54.61894959199998,-20.423818558382287],[-54.616454803999936,-20.425468763382224]]],[[[-54.61648104699998,-20.423338613382242],[-54.616575902999955,-20.423282515382276],[-54.61676019599997,-20.423170263382275],[-54.61737107899995,-20.42279451238225],[-54.617465084999935,-20.422739513382272],[-54.61797288899999,-20.4224497243823],[-54.618006116999936,-20.422441337382274],[-54.61852778699995,-20.42316376938229],[-54.618550073999984,-20.42319559738226],[-54.618560660999954,-20.423211652382264],[-54.618562140999984,-20.42322215438227],[-54.61855682999993,-20.42323736138226],[-54.61854905099995,-20.42324636538226],[-54.61852294299996,-20.423263655382275],[-54.618047769999976,-20.423574699382264],[-54.614590731999954,-20.42583629738222],[-54.61456822099995,-20.42585120438221],[-54.61454706699993,-20.425847013382185],[-54.61453319799995,-20.42581518138221],[-54.614465701999954,-20.425650519382224],[-54.614395413999944,-20.42549113738219],[-54.614364233999936,-20.42542043438224],[-54.61450171599995,-20.42538078938222],[-54.614559491999955,-20.42535589738222],[-54.61461755399995,-20.425325728382205],[-54.61467376199994,-20.425288755382184],[-54.61474297099994,-20.42523466238223],[-54.61479361499993,-20.425192517382218],[-54.61485048199995,-20.425138537382203],[-54.614894696999954,-20.425092799382217],[-54.61492246599994,-20.425063714382226],[-54.61632555299997,-20.423486097382256],[-54.61640578499998,-20.42340059638226],[-54.61648104699998,-20.423338613382242]]]]},"properties":{"objectid":429,"cd_quilomb":0,"cd_sr":"SR-16","nr_process":"54290.003453/2007-83\r\n","nm_comunid":"TIA EVA","nm_municip":"CAMPO GRANDE","cd_uf":"MS","dt_publica":"24/04/2018","nr_familia":136,"dt_titulac":null,"cd_sipra":null,"ob_descric":null,"st_titulad":null,"dt_decreto":null,"tp_levanta":null,"esfera":"FEDERAL","fase":"RTID","responsave":"INCRA","dt_sync":2540763992000,"Shape__Area":1.8553478876046503e-05,"Shape__Length":0.048270990295511566}}],"atlas_metadata":{"source_url":"https://pamgia.ibama.gov.br/server/rest/services/BasesSincronizadas/lim_quilombos_incra_a/FeatureServer/0","where":"1=1","capture_utc":"2026-08-16T15:18:03.414973+00:00","object_id_field":"objectid","arcgis_id_count":11,"output_crs":"EPSG:4326","filtered_to_ms_by_local_boundary":true,"ms_feature_count":9,"capture_date":"2026-08-16","purpose":"fonte territorial do ISGT V0.1","ms_filter_method":"spatial_envelope_then_exact_intersection_with_ibge_ms_boundary"},"name":"territorios_quilombolas_poligonos"}